{
"type": "FeatureCollection",
"name": "ES24_MATRICULA",
"crs": { "type": "name", "properties": { "name": "urn:ogc:def:crs:OGC:1.3:CRS84" } },
"features": [
{ "type": "Feature", "properties": { "DIRECCION": null, "ADRES": null, "layer": "ES24_1C_TTARDE_2023", "path": "C:/Users/usuario/Documents/ES24_1C_TTARDE_2023.shp" }, "geometry": { "type": "Point", "coordinates": [ -58.600637347841079, -34.548317664874517 ] } },
{ "type": "Feature", "properties": { "DIRECCION": null, "ADRES": null, "layer": "ES24_1C_TTARDE_2023", "path": "C:/Users/usuario/Documents/ES24_1C_TTARDE_2023.shp" }, "geometry": { "type": "Point", "coordinates": [ -58.597945760106576, -34.553881672077353 ] } },
{ "type": "Feature", "properties": { "DIRECCION": null, "ADRES": null, "layer": "ES24_1C_TTARDE_2023", "path": "C:/Users/usuario/Documents/ES24_1C_TTARDE_2023.shp" }, "geometry": { "type": "Point", "coordinates": [ -58.603098473834144, -34.554065404097294 ] } },
{ "type": "Feature", "properties": { "DIRECCION": null, "ADRES": null, "layer": "ES24_1C_TTARDE_2023", "path": "C:/Users/usuario/Documents/ES24_1C_TTARDE_2023.shp" }, "geometry": { "type": "Point", "coordinates": [ -58.600124009481334, -34.547593499911748 ] } },
{ "type": "Feature", "properties": { "DIRECCION": null, "ADRES": null, "layer": "ES24_1C_TTARDE_2023", "path": "C:/Users/usuario/Documents/ES24_1C_TTARDE_2023.shp" }, "geometry": { "type": "Point", "coordinates": [ -58.605290909708657, -34.552716390135501 ] } },
{ "type": "Feature", "properties": { "DIRECCION": null, "ADRES": null, "layer": "ES24_1C_TTARDE_2023", "path": "C:/Users/usuario/Documents/ES24_1C_TTARDE_2023.shp" }, "geometry": { "type": "Point", "coordinates": [ -58.625093521955364, -34.567828049571986 ] } },
{ "type": "Feature", "properties": { "DIRECCION": null, "ADRES": null, "layer": "ES24_1C_TTARDE_2023", "path": "C:/Users/usuario/Documents/ES24_1C_TTARDE_2023.shp" }, "geometry": { "type": "Point", "coordinates": [ -58.601334991724357, -34.553438017209999 ] } },
{ "type": "Feature", "properties": { "DIRECCION": null, "ADRES": null, "layer": "ES24_1C_TTARDE_2023", "path": "C:/Users/usuario/Documents/ES24_1C_TTARDE_2023.shp" }, "geometry": { "type": "Point", "coordinates": [ -58.603876988952528, -34.554498361987775 ] } },
{ "type": "Feature", "properties": { "DIRECCION": null, "ADRES": null, "layer": "ES24_1C_TTARDE_2023", "path": "C:/Users/usuario/Documents/ES24_1C_TTARDE_2023.shp" }, "geometry": { "type": "Point", "coordinates": [ -58.602672950195611, -34.55469738821801 ] } },
{ "type": "Feature", "properties": { "DIRECCION": null, "ADRES": null, "layer": "ES24_1C_TTARDE_2023", "path": "C:/Users/usuario/Documents/ES24_1C_TTARDE_2023.shp" }, "geometry": { "type": "Point", "coordinates": [ -58.597041237852004, -34.544342381834504 ] } },
{ "type": "Feature", "properties": { "DIRECCION": null, "ADRES": null, "layer": "ES24_1C_TTARDE_2023", "path": "C:/Users/usuario/Documents/ES24_1C_TTARDE_2023.shp" }, "geometry": { "type": "Point", "coordinates": [ -58.602226696165324, -34.551864640147741 ] } },
{ "type": "Feature", "properties": { "DIRECCION": null, "ADRES": null, "layer": "ES24_1C_TTARDE_2023", "path": "C:/Users/usuario/Documents/ES24_1C_TTARDE_2023.shp" }, "geometry": { "type": "Point", "coordinates": [ -58.597310396684165, -34.554479028278983 ] } },
{ "type": "Feature", "properties": { "DIRECCION": null, "ADRES": null, "layer": "ES24_1C_TTARDE_2023", "path": "C:/Users/usuario/Documents/ES24_1C_TTARDE_2023.shp" }, "geometry": { "type": "Point", "coordinates": [ -58.597278226558167, -34.554505523180552 ] } },
{ "type": "Feature", "properties": { "DIRECCION": null, "ADRES": null, "layer": "ES24_1C_TTARDE_2023", "path": "C:/Users/usuario/Documents/ES24_1C_TTARDE_2023.shp" }, "geometry": { "type": "Point", "coordinates": [ -58.600801145092404, -34.554759312744849 ] } },
{ "type": "Feature", "properties": { "DIRECCION": null, "ADRES": null, "layer": "ES24_1C_TTARDE_2023", "path": "C:/Users/usuario/Documents/ES24_1C_TTARDE_2023.shp" }, "geometry": { "type": "Point", "coordinates": [ -58.609246672131867, -34.554308576475862 ] } },
{ "type": "Feature", "properties": { "DIRECCION": null, "ADRES": null, "layer": "ES24_1C_TTARDE_2023", "path": "C:/Users/usuario/Documents/ES24_1C_TTARDE_2023.shp" }, "geometry": { "type": "Point", "coordinates": [ -58.605517088287442, -34.559296518202466 ] } },
{ "type": "Feature", "properties": { "DIRECCION": null, "ADRES": null, "layer": "ES24_1C_TTARDE_2023", "path": "C:/Users/usuario/Documents/ES24_1C_TTARDE_2023.shp" }, "geometry": { "type": "Point", "coordinates": [ -58.60269440241543, -34.55294887377557 ] } },
{ "type": "Feature", "properties": { "DIRECCION": null, "ADRES": null, "layer": "ES24_1C_TTARDE_2023", "path": "C:/Users/usuario/Documents/ES24_1C_TTARDE_2023.shp" }, "geometry": { "type": "Point", "coordinates": [ -58.603965898206894, -34.553662983461649 ] } },
{ "type": "Feature", "properties": { "DIRECCION": null, "ADRES": null, "layer": "ES24_1C_TTARDE_2023", "path": "C:/Users/usuario/Documents/ES24_1C_TTARDE_2023.shp" }, "geometry": { "type": "Point", "coordinates": [ -58.602536918612316, -34.557890254851117 ] } },
{ "type": "Feature", "properties": { "DIRECCION": null, "ADRES": null, "layer": "ES24_1ROA_TMAÑANA_2023", "path": "C:/Users/usuario/OneDrive/Escritorio/MAPEO MATRICULA/ES24/ES24_1ROA_TMAÑANA_2023.shp" }, "geometry": { "type": "Point", "coordinates": [ -58.600202626773061, -34.557855104380117 ] } },
{ "type": "Feature", "properties": { "DIRECCION": null, "ADRES": null, "layer": "ES24_1ROA_TMAÑANA_2023", "path": "C:/Users/usuario/OneDrive/Escritorio/MAPEO MATRICULA/ES24/ES24_1ROA_TMAÑANA_2023.shp" }, "geometry": { "type": "Point", "coordinates": [ -58.611731044542566, -34.555035811881389 ] } },
{ "type": "Feature", "properties": { "DIRECCION": null, "ADRES": null, "layer": "ES24_1ROA_TMAÑANA_2023", "path": "C:/Users/usuario/OneDrive/Escritorio/MAPEO MATRICULA/ES24/ES24_1ROA_TMAÑANA_2023.shp" }, "geometry": { "type": "Point", "coordinates": [ -58.601880449149697, -34.553425011132546 ] } },
{ "type": "Feature", "properties": { "DIRECCION": null, "ADRES": null, "layer": "ES24_1ROA_TMAÑANA_2023", "path": "C:/Users/usuario/OneDrive/Escritorio/MAPEO MATRICULA/ES24/ES24_1ROA_TMAÑANA_2023.shp" }, "geometry": { "type": "Point", "coordinates": [ -58.599573729435875, -34.551061484669269 ] } },
{ "type": "Feature", "properties": { "DIRECCION": null, "ADRES": null, "layer": "ES24_1ROA_TMAÑANA_2023", "path": "C:/Users/usuario/OneDrive/Escritorio/MAPEO MATRICULA/ES24/ES24_1ROA_TMAÑANA_2023.shp" }, "geometry": { "type": "Point", "coordinates": [ -58.600395559924834, -34.557740114996484 ] } },
{ "type": "Feature", "properties": { "DIRECCION": null, "ADRES": null, "layer": "ES24_1ROA_TMAÑANA_2023", "path": "C:/Users/usuario/OneDrive/Escritorio/MAPEO MATRICULA/ES24/ES24_1ROA_TMAÑANA_2023.shp" }, "geometry": { "type": "Point", "coordinates": [ -58.60151678945499, -34.552481408373566 ] } },
{ "type": "Feature", "properties": { "DIRECCION": null, "ADRES": null, "layer": "ES24_1ROA_TMAÑANA_2023", "path": "C:/Users/usuario/OneDrive/Escritorio/MAPEO MATRICULA/ES24/ES24_1ROA_TMAÑANA_2023.shp" }, "geometry": { "type": "Point", "coordinates": [ -58.603640017771248, -34.552594960618649 ] } },
{ "type": "Feature", "properties": { "DIRECCION": null, "ADRES": null, "layer": "ES24_1ROA_TMAÑANA_2023", "path": "C:/Users/usuario/OneDrive/Escritorio/MAPEO MATRICULA/ES24/ES24_1ROA_TMAÑANA_2023.shp" }, "geometry": { "type": "Point", "coordinates": [ -58.585773782558263, -34.553333609845829 ] } },
{ "type": "Feature", "properties": { "DIRECCION": null, "ADRES": null, "layer": "ES24_1ROA_TMAÑANA_2023", "path": "C:/Users/usuario/OneDrive/Escritorio/MAPEO MATRICULA/ES24/ES24_1ROA_TMAÑANA_2023.shp" }, "geometry": { "type": "Point", "coordinates": [ -58.593805686142375, -34.553492443522288 ] } },
{ "type": "Feature", "properties": { "DIRECCION": null, "ADRES": null, "layer": "ES24_1ROA_TMAÑANA_2023", "path": "C:/Users/usuario/OneDrive/Escritorio/MAPEO MATRICULA/ES24/ES24_1ROA_TMAÑANA_2023.shp" }, "geometry": { "type": "Point", "coordinates": [ -58.600202152651157, -34.550489007043488 ] } },
{ "type": "Feature", "properties": { "DIRECCION": null, "ADRES": null, "layer": "ES24_1ROA_TMAÑANA_2023", "path": "C:/Users/usuario/OneDrive/Escritorio/MAPEO MATRICULA/ES24/ES24_1ROA_TMAÑANA_2023.shp" }, "geometry": { "type": "Point", "coordinates": [ -58.602822521455941, -34.556116983118976 ] } },
{ "type": "Feature", "properties": { "DIRECCION": null, "ADRES": null, "layer": "ES24_1ROA_TMAÑANA_2023", "path": "C:/Users/usuario/OneDrive/Escritorio/MAPEO MATRICULA/ES24/ES24_1ROA_TMAÑANA_2023.shp" }, "geometry": { "type": "Point", "coordinates": [ -58.597333094018666, -34.554410417713655 ] } },
{ "type": "Feature", "properties": { "DIRECCION": null, "ADRES": null, "layer": "ES24_1ROA_TMAÑANA_2023", "path": "C:/Users/usuario/OneDrive/Escritorio/MAPEO MATRICULA/ES24/ES24_1ROA_TMAÑANA_2023.shp" }, "geometry": { "type": "Point", "coordinates": [ -58.600967702316332, -34.551870423989236 ] } },
{ "type": "Feature", "properties": { "DIRECCION": null, "ADRES": null, "layer": "ES24_1ROA_TMAÑANA_2023", "path": "C:/Users/usuario/OneDrive/Escritorio/MAPEO MATRICULA/ES24/ES24_1ROA_TMAÑANA_2023.shp" }, "geometry": { "type": "Point", "coordinates": [ -58.599514995114944, -34.550112818913952 ] } },
{ "type": "Feature", "properties": { "DIRECCION": null, "ADRES": null, "layer": "ES24_1ROA_TMAÑANA_2023", "path": "C:/Users/usuario/OneDrive/Escritorio/MAPEO MATRICULA/ES24/ES24_1ROA_TMAÑANA_2023.shp" }, "geometry": { "type": "Point", "coordinates": [ -58.601891922098147, -34.553484318979656 ] } },
{ "type": "Feature", "properties": { "DIRECCION": null, "ADRES": null, "layer": "ES24_1ROA_TMAÑANA_2023", "path": "C:/Users/usuario/OneDrive/Escritorio/MAPEO MATRICULA/ES24/ES24_1ROA_TMAÑANA_2023.shp" }, "geometry": { "type": "Point", "coordinates": [ -58.604786147365132, -34.552818810694824 ] } },
{ "type": "Feature", "properties": { "DIRECCION": null, "ADRES": null, "layer": "ES24_1ROA_TMAÑANA_2023", "path": "C:/Users/usuario/OneDrive/Escritorio/MAPEO MATRICULA/ES24/ES24_1ROA_TMAÑANA_2023.shp" }, "geometry": { "type": "Point", "coordinates": [ -58.601477236977054, -34.555334023307068 ] } },
{ "type": "Feature", "properties": { "DIRECCION": null, "ADRES": null, "layer": "ES24_1ROA_TMAÑANA_2023", "path": "C:/Users/usuario/OneDrive/Escritorio/MAPEO MATRICULA/ES24/ES24_1ROA_TMAÑANA_2023.shp" }, "geometry": { "type": "Point", "coordinates": [ -58.608074229140364, -34.555240481727523 ] } },
{ "type": "Feature", "properties": { "DIRECCION": null, "ADRES": null, "layer": "ES24_1ROA_TMAÑANA_2023", "path": "C:/Users/usuario/OneDrive/Escritorio/MAPEO MATRICULA/ES24/ES24_1ROA_TMAÑANA_2023.shp" }, "geometry": { "type": "Point", "coordinates": [ -58.5978623339794, -34.555376288309759 ] } },
{ "type": "Feature", "properties": { "DIRECCION": null, "ADRES": null, "layer": "ES24_1ROA_TMAÑANA_2023", "path": "C:/Users/usuario/OneDrive/Escritorio/MAPEO MATRICULA/ES24/ES24_1ROA_TMAÑANA_2023.shp" }, "geometry": { "type": "Point", "coordinates": [ -58.601449521413755, -34.556086613542199 ] } },
{ "type": "Feature", "properties": { "DIRECCION": null, "ADRES": null, "layer": "ES24_1ROA_TMAÑANA_2023", "path": "C:/Users/usuario/OneDrive/Escritorio/MAPEO MATRICULA/ES24/ES24_1ROA_TMAÑANA_2023.shp" }, "geometry": { "type": "Point", "coordinates": [ -58.60801296363136, -34.555495339262094 ] } },
{ "type": "Feature", "properties": { "DIRECCION": null, "ADRES": null, "layer": "ES24_1ROA_TMAÑANA_2023", "path": "C:/Users/usuario/OneDrive/Escritorio/MAPEO MATRICULA/ES24/ES24_1ROA_TMAÑANA_2023.shp" }, "geometry": { "type": "Point", "coordinates": [ -58.602059789446351, -34.553495071292232 ] } },
{ "type": "Feature", "properties": { "DIRECCION": null, "ADRES": null, "layer": "ES24_1ROB_TMAÑANA_2023", "path": "C:/Users/usuario/OneDrive/Escritorio/MAPEO MATRICULA/ES24/ES24_1ROB_TMAÑANA_2023.shp" }, "geometry": { "type": "Point", "coordinates": [ -58.591706566220687, -34.55111003801823 ] } },
{ "type": "Feature", "properties": { "DIRECCION": null, "ADRES": null, "layer": "ES24_1ROB_TMAÑANA_2023", "path": "C:/Users/usuario/OneDrive/Escritorio/MAPEO MATRICULA/ES24/ES24_1ROB_TMAÑANA_2023.shp" }, "geometry": { "type": "Point", "coordinates": [ -58.606807921351567, -34.551622997383042 ] } },
{ "type": "Feature", "properties": { "DIRECCION": null, "ADRES": null, "layer": "ES24_1ROB_TMAÑANA_2023", "path": "C:/Users/usuario/OneDrive/Escritorio/MAPEO MATRICULA/ES24/ES24_1ROB_TMAÑANA_2023.shp" }, "geometry": { "type": "Point", "coordinates": [ -58.60366059693564, -34.559137592008668 ] } },
{ "type": "Feature", "properties": { "DIRECCION": null, "ADRES": null, "layer": "ES24_1ROB_TMAÑANA_2023", "path": "C:/Users/usuario/OneDrive/Escritorio/MAPEO MATRICULA/ES24/ES24_1ROB_TMAÑANA_2023.shp" }, "geometry": { "type": "Point", "coordinates": [ -58.607765959660583, -34.555560983149036 ] } },
{ "type": "Feature", "properties": { "DIRECCION": null, "ADRES": null, "layer": "ES24_1ROB_TMAÑANA_2023", "path": "C:/Users/usuario/OneDrive/Escritorio/MAPEO MATRICULA/ES24/ES24_1ROB_TMAÑANA_2023.shp" }, "geometry": { "type": "Point", "coordinates": [ -58.60051557084099, -34.554858197978355 ] } },
{ "type": "Feature", "properties": { "DIRECCION": null, "ADRES": null, "layer": "ES24_1ROB_TMAÑANA_2023", "path": "C:/Users/usuario/OneDrive/Escritorio/MAPEO MATRICULA/ES24/ES24_1ROB_TMAÑANA_2023.shp" }, "geometry": { "type": "Point", "coordinates": [ -58.608315264479316, -34.552592119480671 ] } },
{ "type": "Feature", "properties": { "DIRECCION": null, "ADRES": null, "layer": "ES24_1ROB_TMAÑANA_2023", "path": "C:/Users/usuario/OneDrive/Escritorio/MAPEO MATRICULA/ES24/ES24_1ROB_TMAÑANA_2023.shp" }, "geometry": { "type": "Point", "coordinates": [ -58.608532039880416, -34.556008522463472 ] } },
{ "type": "Feature", "properties": { "DIRECCION": null, "ADRES": null, "layer": "ES24_1ROB_TMAÑANA_2023", "path": "C:/Users/usuario/OneDrive/Escritorio/MAPEO MATRICULA/ES24/ES24_1ROB_TMAÑANA_2023.shp" }, "geometry": { "type": "Point", "coordinates": [ -58.601805720444332, -34.549494767683484 ] } },
{ "type": "Feature", "properties": { "DIRECCION": null, "ADRES": null, "layer": "ES24_1ROB_TMAÑANA_2023", "path": "C:/Users/usuario/OneDrive/Escritorio/MAPEO MATRICULA/ES24/ES24_1ROB_TMAÑANA_2023.shp" }, "geometry": { "type": "Point", "coordinates": [ -58.597599205955753, -34.555539559889247 ] } },
{ "type": "Feature", "properties": { "DIRECCION": null, "ADRES": null, "layer": "ES24_1ROB_TMAÑANA_2023", "path": "C:/Users/usuario/OneDrive/Escritorio/MAPEO MATRICULA/ES24/ES24_1ROB_TMAÑANA_2023.shp" }, "geometry": { "type": "Point", "coordinates": [ -58.597645163278614, -34.555564161984506 ] } },
{ "type": "Feature", "properties": { "DIRECCION": null, "ADRES": null, "layer": "ES24_1ROB_TMAÑANA_2023", "path": "C:/Users/usuario/OneDrive/Escritorio/MAPEO MATRICULA/ES24/ES24_1ROB_TMAÑANA_2023.shp" }, "geometry": { "type": "Point", "coordinates": [ -58.600593595405442, -34.55485742387507 ] } },
{ "type": "Feature", "properties": { "DIRECCION": null, "ADRES": null, "layer": "ES24_1ROB_TMAÑANA_2023", "path": "C:/Users/usuario/OneDrive/Escritorio/MAPEO MATRICULA/ES24/ES24_1ROB_TMAÑANA_2023.shp" }, "geometry": { "type": "Point", "coordinates": [ -58.594269890876994, -34.543904388325991 ] } },
{ "type": "Feature", "properties": { "DIRECCION": null, "ADRES": null, "layer": "ES24_1ROB_TMAÑANA_2023", "path": "C:/Users/usuario/OneDrive/Escritorio/MAPEO MATRICULA/ES24/ES24_1ROB_TMAÑANA_2023.shp" }, "geometry": { "type": "Point", "coordinates": [ -58.600539445124873, -34.548293264682314 ] } },
{ "type": "Feature", "properties": { "DIRECCION": null, "ADRES": null, "layer": "ES24_1ROB_TMAÑANA_2023", "path": "C:/Users/usuario/OneDrive/Escritorio/MAPEO MATRICULA/ES24/ES24_1ROB_TMAÑANA_2023.shp" }, "geometry": { "type": "Point", "coordinates": [ -58.600377462816326, -34.552034542228029 ] } },
{ "type": "Feature", "properties": { "DIRECCION": null, "ADRES": null, "layer": "ES24_1ROB_TMAÑANA_2023", "path": "C:/Users/usuario/OneDrive/Escritorio/MAPEO MATRICULA/ES24/ES24_1ROB_TMAÑANA_2023.shp" }, "geometry": { "type": "Point", "coordinates": [ -58.604413121682398, -34.553828458569981 ] } },
{ "type": "Feature", "properties": { "DIRECCION": null, "ADRES": null, "layer": "ES24_1ROB_TMAÑANA_2023", "path": "C:/Users/usuario/OneDrive/Escritorio/MAPEO MATRICULA/ES24/ES24_1ROB_TMAÑANA_2023.shp" }, "geometry": { "type": "Point", "coordinates": [ -58.602712297879066, -34.553672517335457 ] } },
{ "type": "Feature", "properties": { "DIRECCION": null, "ADRES": null, "layer": "ES24_1ROB_TMAÑANA_2023", "path": "C:/Users/usuario/OneDrive/Escritorio/MAPEO MATRICULA/ES24/ES24_1ROB_TMAÑANA_2023.shp" }, "geometry": { "type": "Point", "coordinates": [ -58.608719327398966, -34.553071833856492 ] } },
{ "type": "Feature", "properties": { "DIRECCION": null, "ADRES": null, "layer": "ES24_1ROB_TMAÑANA_2023", "path": "C:/Users/usuario/OneDrive/Escritorio/MAPEO MATRICULA/ES24/ES24_1ROB_TMAÑANA_2023.shp" }, "geometry": { "type": "Point", "coordinates": [ -58.582066909994019, -34.546430074797414 ] } },
{ "type": "Feature", "properties": { "DIRECCION": null, "ADRES": null, "layer": "ES24_1ROB_TMAÑANA_2023", "path": "C:/Users/usuario/OneDrive/Escritorio/MAPEO MATRICULA/ES24/ES24_1ROB_TMAÑANA_2023.shp" }, "geometry": { "type": "Point", "coordinates": [ -58.605120142292861, -34.552919311275119 ] } },
{ "type": "Feature", "properties": { "DIRECCION": null, "ADRES": null, "layer": "ES24_1ROB_TMAÑANA_2023", "path": "C:/Users/usuario/OneDrive/Escritorio/MAPEO MATRICULA/ES24/ES24_1ROB_TMAÑANA_2023.shp" }, "geometry": { "type": "Point", "coordinates": [ -58.591457178161001, -34.553579805532237 ] } },
{ "type": "Feature", "properties": { "DIRECCION": null, "ADRES": null, "layer": "ES24_1ROD_TTARDE_2023", "path": "C:/Users/usuario/OneDrive/Escritorio/MAPEO MATRICULA/ES24/ES24_1ROD_TTARDE_2023.shp" }, "geometry": { "type": "Point", "coordinates": [ -58.612704848635993, -34.559074287074964 ] } },
{ "type": "Feature", "properties": { "DIRECCION": null, "ADRES": null, "layer": "ES24_1ROD_TTARDE_2023", "path": "C:/Users/usuario/OneDrive/Escritorio/MAPEO MATRICULA/ES24/ES24_1ROD_TTARDE_2023.shp" }, "geometry": { "type": "Point", "coordinates": [ -58.600140116565257, -34.547643473861868 ] } },
{ "type": "Feature", "properties": { "DIRECCION": null, "ADRES": null, "layer": "ES24_1ROD_TTARDE_2023", "path": "C:/Users/usuario/OneDrive/Escritorio/MAPEO MATRICULA/ES24/ES24_1ROD_TTARDE_2023.shp" }, "geometry": { "type": "Point", "coordinates": [ -58.596148580244716, -34.542691179638361 ] } },
{ "type": "Feature", "properties": { "DIRECCION": null, "ADRES": null, "layer": "ES24_1ROD_TTARDE_2023", "path": "C:/Users/usuario/OneDrive/Escritorio/MAPEO MATRICULA/ES24/ES24_1ROD_TTARDE_2023.shp" }, "geometry": { "type": "Point", "coordinates": [ -58.600533760080651, -34.553973606126689 ] } },
{ "type": "Feature", "properties": { "DIRECCION": null, "ADRES": null, "layer": "ES24_1ROD_TTARDE_2023", "path": "C:/Users/usuario/OneDrive/Escritorio/MAPEO MATRICULA/ES24/ES24_1ROD_TTARDE_2023.shp" }, "geometry": { "type": "Point", "coordinates": [ -58.602717802460596, -34.554652782325391 ] } },
{ "type": "Feature", "properties": { "DIRECCION": null, "ADRES": null, "layer": "ES24_1ROD_TTARDE_2023", "path": "C:/Users/usuario/OneDrive/Escritorio/MAPEO MATRICULA/ES24/ES24_1ROD_TTARDE_2023.shp" }, "geometry": { "type": "Point", "coordinates": [ -58.602296925186906, -34.555572805286943 ] } },
{ "type": "Feature", "properties": { "DIRECCION": null, "ADRES": null, "layer": "ES24_1ROD_TTARDE_2023", "path": "C:/Users/usuario/OneDrive/Escritorio/MAPEO MATRICULA/ES24/ES24_1ROD_TTARDE_2023.shp" }, "geometry": { "type": "Point", "coordinates": [ -58.602572051452974, -34.55348651019527 ] } },
{ "type": "Feature", "properties": { "DIRECCION": null, "ADRES": null, "layer": "ES24_1ROD_TTARDE_2023", "path": "C:/Users/usuario/OneDrive/Escritorio/MAPEO MATRICULA/ES24/ES24_1ROD_TTARDE_2023.shp" }, "geometry": { "type": "Point", "coordinates": [ -58.597351672448887, -34.554449588995425 ] } },
{ "type": "Feature", "properties": { "DIRECCION": null, "ADRES": null, "layer": "ES24_1ROD_TTARDE_2023", "path": "C:/Users/usuario/OneDrive/Escritorio/MAPEO MATRICULA/ES24/ES24_1ROD_TTARDE_2023.shp" }, "geometry": { "type": "Point", "coordinates": [ -58.6080064745708, -34.55554516979111 ] } },
{ "type": "Feature", "properties": { "DIRECCION": null, "ADRES": null, "layer": "ES24_1ROD_TTARDE_2023", "path": "C:/Users/usuario/OneDrive/Escritorio/MAPEO MATRICULA/ES24/ES24_1ROD_TTARDE_2023.shp" }, "geometry": { "type": "Point", "coordinates": [ -58.607187165730103, -34.556044802500274 ] } },
{ "type": "Feature", "properties": { "DIRECCION": null, "ADRES": null, "layer": "ES24_1ROD_TTARDE_2023", "path": "C:/Users/usuario/OneDrive/Escritorio/MAPEO MATRICULA/ES24/ES24_1ROD_TTARDE_2023.shp" }, "geometry": { "type": "Point", "coordinates": [ -58.612458559901889, -34.554333590000645 ] } },
{ "type": "Feature", "properties": { "DIRECCION": null, "ADRES": null, "layer": "ES24_1ROD_TTARDE_2023", "path": "C:/Users/usuario/OneDrive/Escritorio/MAPEO MATRICULA/ES24/ES24_1ROD_TTARDE_2023.shp" }, "geometry": { "type": "Point", "coordinates": [ -58.6021572580919, -34.553462627891314 ] } },
{ "type": "Feature", "properties": { "DIRECCION": null, "ADRES": null, "layer": "ES24_1ROD_TTARDE_2023", "path": "C:/Users/usuario/OneDrive/Escritorio/MAPEO MATRICULA/ES24/ES24_1ROD_TTARDE_2023.shp" }, "geometry": { "type": "Point", "coordinates": [ -58.596962265980672, -34.547831699309242 ] } },
{ "type": "Feature", "properties": { "DIRECCION": null, "ADRES": null, "layer": "ES24_1ROD_TTARDE_2023", "path": "C:/Users/usuario/OneDrive/Escritorio/MAPEO MATRICULA/ES24/ES24_1ROD_TTARDE_2023.shp" }, "geometry": { "type": "Point", "coordinates": [ -58.597049584894116, -34.547752208203704 ] } },
{ "type": "Feature", "properties": { "DIRECCION": null, "ADRES": null, "layer": "ES24_1ROD_TTARDE_2023", "path": "C:/Users/usuario/OneDrive/Escritorio/MAPEO MATRICULA/ES24/ES24_1ROD_TTARDE_2023.shp" }, "geometry": { "type": "Point", "coordinates": [ -58.599693077074306, -34.556235102376235 ] } },
{ "type": "Feature", "properties": { "DIRECCION": null, "ADRES": null, "layer": "ES24_1ROD_TTARDE_2023", "path": "C:/Users/usuario/OneDrive/Escritorio/MAPEO MATRICULA/ES24/ES24_1ROD_TTARDE_2023.shp" }, "geometry": { "type": "Point", "coordinates": [ -58.603968735547021, -34.555814705963584 ] } },
{ "type": "Feature", "properties": { "DIRECCION": null, "ADRES": null, "layer": "ES24_1ROD_TTARDE_2023", "path": "C:/Users/usuario/OneDrive/Escritorio/MAPEO MATRICULA/ES24/ES24_1ROD_TTARDE_2023.shp" }, "geometry": { "type": "Point", "coordinates": [ -58.601503915389799, -34.555514632574734 ] } },
{ "type": "Feature", "properties": { "DIRECCION": null, "ADRES": null, "layer": "ES24_1ROD_TTARDE_2023", "path": "C:/Users/usuario/OneDrive/Escritorio/MAPEO MATRICULA/ES24/ES24_1ROD_TTARDE_2023.shp" }, "geometry": { "type": "Point", "coordinates": [ -58.596906112771222, -34.550780348110592 ] } },
{ "type": "Feature", "properties": { "DIRECCION": null, "ADRES": null, "layer": "ES24_1ROD_TTARDE_2023", "path": "C:/Users/usuario/OneDrive/Escritorio/MAPEO MATRICULA/ES24/ES24_1ROD_TTARDE_2023.shp" }, "geometry": { "type": "Point", "coordinates": [ -58.609353746120959, -34.554096497712223 ] } },
{ "type": "Feature", "properties": { "DIRECCION": null, "ADRES": null, "layer": "ES24_1ROD_TTARDE_2023", "path": "C:/Users/usuario/OneDrive/Escritorio/MAPEO MATRICULA/ES24/ES24_1ROD_TTARDE_2023.shp" }, "geometry": { "type": "Point", "coordinates": [ -58.601940056764676, -34.558333409708339 ] } },
{ "type": "Feature", "properties": { "DIRECCION": null, "ADRES": null, "layer": "ES24_1ROD_TTARDE_2023", "path": "C:/Users/usuario/OneDrive/Escritorio/MAPEO MATRICULA/ES24/ES24_1ROD_TTARDE_2023.shp" }, "geometry": { "type": "Point", "coordinates": [ -58.601900993040239, -34.558361795787334 ] } },
{ "type": "Feature", "properties": { "DIRECCION": null, "ADRES": null, "layer": "ES24_1ROD_TTARDE_2023", "path": "C:/Users/usuario/OneDrive/Escritorio/MAPEO MATRICULA/ES24/ES24_1ROD_TTARDE_2023.shp" }, "geometry": { "type": "Point", "coordinates": [ -58.600331638115314, -34.557788752312845 ] } },
{ "type": "Feature", "properties": { "DIRECCION": null, "ADRES": null, "layer": "ES24_2DOB_TMAÑANA_2023", "path": "C:/Users/usuario/OneDrive/Escritorio/MAPEO MATRICULA/ES24/ES24_2DOB_TMAÑANA_2023.shp" }, "geometry": { "type": "Point", "coordinates": [ -58.599511442837951, -34.556412103518014 ] } },
{ "type": "Feature", "properties": { "DIRECCION": null, "ADRES": null, "layer": "ES24_2DOB_TMAÑANA_2023", "path": "C:/Users/usuario/OneDrive/Escritorio/MAPEO MATRICULA/ES24/ES24_2DOB_TMAÑANA_2023.shp" }, "geometry": { "type": "Point", "coordinates": [ -58.598817727239528, -34.556984590849559 ] } },
{ "type": "Feature", "properties": { "DIRECCION": null, "ADRES": null, "layer": "ES24_2DOB_TMAÑANA_2023", "path": "C:/Users/usuario/OneDrive/Escritorio/MAPEO MATRICULA/ES24/ES24_2DOB_TMAÑANA_2023.shp" }, "geometry": { "type": "Point", "coordinates": [ -58.597421884102381, -34.552717226853929 ] } },
{ "type": "Feature", "properties": { "DIRECCION": null, "ADRES": null, "layer": "ES24_2DOB_TMAÑANA_2023", "path": "C:/Users/usuario/OneDrive/Escritorio/MAPEO MATRICULA/ES24/ES24_2DOB_TMAÑANA_2023.shp" }, "geometry": { "type": "Point", "coordinates": [ -58.604599162887858, -34.553227773661938 ] } },
{ "type": "Feature", "properties": { "DIRECCION": null, "ADRES": null, "layer": "ES24_2DOB_TMAÑANA_2023", "path": "C:/Users/usuario/OneDrive/Escritorio/MAPEO MATRICULA/ES24/ES24_2DOB_TMAÑANA_2023.shp" }, "geometry": { "type": "Point", "coordinates": [ -58.604577683984111, -34.553951843193808 ] } },
{ "type": "Feature", "properties": { "DIRECCION": null, "ADRES": null, "layer": "ES24_2DOB_TMAÑANA_2023", "path": "C:/Users/usuario/OneDrive/Escritorio/MAPEO MATRICULA/ES24/ES24_2DOB_TMAÑANA_2023.shp" }, "geometry": { "type": "Point", "coordinates": [ -58.599527791427363, -34.55935775137776 ] } },
{ "type": "Feature", "properties": { "DIRECCION": null, "ADRES": null, "layer": "ES24_2DOB_TMAÑANA_2023", "path": "C:/Users/usuario/OneDrive/Escritorio/MAPEO MATRICULA/ES24/ES24_2DOB_TMAÑANA_2023.shp" }, "geometry": { "type": "Point", "coordinates": [ -58.599288659928902, -34.559470159789065 ] } },
{ "type": "Feature", "properties": { "DIRECCION": null, "ADRES": null, "layer": "ES24_2DOB_TMAÑANA_2023", "path": "C:/Users/usuario/OneDrive/Escritorio/MAPEO MATRICULA/ES24/ES24_2DOB_TMAÑANA_2023.shp" }, "geometry": { "type": "Point", "coordinates": [ -58.594141366972494, -34.55185221889608 ] } },
{ "type": "Feature", "properties": { "DIRECCION": null, "ADRES": null, "layer": "ES24_2DOB_TMAÑANA_2023", "path": "C:/Users/usuario/OneDrive/Escritorio/MAPEO MATRICULA/ES24/ES24_2DOB_TMAÑANA_2023.shp" }, "geometry": { "type": "Point", "coordinates": [ -58.602052949901605, -34.551855374736711 ] } },
{ "type": "Feature", "properties": { "DIRECCION": null, "ADRES": null, "layer": "ES24_2DOB_TMAÑANA_2023", "path": "C:/Users/usuario/OneDrive/Escritorio/MAPEO MATRICULA/ES24/ES24_2DOB_TMAÑANA_2023.shp" }, "geometry": { "type": "Point", "coordinates": [ -58.601193738135663, -34.555531530613436 ] } },
{ "type": "Feature", "properties": { "DIRECCION": null, "ADRES": null, "layer": "ES24_2DOB_TMAÑANA_2023", "path": "C:/Users/usuario/OneDrive/Escritorio/MAPEO MATRICULA/ES24/ES24_2DOB_TMAÑANA_2023.shp" }, "geometry": { "type": "Point", "coordinates": [ -58.604940107699015, -34.552699943205397 ] } },
{ "type": "Feature", "properties": { "DIRECCION": null, "ADRES": null, "layer": "ES24_2DOB_TMAÑANA_2023", "path": "C:/Users/usuario/OneDrive/Escritorio/MAPEO MATRICULA/ES24/ES24_2DOB_TMAÑANA_2023.shp" }, "geometry": { "type": "Point", "coordinates": [ -58.592228864519456, -34.559517136610758 ] } },
{ "type": "Feature", "properties": { "DIRECCION": null, "ADRES": null, "layer": "ES24_2DOB_TMAÑANA_2023", "path": "C:/Users/usuario/OneDrive/Escritorio/MAPEO MATRICULA/ES24/ES24_2DOB_TMAÑANA_2023.shp" }, "geometry": { "type": "Point", "coordinates": [ -58.600541294275601, -34.55318046820944 ] } },
{ "type": "Feature", "properties": { "DIRECCION": null, "ADRES": null, "layer": "ES24_2DOB_TMAÑANA_2023", "path": "C:/Users/usuario/OneDrive/Escritorio/MAPEO MATRICULA/ES24/ES24_2DOB_TMAÑANA_2023.shp" }, "geometry": { "type": "Point", "coordinates": [ -58.611816649983879, -34.554809917114959 ] } },
{ "type": "Feature", "properties": { "DIRECCION": null, "ADRES": null, "layer": "ES24_2DOB_TMAÑANA_2023", "path": "C:/Users/usuario/OneDrive/Escritorio/MAPEO MATRICULA/ES24/ES24_2DOB_TMAÑANA_2023.shp" }, "geometry": { "type": "Point", "coordinates": [ -58.599941277756038, -34.554904541348293 ] } },
{ "type": "Feature", "properties": { "DIRECCION": null, "ADRES": null, "layer": "ES24_2DOB_TMAÑANA_2023", "path": "C:/Users/usuario/OneDrive/Escritorio/MAPEO MATRICULA/ES24/ES24_2DOB_TMAÑANA_2023.shp" }, "geometry": { "type": "Point", "coordinates": [ -58.600209131429189, -34.54668225290002 ] } },
{ "type": "Feature", "properties": { "DIRECCION": null, "ADRES": null, "layer": "ES24_2DOB_TMAÑANA_2023", "path": "C:/Users/usuario/OneDrive/Escritorio/MAPEO MATRICULA/ES24/ES24_2DOB_TMAÑANA_2023.shp" }, "geometry": { "type": "Point", "coordinates": [ -58.59984714907872, -34.55288728964937 ] } },
{ "type": "Feature", "properties": { "DIRECCION": null, "ADRES": null, "layer": "ES24_2DOB_TMAÑANA_2023", "path": "C:/Users/usuario/OneDrive/Escritorio/MAPEO MATRICULA/ES24/ES24_2DOB_TMAÑANA_2023.shp" }, "geometry": { "type": "Point", "coordinates": [ -58.601791041206951, -34.555364244213564 ] } },
{ "type": "Feature", "properties": { "DIRECCION": null, "ADRES": null, "layer": "ES24_2DOB_TMAÑANA_2023", "path": "C:/Users/usuario/OneDrive/Escritorio/MAPEO MATRICULA/ES24/ES24_2DOB_TMAÑANA_2023.shp" }, "geometry": { "type": "Point", "coordinates": [ -58.598356772358898, -34.544058177244736 ] } },
{ "type": "Feature", "properties": { "DIRECCION": null, "ADRES": null, "layer": "ES24_2DOB_TMAÑANA_2023", "path": "C:/Users/usuario/OneDrive/Escritorio/MAPEO MATRICULA/ES24/ES24_2DOB_TMAÑANA_2023.shp" }, "geometry": { "type": "Point", "coordinates": [ -58.600704819530478, -34.547947159800529 ] } },
{ "type": "Feature", "properties": { "DIRECCION": null, "ADRES": null, "layer": "ES24_2DOB_TMAÑANA_2023", "path": "C:/Users/usuario/OneDrive/Escritorio/MAPEO MATRICULA/ES24/ES24_2DOB_TMAÑANA_2023.shp" }, "geometry": { "type": "Point", "coordinates": [ -58.604034661943516, -34.552307574057963 ] } },
{ "type": "Feature", "properties": { "DIRECCION": null, "ADRES": null, "layer": "ES24_2DOC_TTARDE_2023", "path": "C:/Users/usuario/OneDrive/Escritorio/MAPEO MATRICULA/ES24/ES24_2DOC_TTARDE_2023.shp" }, "geometry": { "type": "Point", "coordinates": [ -58.603593644715538, -34.551239023413288 ] } },
{ "type": "Feature", "properties": { "DIRECCION": null, "ADRES": null, "layer": "ES24_2DOC_TTARDE_2023", "path": "C:/Users/usuario/OneDrive/Escritorio/MAPEO MATRICULA/ES24/ES24_2DOC_TTARDE_2023.shp" }, "geometry": { "type": "Point", "coordinates": [ -58.600447290574238, -34.552811221108875 ] } },
{ "type": "Feature", "properties": { "DIRECCION": null, "ADRES": null, "layer": "ES24_2DOC_TTARDE_2023", "path": "C:/Users/usuario/OneDrive/Escritorio/MAPEO MATRICULA/ES24/ES24_2DOC_TTARDE_2023.shp" }, "geometry": { "type": "Point", "coordinates": [ -58.601654284716751, -34.552334472763192 ] } },
{ "type": "Feature", "properties": { "DIRECCION": null, "ADRES": null, "layer": "ES24_2DOC_TTARDE_2023", "path": "C:/Users/usuario/OneDrive/Escritorio/MAPEO MATRICULA/ES24/ES24_2DOC_TTARDE_2023.shp" }, "geometry": { "type": "Point", "coordinates": [ -58.585185752648805, -34.573037583783616 ] } },
{ "type": "Feature", "properties": { "DIRECCION": null, "ADRES": null, "layer": "ES24_2DOC_TTARDE_2023", "path": "C:/Users/usuario/OneDrive/Escritorio/MAPEO MATRICULA/ES24/ES24_2DOC_TTARDE_2023.shp" }, "geometry": { "type": "Point", "coordinates": [ -58.602535864160679, -34.556393741371878 ] } },
{ "type": "Feature", "properties": { "DIRECCION": null, "ADRES": null, "layer": "ES24_2DOC_TTARDE_2023", "path": "C:/Users/usuario/OneDrive/Escritorio/MAPEO MATRICULA/ES24/ES24_2DOC_TTARDE_2023.shp" }, "geometry": { "type": "Point", "coordinates": [ -58.602259799319121, -34.5512273648175 ] } },
{ "type": "Feature", "properties": { "DIRECCION": null, "ADRES": null, "layer": "ES24_2DOC_TTARDE_2023", "path": "C:/Users/usuario/OneDrive/Escritorio/MAPEO MATRICULA/ES24/ES24_2DOC_TTARDE_2023.shp" }, "geometry": { "type": "Point", "coordinates": [ -58.603596929099446, -34.558645438608153 ] } },
{ "type": "Feature", "properties": { "DIRECCION": null, "ADRES": null, "layer": "ES24_2DOC_TTARDE_2023", "path": "C:/Users/usuario/OneDrive/Escritorio/MAPEO MATRICULA/ES24/ES24_2DOC_TTARDE_2023.shp" }, "geometry": { "type": "Point", "coordinates": [ -58.612572774342624, -34.554197859738643 ] } },
{ "type": "Feature", "properties": { "DIRECCION": null, "ADRES": null, "layer": "ES24_2DOC_TTARDE_2023", "path": "C:/Users/usuario/OneDrive/Escritorio/MAPEO MATRICULA/ES24/ES24_2DOC_TTARDE_2023.shp" }, "geometry": { "type": "Point", "coordinates": [ -58.602312802013415, -34.554981350911071 ] } },
{ "type": "Feature", "properties": { "DIRECCION": null, "ADRES": null, "layer": "ES24_2DOC_TTARDE_2023", "path": "C:/Users/usuario/OneDrive/Escritorio/MAPEO MATRICULA/ES24/ES24_2DOC_TTARDE_2023.shp" }, "geometry": { "type": "Point", "coordinates": [ -58.610114972512683, -34.553627296918357 ] } },
{ "type": "Feature", "properties": { "DIRECCION": null, "ADRES": null, "layer": "ES24_2DOC_TTARDE_2023", "path": "C:/Users/usuario/OneDrive/Escritorio/MAPEO MATRICULA/ES24/ES24_2DOC_TTARDE_2023.shp" }, "geometry": { "type": "Point", "coordinates": [ -58.591134554974417, -34.555879339779317 ] } },
{ "type": "Feature", "properties": { "DIRECCION": null, "ADRES": null, "layer": "ES24_2DOC_TTARDE_2023", "path": "C:/Users/usuario/OneDrive/Escritorio/MAPEO MATRICULA/ES24/ES24_2DOC_TTARDE_2023.shp" }, "geometry": { "type": "Point", "coordinates": [ -58.610224889394601, -34.553577414273498 ] } },
{ "type": "Feature", "properties": { "DIRECCION": null, "ADRES": null, "layer": "ES24_2DOC_TTARDE_2023", "path": "C:/Users/usuario/OneDrive/Escritorio/MAPEO MATRICULA/ES24/ES24_2DOC_TTARDE_2023.shp" }, "geometry": { "type": "Point", "coordinates": [ -58.612764166016731, -34.554049682972526 ] } },
{ "type": "Feature", "properties": { "DIRECCION": null, "ADRES": null, "layer": "ES24_2DOC_TTARDE_2023", "path": "C:/Users/usuario/OneDrive/Escritorio/MAPEO MATRICULA/ES24/ES24_2DOC_TTARDE_2023.shp" }, "geometry": { "type": "Point", "coordinates": [ -58.602162439232153, -34.554948394418766 ] } },
{ "type": "Feature", "properties": { "DIRECCION": null, "ADRES": null, "layer": "ES24_2DOC_TTARDE_2023", "path": "C:/Users/usuario/OneDrive/Escritorio/MAPEO MATRICULA/ES24/ES24_2DOC_TTARDE_2023.shp" }, "geometry": { "type": "Point", "coordinates": [ -58.610052338005595, -34.553700539387684 ] } },
{ "type": "Feature", "properties": { "DIRECCION": null, "ADRES": null, "layer": "ES24_2DOC_TTARDE_2023", "path": "C:/Users/usuario/OneDrive/Escritorio/MAPEO MATRICULA/ES24/ES24_2DOC_TTARDE_2023.shp" }, "geometry": { "type": "Point", "coordinates": [ -58.607604336631915, -34.556714302035687 ] } },
{ "type": "Feature", "properties": { "DIRECCION": null, "ADRES": null, "layer": "ES24_2DOC_TTARDE_2023", "path": "C:/Users/usuario/OneDrive/Escritorio/MAPEO MATRICULA/ES24/ES24_2DOC_TTARDE_2023.shp" }, "geometry": { "type": "Point", "coordinates": [ -58.597760752927449, -34.547342304621381 ] } },
{ "type": "Feature", "properties": { "DIRECCION": null, "ADRES": null, "layer": "ES24_2DOC_TTARDE_2023", "path": "C:/Users/usuario/OneDrive/Escritorio/MAPEO MATRICULA/ES24/ES24_2DOC_TTARDE_2023.shp" }, "geometry": { "type": "Point", "coordinates": [ -58.606001755386856, -34.552219982084594 ] } },
{ "type": "Feature", "properties": { "DIRECCION": null, "ADRES": null, "layer": "ES24_2DOC_TTARDE_2023", "path": "C:/Users/usuario/OneDrive/Escritorio/MAPEO MATRICULA/ES24/ES24_2DOC_TTARDE_2023.shp" }, "geometry": { "type": "Point", "coordinates": [ -58.601085804318089, -34.552135176842043 ] } },
{ "type": "Feature", "properties": { "DIRECCION": null, "ADRES": null, "layer": "ES24_2DOC_TTARDE_2023", "path": "C:/Users/usuario/OneDrive/Escritorio/MAPEO MATRICULA/ES24/ES24_2DOC_TTARDE_2023.shp" }, "geometry": { "type": "Point", "coordinates": [ -58.60833160106953, -34.552056166910837 ] } },
{ "type": "Feature", "properties": { "DIRECCION": null, "ADRES": null, "layer": "ES24_2DOC_TTARDE_2023", "path": "C:/Users/usuario/OneDrive/Escritorio/MAPEO MATRICULA/ES24/ES24_2DOC_TTARDE_2023.shp" }, "geometry": { "type": "Point", "coordinates": [ -58.598814605441035, -34.553522422312888 ] } },
{ "type": "Feature", "properties": { "DIRECCION": null, "ADRES": null, "layer": "ES24_2DOC_TTARDE_2023", "path": "C:/Users/usuario/OneDrive/Escritorio/MAPEO MATRICULA/ES24/ES24_2DOC_TTARDE_2023.shp" }, "geometry": { "type": "Point", "coordinates": [ -58.596888383533866, -34.548825154016164 ] } },
{ "type": "Feature", "properties": { "DIRECCION": null, "ADRES": null, "layer": "ES24_2DOC_TTARDE_2023", "path": "C:/Users/usuario/OneDrive/Escritorio/MAPEO MATRICULA/ES24/ES24_2DOC_TTARDE_2023.shp" }, "geometry": { "type": "Point", "coordinates": [ -58.601217945697577, -34.556050539877951 ] } },
{ "type": "Feature", "properties": { "DIRECCION": null, "ADRES": null, "layer": "ES24_2DOC_TTARDE_2023", "path": "C:/Users/usuario/OneDrive/Escritorio/MAPEO MATRICULA/ES24/ES24_2DOC_TTARDE_2023.shp" }, "geometry": { "type": "Point", "coordinates": [ -58.61030618983407, -34.554777122410464 ] } },
{ "type": "Feature", "properties": { "DIRECCION": null, "ADRES": null, "layer": "ES24_2DOC_TTARDE_2023", "path": "C:/Users/usuario/OneDrive/Escritorio/MAPEO MATRICULA/ES24/ES24_2DOC_TTARDE_2023.shp" }, "geometry": { "type": "Point", "coordinates": [ -58.601165588843649, -34.555970750099043 ] } },
{ "type": "Feature", "properties": { "DIRECCION": null, "ADRES": null, "layer": "ES24_2DOC_TTARDE_2023", "path": "C:/Users/usuario/OneDrive/Escritorio/MAPEO MATRICULA/ES24/ES24_2DOC_TTARDE_2023.shp" }, "geometry": { "type": "Point", "coordinates": [ -58.610172912119829, -34.554700341972051 ] } },
{ "type": "Feature", "properties": { "DIRECCION": null, "ADRES": null, "layer": "ES24_2DOC_TTARDE_2023", "path": "C:/Users/usuario/OneDrive/Escritorio/MAPEO MATRICULA/ES24/ES24_2DOC_TTARDE_2023.shp" }, "geometry": { "type": "Point", "coordinates": [ -58.599399612251922, -34.55618369579566 ] } },
{ "type": "Feature", "properties": { "DIRECCION": null, "ADRES": null, "layer": "ES24_2DOC_TTARDE_2023", "path": "C:/Users/usuario/OneDrive/Escritorio/MAPEO MATRICULA/ES24/ES24_2DOC_TTARDE_2023.shp" }, "geometry": { "type": "Point", "coordinates": [ -58.598014496408865, -34.549742980039859 ] } },
{ "type": "Feature", "properties": { "DIRECCION": null, "ADRES": null, "layer": "ES24_2DOC_TTARDE_2023", "path": "C:/Users/usuario/OneDrive/Escritorio/MAPEO MATRICULA/ES24/ES24_2DOC_TTARDE_2023.shp" }, "geometry": { "type": "Point", "coordinates": [ -58.586815456742379, -34.560959452785987 ] } },
{ "type": "Feature", "properties": { "DIRECCION": null, "ADRES": null, "layer": "ES24_3ROA_TMAÑANA_2023", "path": "C:/Users/usuario/OneDrive/Escritorio/MAPEO MATRICULA/ES24/ES24_3ROA_TMAÑANA_2023.shp" }, "geometry": { "type": "Point", "coordinates": [ -58.574191894759153, -34.526038727592393 ] } },
{ "type": "Feature", "properties": { "DIRECCION": null, "ADRES": null, "layer": "ES24_3ROA_TMAÑANA_2023", "path": "C:/Users/usuario/OneDrive/Escritorio/MAPEO MATRICULA/ES24/ES24_3ROA_TMAÑANA_2023.shp" }, "geometry": { "type": "Point", "coordinates": [ -58.595713986397563, -34.551986961347964 ] } },
{ "type": "Feature", "properties": { "DIRECCION": null, "ADRES": null, "layer": "ES24_3ROA_TMAÑANA_2023", "path": "C:/Users/usuario/OneDrive/Escritorio/MAPEO MATRICULA/ES24/ES24_3ROA_TMAÑANA_2023.shp" }, "geometry": { "type": "Point", "coordinates": [ -58.594439811260244, -34.546804788788435 ] } },
{ "type": "Feature", "properties": { "DIRECCION": null, "ADRES": null, "layer": "ES24_3ROA_TMAÑANA_2023", "path": "C:/Users/usuario/OneDrive/Escritorio/MAPEO MATRICULA/ES24/ES24_3ROA_TMAÑANA_2023.shp" }, "geometry": { "type": "Point", "coordinates": [ -58.607330531675181, -34.551228723237671 ] } },
{ "type": "Feature", "properties": { "DIRECCION": null, "ADRES": null, "layer": "ES24_3ROA_TMAÑANA_2023", "path": "C:/Users/usuario/OneDrive/Escritorio/MAPEO MATRICULA/ES24/ES24_3ROA_TMAÑANA_2023.shp" }, "geometry": { "type": "Point", "coordinates": [ -58.60148393756694, -34.555543935185078 ] } },
{ "type": "Feature", "properties": { "DIRECCION": null, "ADRES": null, "layer": "ES24_3ROA_TMAÑANA_2023", "path": "C:/Users/usuario/OneDrive/Escritorio/MAPEO MATRICULA/ES24/ES24_3ROA_TMAÑANA_2023.shp" }, "geometry": { "type": "Point", "coordinates": [ -58.594919776335352, -34.543663601914346 ] } },
{ "type": "Feature", "properties": { "DIRECCION": null, "ADRES": null, "layer": "ES24_3ROA_TMAÑANA_2023", "path": "C:/Users/usuario/OneDrive/Escritorio/MAPEO MATRICULA/ES24/ES24_3ROA_TMAÑANA_2023.shp" }, "geometry": { "type": "Point", "coordinates": [ -58.604751414139947, -34.553202252323345 ] } },
{ "type": "Feature", "properties": { "DIRECCION": null, "ADRES": null, "layer": "ES24_3ROA_TMAÑANA_2023", "path": "C:/Users/usuario/OneDrive/Escritorio/MAPEO MATRICULA/ES24/ES24_3ROA_TMAÑANA_2023.shp" }, "geometry": { "type": "Point", "coordinates": [ -58.599215165019743, -34.559530646208067 ] } },
{ "type": "Feature", "properties": { "DIRECCION": null, "ADRES": null, "layer": "ES24_3ROA_TMAÑANA_2023", "path": "C:/Users/usuario/OneDrive/Escritorio/MAPEO MATRICULA/ES24/ES24_3ROA_TMAÑANA_2023.shp" }, "geometry": { "type": "Point", "coordinates": [ -58.584721274134026, -34.55279804687892 ] } },
{ "type": "Feature", "properties": { "DIRECCION": null, "ADRES": null, "layer": "ES24_3ROA_TMAÑANA_2023", "path": "C:/Users/usuario/OneDrive/Escritorio/MAPEO MATRICULA/ES24/ES24_3ROA_TMAÑANA_2023.shp" }, "geometry": { "type": "Point", "coordinates": [ -58.611902541366199, -34.553574051857616 ] } },
{ "type": "Feature", "properties": { "DIRECCION": null, "ADRES": null, "layer": "ES24_3ROA_TMAÑANA_2023", "path": "C:/Users/usuario/OneDrive/Escritorio/MAPEO MATRICULA/ES24/ES24_3ROA_TMAÑANA_2023.shp" }, "geometry": { "type": "Point", "coordinates": [ -58.605909706464828, -34.552241711435563 ] } },
{ "type": "Feature", "properties": { "DIRECCION": null, "ADRES": null, "layer": "ES24_3ROA_TMAÑANA_2023", "path": "C:/Users/usuario/OneDrive/Escritorio/MAPEO MATRICULA/ES24/ES24_3ROA_TMAÑANA_2023.shp" }, "geometry": { "type": "Point", "coordinates": [ -58.591503781126519, -34.558589896561088 ] } },
{ "type": "Feature", "properties": { "DIRECCION": null, "ADRES": null, "layer": "ES24_3ROA_TMAÑANA_2023", "path": "C:/Users/usuario/OneDrive/Escritorio/MAPEO MATRICULA/ES24/ES24_3ROA_TMAÑANA_2023.shp" }, "geometry": { "type": "Point", "coordinates": [ -58.604323277641662, -34.553499818428136 ] } },
{ "type": "Feature", "properties": { "DIRECCION": null, "ADRES": null, "layer": "ES24_3ROA_TMAÑANA_2023", "path": "C:/Users/usuario/OneDrive/Escritorio/MAPEO MATRICULA/ES24/ES24_3ROA_TMAÑANA_2023.shp" }, "geometry": { "type": "Point", "coordinates": [ -58.599860008082565, -34.550910372077503 ] } },
{ "type": "Feature", "properties": { "DIRECCION": null, "ADRES": null, "layer": "ES24_3ROA_TMAÑANA_2023", "path": "C:/Users/usuario/OneDrive/Escritorio/MAPEO MATRICULA/ES24/ES24_3ROA_TMAÑANA_2023.shp" }, "geometry": { "type": "Point", "coordinates": [ -58.599966847100461, -34.553790928148644 ] } },
{ "type": "Feature", "properties": { "DIRECCION": null, "ADRES": null, "layer": "ES24_3ROA_TMAÑANA_2023", "path": "C:/Users/usuario/OneDrive/Escritorio/MAPEO MATRICULA/ES24/ES24_3ROA_TMAÑANA_2023.shp" }, "geometry": { "type": "Point", "coordinates": [ -58.607260798930703, -34.551137064361626 ] } },
{ "type": "Feature", "properties": { "DIRECCION": null, "ADRES": null, "layer": "ES24_3ROA_TMAÑANA_2023", "path": "C:/Users/usuario/OneDrive/Escritorio/MAPEO MATRICULA/ES24/ES24_3ROA_TMAÑANA_2023.shp" }, "geometry": { "type": "Point", "coordinates": [ -58.608397367031685, -34.55200109873897 ] } },
{ "type": "Feature", "properties": { "DIRECCION": null, "ADRES": null, "layer": "ES24_3ROA_TMAÑANA_2023", "path": "C:/Users/usuario/OneDrive/Escritorio/MAPEO MATRICULA/ES24/ES24_3ROA_TMAÑANA_2023.shp" }, "geometry": { "type": "Point", "coordinates": [ -58.59734889223526, -34.552784382108854 ] } },
{ "type": "Feature", "properties": { "DIRECCION": null, "ADRES": null, "layer": "ES24_3ROA_TMAÑANA_2023", "path": "C:/Users/usuario/OneDrive/Escritorio/MAPEO MATRICULA/ES24/ES24_3ROA_TMAÑANA_2023.shp" }, "geometry": { "type": "Point", "coordinates": [ -58.598172014577059, -34.554837306956678 ] } },
{ "type": "Feature", "properties": { "DIRECCION": null, "ADRES": null, "layer": "ES24_3ROA_TMAÑANA_2023", "path": "C:/Users/usuario/OneDrive/Escritorio/MAPEO MATRICULA/ES24/ES24_3ROA_TMAÑANA_2023.shp" }, "geometry": { "type": "Point", "coordinates": [ -58.588179697942607, -34.559557931558267 ] } },
{ "type": "Feature", "properties": { "DIRECCION": null, "ADRES": null, "layer": "ES24_3ROB_TTARDE_2023", "path": "C:/Users/usuario/OneDrive/Escritorio/MAPEO MATRICULA/ES24/ES24_3ROB_TTARDE_2023.shp" }, "geometry": { "type": "Point", "coordinates": [ -58.594834645544424, -34.55886355231511 ] } },
{ "type": "Feature", "properties": { "DIRECCION": null, "ADRES": null, "layer": "ES24_3ROB_TTARDE_2023", "path": "C:/Users/usuario/OneDrive/Escritorio/MAPEO MATRICULA/ES24/ES24_3ROB_TTARDE_2023.shp" }, "geometry": { "type": "Point", "coordinates": [ -58.578415220333611, -34.539097517015712 ] } },
{ "type": "Feature", "properties": { "DIRECCION": null, "ADRES": null, "layer": "ES24_3ROB_TTARDE_2023", "path": "C:/Users/usuario/OneDrive/Escritorio/MAPEO MATRICULA/ES24/ES24_3ROB_TTARDE_2023.shp" }, "geometry": { "type": "Point", "coordinates": [ -58.603068468684349, -34.550466941238419 ] } },
{ "type": "Feature", "properties": { "DIRECCION": null, "ADRES": null, "layer": "ES24_3ROB_TTARDE_2023", "path": "C:/Users/usuario/OneDrive/Escritorio/MAPEO MATRICULA/ES24/ES24_3ROB_TTARDE_2023.shp" }, "geometry": { "type": "Point", "coordinates": [ -58.602539830696756, -34.55631300130667 ] } },
{ "type": "Feature", "properties": { "DIRECCION": null, "ADRES": null, "layer": "ES24_3ROB_TTARDE_2023", "path": "C:/Users/usuario/OneDrive/Escritorio/MAPEO MATRICULA/ES24/ES24_3ROB_TTARDE_2023.shp" }, "geometry": { "type": "Point", "coordinates": [ -58.610362183214974, -34.554598401003908 ] } },
{ "type": "Feature", "properties": { "DIRECCION": null, "ADRES": null, "layer": "ES24_3ROB_TTARDE_2023", "path": "C:/Users/usuario/OneDrive/Escritorio/MAPEO MATRICULA/ES24/ES24_3ROB_TTARDE_2023.shp" }, "geometry": { "type": "Point", "coordinates": [ -58.600592986259784, -34.554888154147442 ] } },
{ "type": "Feature", "properties": { "DIRECCION": null, "ADRES": null, "layer": "ES24_3ROB_TTARDE_2023", "path": "C:/Users/usuario/OneDrive/Escritorio/MAPEO MATRICULA/ES24/ES24_3ROB_TTARDE_2023.shp" }, "geometry": { "type": "Point", "coordinates": [ -58.598070898629778, -34.553771004033351 ] } },
{ "type": "Feature", "properties": { "DIRECCION": null, "ADRES": null, "layer": "ES24_3ROB_TTARDE_2023", "path": "C:/Users/usuario/OneDrive/Escritorio/MAPEO MATRICULA/ES24/ES24_3ROB_TTARDE_2023.shp" }, "geometry": { "type": "Point", "coordinates": [ -58.600500197728429, -34.553335347814581 ] } },
{ "type": "Feature", "properties": { "DIRECCION": null, "ADRES": null, "layer": "ES24_3ROB_TTARDE_2023", "path": "C:/Users/usuario/OneDrive/Escritorio/MAPEO MATRICULA/ES24/ES24_3ROB_TTARDE_2023.shp" }, "geometry": { "type": "Point", "coordinates": [ -58.599919368388143, -34.553793997899085 ] } },
{ "type": "Feature", "properties": { "DIRECCION": null, "ADRES": null, "layer": "ES24_3ROB_TTARDE_2023", "path": "C:/Users/usuario/OneDrive/Escritorio/MAPEO MATRICULA/ES24/ES24_3ROB_TTARDE_2023.shp" }, "geometry": { "type": "Point", "coordinates": [ -58.597295252572195, -34.554476729804414 ] } },
{ "type": "Feature", "properties": { "DIRECCION": null, "ADRES": null, "layer": "ES24_3ROB_TTARDE_2023", "path": "C:/Users/usuario/OneDrive/Escritorio/MAPEO MATRICULA/ES24/ES24_3ROB_TTARDE_2023.shp" }, "geometry": { "type": "Point", "coordinates": [ -58.60350745011457, -34.551192415377194 ] } },
{ "type": "Feature", "properties": { "DIRECCION": null, "ADRES": null, "layer": "ES24_3ROB_TTARDE_2023", "path": "C:/Users/usuario/OneDrive/Escritorio/MAPEO MATRICULA/ES24/ES24_3ROB_TTARDE_2023.shp" }, "geometry": { "type": "Point", "coordinates": [ -58.608346462645613, -34.552660297042735 ] } },
{ "type": "Feature", "properties": { "DIRECCION": null, "ADRES": null, "layer": "ES24_3ROB_TTARDE_2023", "path": "C:/Users/usuario/OneDrive/Escritorio/MAPEO MATRICULA/ES24/ES24_3ROB_TTARDE_2023.shp" }, "geometry": { "type": "Point", "coordinates": [ -58.611658870962749, -34.555037886516864 ] } },
{ "type": "Feature", "properties": { "DIRECCION": null, "ADRES": null, "layer": "ES24_3ROB_TTARDE_2023", "path": "C:/Users/usuario/OneDrive/Escritorio/MAPEO MATRICULA/ES24/ES24_3ROB_TTARDE_2023.shp" }, "geometry": { "type": "Point", "coordinates": [ -58.605532801295347, -34.559280113045347 ] } },
{ "type": "Feature", "properties": { "DIRECCION": null, "ADRES": null, "layer": "ES24_3ROB_TTARDE_2023", "path": "C:/Users/usuario/OneDrive/Escritorio/MAPEO MATRICULA/ES24/ES24_3ROB_TTARDE_2023.shp" }, "geometry": { "type": "Point", "coordinates": [ -58.598579329322597, -34.561149261376933 ] } },
{ "type": "Feature", "properties": { "DIRECCION": null, "ADRES": null, "layer": "ES24_3ROB_TTARDE_2023", "path": "C:/Users/usuario/OneDrive/Escritorio/MAPEO MATRICULA/ES24/ES24_3ROB_TTARDE_2023.shp" }, "geometry": { "type": "Point", "coordinates": [ -58.592386536001655, -34.55964190373863 ] } },
{ "type": "Feature", "properties": { "DIRECCION": null, "ADRES": null, "layer": "ES24_3ROB_TTARDE_2023", "path": "C:/Users/usuario/OneDrive/Escritorio/MAPEO MATRICULA/ES24/ES24_3ROB_TTARDE_2023.shp" }, "geometry": { "type": "Point", "coordinates": [ -58.622656670036335, -34.561728001859422 ] } },
{ "type": "Feature", "properties": { "DIRECCION": null, "ADRES": null, "layer": "ES24_3ROB_TTARDE_2023", "path": "C:/Users/usuario/OneDrive/Escritorio/MAPEO MATRICULA/ES24/ES24_3ROB_TTARDE_2023.shp" }, "geometry": { "type": "Point", "coordinates": [ -58.622610712713474, -34.561777202382238 ] } },
{ "type": "Feature", "properties": { "DIRECCION": null, "ADRES": null, "layer": "ES24_3ROB_TTARDE_2023", "path": "C:/Users/usuario/OneDrive/Escritorio/MAPEO MATRICULA/ES24/ES24_3ROB_TTARDE_2023.shp" }, "geometry": { "type": "Point", "coordinates": [ -58.606882932420959, -34.556374862271952 ] } },
{ "type": "Feature", "properties": { "DIRECCION": null, "ADRES": null, "layer": "ES24_3ROC-TTARDE_2023", "path": "C:/Users/usuario/OneDrive/Escritorio/MAPEO MATRICULA/ES24/ES24_3ROC-TTARDE_2023.shp" }, "geometry": { "type": "Point", "coordinates": [ -58.594724124236762, -34.558520637813167 ] } },
{ "type": "Feature", "properties": { "DIRECCION": null, "ADRES": null, "layer": "ES24_3ROC-TTARDE_2023", "path": "C:/Users/usuario/OneDrive/Escritorio/MAPEO MATRICULA/ES24/ES24_3ROC-TTARDE_2023.shp" }, "geometry": { "type": "Point", "coordinates": [ -58.598677005397199, -34.562280638844271 ] } },
{ "type": "Feature", "properties": { "DIRECCION": null, "ADRES": null, "layer": "ES24_3ROC-TTARDE_2023", "path": "C:/Users/usuario/OneDrive/Escritorio/MAPEO MATRICULA/ES24/ES24_3ROC-TTARDE_2023.shp" }, "geometry": { "type": "Point", "coordinates": [ -58.602357573023681, -34.553335775607735 ] } },
{ "type": "Feature", "properties": { "DIRECCION": null, "ADRES": null, "layer": "ES24_3ROC-TTARDE_2023", "path": "C:/Users/usuario/OneDrive/Escritorio/MAPEO MATRICULA/ES24/ES24_3ROC-TTARDE_2023.shp" }, "geometry": { "type": "Point", "coordinates": [ -58.600958527598493, -34.554226930625205 ] } },
{ "type": "Feature", "properties": { "DIRECCION": null, "ADRES": null, "layer": "ES24_3ROC-TTARDE_2023", "path": "C:/Users/usuario/OneDrive/Escritorio/MAPEO MATRICULA/ES24/ES24_3ROC-TTARDE_2023.shp" }, "geometry": { "type": "Point", "coordinates": [ -58.602213817206611, -34.557346297912048 ] } },
{ "type": "Feature", "properties": { "DIRECCION": null, "ADRES": null, "layer": "ES24_3ROC-TTARDE_2023", "path": "C:/Users/usuario/OneDrive/Escritorio/MAPEO MATRICULA/ES24/ES24_3ROC-TTARDE_2023.shp" }, "geometry": { "type": "Point", "coordinates": [ -58.611695026552518, -34.555013032398357 ] } },
{ "type": "Feature", "properties": { "DIRECCION": null, "ADRES": null, "layer": "ES24_3ROC-TTARDE_2023", "path": "C:/Users/usuario/OneDrive/Escritorio/MAPEO MATRICULA/ES24/ES24_3ROC-TTARDE_2023.shp" }, "geometry": { "type": "Point", "coordinates": [ -58.596211336702801, -34.552285483145205 ] } },
{ "type": "Feature", "properties": { "DIRECCION": null, "ADRES": null, "layer": "ES24_3ROC-TTARDE_2023", "path": "C:/Users/usuario/OneDrive/Escritorio/MAPEO MATRICULA/ES24/ES24_3ROC-TTARDE_2023.shp" }, "geometry": { "type": "Point", "coordinates": [ -58.602910409708571, -34.555068383409917 ] } },
{ "type": "Feature", "properties": { "DIRECCION": null, "ADRES": null, "layer": "ES24_3ROC-TTARDE_2023", "path": "C:/Users/usuario/OneDrive/Escritorio/MAPEO MATRICULA/ES24/ES24_3ROC-TTARDE_2023.shp" }, "geometry": { "type": "Point", "coordinates": [ -58.602956367031432, -34.555117587871827 ] } },
{ "type": "Feature", "properties": { "DIRECCION": null, "ADRES": null, "layer": "ES24_3ROC-TTARDE_2023", "path": "C:/Users/usuario/OneDrive/Escritorio/MAPEO MATRICULA/ES24/ES24_3ROC-TTARDE_2023.shp" }, "geometry": { "type": "Point", "coordinates": [ -58.595362589407266, -34.557273135771034 ] } },
{ "type": "Feature", "properties": { "DIRECCION": null, "ADRES": null, "layer": "ES24_3ROC-TTARDE_2023", "path": "C:/Users/usuario/OneDrive/Escritorio/MAPEO MATRICULA/ES24/ES24_3ROC-TTARDE_2023.shp" }, "geometry": { "type": "Point", "coordinates": [ -58.602890398892583, -34.55511573792824 ] } },
{ "type": "Feature", "properties": { "DIRECCION": null, "ADRES": null, "layer": "ES24_3ROC-TTARDE_2023", "path": "C:/Users/usuario/OneDrive/Escritorio/MAPEO MATRICULA/ES24/ES24_3ROC-TTARDE_2023.shp" }, "geometry": { "type": "Point", "coordinates": [ -58.602872015963435, -34.555021113935098 ] } },
{ "type": "Feature", "properties": { "DIRECCION": null, "ADRES": null, "layer": "ES24_3ROC-TTARDE_2023", "path": "C:/Users/usuario/OneDrive/Escritorio/MAPEO MATRICULA/ES24/ES24_3ROC-TTARDE_2023.shp" }, "geometry": { "type": "Point", "coordinates": [ -58.606853882728451, -34.554676496839342 ] } },
{ "type": "Feature", "properties": { "DIRECCION": null, "ADRES": null, "layer": "ES24_3ROC-TTARDE_2023", "path": "C:/Users/usuario/OneDrive/Escritorio/MAPEO MATRICULA/ES24/ES24_3ROC-TTARDE_2023.shp" }, "geometry": { "type": "Point", "coordinates": [ -58.588730298980607, -34.547179429319158 ] } },
{ "type": "Feature", "properties": { "DIRECCION": null, "ADRES": null, "layer": "ES24_3ROC-TTARDE_2023", "path": "C:/Users/usuario/OneDrive/Escritorio/MAPEO MATRICULA/ES24/ES24_3ROC-TTARDE_2023.shp" }, "geometry": { "type": "Point", "coordinates": [ -58.599640975319012, -34.54676348233285 ] } },
{ "type": "Feature", "properties": { "DIRECCION": null, "ADRES": null, "layer": "ES24_3ROC-TTARDE_2023", "path": "C:/Users/usuario/OneDrive/Escritorio/MAPEO MATRICULA/ES24/ES24_3ROC-TTARDE_2023.shp" }, "geometry": { "type": "Point", "coordinates": [ -58.597395136120056, -34.554400328898339 ] } },
{ "type": "Feature", "properties": { "DIRECCION": null, "ADRES": null, "layer": "ES24_3ROC-TTARDE_2023", "path": "C:/Users/usuario/OneDrive/Escritorio/MAPEO MATRICULA/ES24/ES24_3ROC-TTARDE_2023.shp" }, "geometry": { "type": "Point", "coordinates": [ -58.602317967036541, -34.555527115125138 ] } },
{ "type": "Feature", "properties": { "DIRECCION": null, "ADRES": null, "layer": "ES24_3ROC-TTARDE_2023", "path": "C:/Users/usuario/OneDrive/Escritorio/MAPEO MATRICULA/ES24/ES24_3ROC-TTARDE_2023.shp" }, "geometry": { "type": "Point", "coordinates": [ -58.601533567277457, -34.556109969054852 ] } },
{ "type": "Feature", "properties": { "DIRECCION": null, "ADRES": null, "layer": "ES24_3ROC-TTARDE_2023", "path": "C:/Users/usuario/OneDrive/Escritorio/MAPEO MATRICULA/ES24/ES24_3ROC-TTARDE_2023.shp" }, "geometry": { "type": "Point", "coordinates": [ -58.594879503598172, -34.558054371446758 ] } },
{ "type": "Feature", "properties": { "DIRECCION": null, "ADRES": null, "layer": "ES24_3ROC-TTARDE_2023", "path": "C:/Users/usuario/OneDrive/Escritorio/MAPEO MATRICULA/ES24/ES24_3ROC-TTARDE_2023.shp" }, "geometry": { "type": "Point", "coordinates": [ -58.602108891950948, -34.551866730053639 ] } },
{ "type": "Feature", "properties": { "DIRECCION": null, "ADRES": null, "layer": "ES24_4A_TMAÑANA_2023", "path": "C:/Users/usuario/OneDrive/Escritorio/MAPEO MATRICULA/ES24/ES24_4A_TMAÑANA_2023.shp" }, "geometry": { "type": "Point", "coordinates": [ -58.600963195810934, -34.55202454330577 ] } },
{ "type": "Feature", "properties": { "DIRECCION": null, "ADRES": null, "layer": "ES24_4A_TMAÑANA_2023", "path": "C:/Users/usuario/OneDrive/Escritorio/MAPEO MATRICULA/ES24/ES24_4A_TMAÑANA_2023.shp" }, "geometry": { "type": "Point", "coordinates": [ -58.605014764817639, -34.552089240453917 ] } },
{ "type": "Feature", "properties": { "DIRECCION": null, "ADRES": null, "layer": "ES24_4A_TMAÑANA_2023", "path": "C:/Users/usuario/OneDrive/Escritorio/MAPEO MATRICULA/ES24/ES24_4A_TMAÑANA_2023.shp" }, "geometry": { "type": "Point", "coordinates": [ -58.586798833683751, -34.560973724227729 ] } },
{ "type": "Feature", "properties": { "DIRECCION": null, "ADRES": null, "layer": "ES24_4A_TMAÑANA_2023", "path": "C:/Users/usuario/OneDrive/Escritorio/MAPEO MATRICULA/ES24/ES24_4A_TMAÑANA_2023.shp" }, "geometry": { "type": "Point", "coordinates": [ -58.593484290688387, -34.559233426954194 ] } },
{ "type": "Feature", "properties": { "DIRECCION": null, "ADRES": null, "layer": "ES24_4A_TMAÑANA_2023", "path": "C:/Users/usuario/OneDrive/Escritorio/MAPEO MATRICULA/ES24/ES24_4A_TMAÑANA_2023.shp" }, "geometry": { "type": "Point", "coordinates": [ -58.606798552767749, -34.556607777925699 ] } },
{ "type": "Feature", "properties": { "DIRECCION": null, "ADRES": null, "layer": "ES24_4A_TMAÑANA_2023", "path": "C:/Users/usuario/OneDrive/Escritorio/MAPEO MATRICULA/ES24/ES24_4A_TMAÑANA_2023.shp" }, "geometry": { "type": "Point", "coordinates": [ -58.608932678141898, -34.555691306448878 ] } },
{ "type": "Feature", "properties": { "DIRECCION": null, "ADRES": null, "layer": "ES24_4A_TMAÑANA_2023", "path": "C:/Users/usuario/OneDrive/Escritorio/MAPEO MATRICULA/ES24/ES24_4A_TMAÑANA_2023.shp" }, "geometry": { "type": "Point", "coordinates": [ -58.60310531555529, -34.552699973999488 ] } },
{ "type": "Feature", "properties": { "DIRECCION": null, "ADRES": null, "layer": "ES24_4A_TMAÑANA_2023", "path": "C:/Users/usuario/OneDrive/Escritorio/MAPEO MATRICULA/ES24/ES24_4A_TMAÑANA_2023.shp" }, "geometry": { "type": "Point", "coordinates": [ -58.592334395683736, -34.55956603015894 ] } },
{ "type": "Feature", "properties": { "DIRECCION": null, "ADRES": null, "layer": "ES24_4A_TMAÑANA_2023", "path": "C:/Users/usuario/OneDrive/Escritorio/MAPEO MATRICULA/ES24/ES24_4A_TMAÑANA_2023.shp" }, "geometry": { "type": "Point", "coordinates": [ -58.567177780522158, -34.542300046340152 ] } },
{ "type": "Feature", "properties": { "DIRECCION": null, "ADRES": null, "layer": "ES24_4A_TMAÑANA_2023", "path": "C:/Users/usuario/OneDrive/Escritorio/MAPEO MATRICULA/ES24/ES24_4A_TMAÑANA_2023.shp" }, "geometry": { "type": "Point", "coordinates": [ -58.603296947432149, -34.554135026531782 ] } },
{ "type": "Feature", "properties": { "DIRECCION": null, "ADRES": null, "layer": "ES24_4A_TMAÑANA_2023", "path": "C:/Users/usuario/OneDrive/Escritorio/MAPEO MATRICULA/ES24/ES24_4A_TMAÑANA_2023.shp" }, "geometry": { "type": "Point", "coordinates": [ -58.612855228098489, -34.55405004636139 ] } },
{ "type": "Feature", "properties": { "DIRECCION": null, "ADRES": null, "layer": "ES24_4A_TMAÑANA_2023", "path": "C:/Users/usuario/OneDrive/Escritorio/MAPEO MATRICULA/ES24/ES24_4A_TMAÑANA_2023.shp" }, "geometry": { "type": "Point", "coordinates": [ -58.602007002036665, -34.553559886633238 ] } },
{ "type": "Feature", "properties": { "DIRECCION": null, "ADRES": null, "layer": "ES24_4A_TMAÑANA_2023", "path": "C:/Users/usuario/OneDrive/Escritorio/MAPEO MATRICULA/ES24/ES24_4A_TMAÑANA_2023.shp" }, "geometry": { "type": "Point", "coordinates": [ -58.601993214839801, -34.553427410535342 ] } },
{ "type": "Feature", "properties": { "DIRECCION": null, "ADRES": null, "layer": "ES24_4A_TMAÑANA_2023", "path": "C:/Users/usuario/OneDrive/Escritorio/MAPEO MATRICULA/ES24/ES24_4A_TMAÑANA_2023.shp" }, "geometry": { "type": "Point", "coordinates": [ -58.592372376201311, -34.560483019615745 ] } },
{ "type": "Feature", "properties": { "DIRECCION": null, "ADRES": null, "layer": "ES24_4A_TMAÑANA_2023", "path": "C:/Users/usuario/OneDrive/Escritorio/MAPEO MATRICULA/ES24/ES24_4A_TMAÑANA_2023.shp" }, "geometry": { "type": "Point", "coordinates": [ -58.593487071986566, -34.547535118313938 ] } },
{ "type": "Feature", "properties": { "DIRECCION": null, "ADRES": null, "layer": "ES24_4A_TMAÑANA_2023", "path": "C:/Users/usuario/OneDrive/Escritorio/MAPEO MATRICULA/ES24/ES24_4A_TMAÑANA_2023.shp" }, "geometry": { "type": "Point", "coordinates": [ -58.595742674879951, -34.554730287125139 ] } },
{ "type": "Feature", "properties": { "DIRECCION": null, "ADRES": null, "layer": "ES24_4A_TMAÑANA_2023", "path": "C:/Users/usuario/OneDrive/Escritorio/MAPEO MATRICULA/ES24/ES24_4A_TMAÑANA_2023.shp" }, "geometry": { "type": "Point", "coordinates": [ -58.597614184576159, -34.55543300625483 ] } },
{ "type": "Feature", "properties": { "DIRECCION": null, "ADRES": null, "layer": "ES24_4A_TMAÑANA_2023", "path": "C:/Users/usuario/OneDrive/Escritorio/MAPEO MATRICULA/ES24/ES24_4A_TMAÑANA_2023.shp" }, "geometry": { "type": "Point", "coordinates": [ -58.596729587683072, -34.555081226084454 ] } },
{ "type": "Feature", "properties": { "DIRECCION": null, "ADRES": null, "layer": "ES24_4A_TMAÑANA_2023", "path": "C:/Users/usuario/OneDrive/Escritorio/MAPEO MATRICULA/ES24/ES24_4A_TMAÑANA_2023.shp" }, "geometry": { "type": "Point", "coordinates": [ -58.599602232543774, -34.55734182048753 ] } },
{ "type": "Feature", "properties": { "DIRECCION": null, "ADRES": null, "layer": "ES24_4A_TMAÑANA_2023", "path": "C:/Users/usuario/OneDrive/Escritorio/MAPEO MATRICULA/ES24/ES24_4A_TMAÑANA_2023.shp" }, "geometry": { "type": "Point", "coordinates": [ -58.602825653527567, -34.553605653055868 ] } },
{ "type": "Feature", "properties": { "DIRECCION": null, "ADRES": null, "layer": "ES24_4A_TMAÑANA_2023", "path": "C:/Users/usuario/OneDrive/Escritorio/MAPEO MATRICULA/ES24/ES24_4A_TMAÑANA_2023.shp" }, "geometry": { "type": "Point", "coordinates": [ -58.600036057122047, -34.556336125897509 ] } },
{ "type": "Feature", "properties": { "DIRECCION": null, "ADRES": null, "layer": "ES24_4A_TMAÑANA_2023", "path": "C:/Users/usuario/OneDrive/Escritorio/MAPEO MATRICULA/ES24/ES24_4A_TMAÑANA_2023.shp" }, "geometry": { "type": "Point", "coordinates": [ -58.598390517557185, -34.552320682883604 ] } },
{ "type": "Feature", "properties": { "DIRECCION": null, "ADRES": null, "layer": "ES24_4A_TMAÑANA_2023", "path": "C:/Users/usuario/OneDrive/Escritorio/MAPEO MATRICULA/ES24/ES24_4A_TMAÑANA_2023.shp" }, "geometry": { "type": "Point", "coordinates": [ -58.601620209891117, -34.555187521007561 ] } },
{ "type": "Feature", "properties": { "DIRECCION": null, "ADRES": null, "layer": "ES24_4A_TMAÑANA_2023", "path": "C:/Users/usuario/OneDrive/Escritorio/MAPEO MATRICULA/ES24/ES24_4A_TMAÑANA_2023.shp" }, "geometry": { "type": "Point", "coordinates": [ -58.6015558696391, -34.55524051035097 ] } },
{ "type": "Feature", "properties": { "DIRECCION": null, "ADRES": null, "layer": "ES24_4A_TMAÑANA_2023", "path": "C:/Users/usuario/OneDrive/Escritorio/MAPEO MATRICULA/ES24/ES24_4A_TMAÑANA_2023.shp" }, "geometry": { "type": "Point", "coordinates": [ -58.603447467441072, -34.554082990965142 ] } },
{ "type": "Feature", "properties": { "DIRECCION": null, "ADRES": null, "layer": "ES24_4A_TMAÑANA_2023", "path": "C:/Users/usuario/OneDrive/Escritorio/MAPEO MATRICULA/ES24/ES24_4A_TMAÑANA_2023.shp" }, "geometry": { "type": "Point", "coordinates": [ -58.596806355311138, -34.548845332985302 ] } },
{ "type": "Feature", "properties": { "DIRECCION": null, "ADRES": null, "layer": "ES24_4A_TMAÑANA_2023", "path": "C:/Users/usuario/OneDrive/Escritorio/MAPEO MATRICULA/ES24/ES24_4A_TMAÑANA_2023.shp" }, "geometry": { "type": "Point", "coordinates": [ -58.601175739535726, -34.549156087043713 ] } },
{ "type": "Feature", "properties": { "DIRECCION": null, "ADRES": null, "layer": "ES24_5A_TMAÑANA_2023", "path": "C:/Users/usuario/Documents/ES24_5A_TMAÑANA_2023.shp" }, "geometry": { "type": "Point", "coordinates": [ -58.610277929600251, -34.553564906995 ] } },
{ "type": "Feature", "properties": { "DIRECCION": null, "ADRES": null, "layer": "ES24_5A_TMAÑANA_2023", "path": "C:/Users/usuario/Documents/ES24_5A_TMAÑANA_2023.shp" }, "geometry": { "type": "Point", "coordinates": [ -58.597209473596642, -34.554529391435729 ] } },
{ "type": "Feature", "properties": { "DIRECCION": null, "ADRES": null, "layer": "ES24_5A_TMAÑANA_2023", "path": "C:/Users/usuario/Documents/ES24_5A_TMAÑANA_2023.shp" }, "geometry": { "type": "Point", "coordinates": [ -58.603123621696852, -34.55185377724905 ] } },
{ "type": "Feature", "properties": { "DIRECCION": null, "ADRES": null, "layer": "ES24_5A_TMAÑANA_2023", "path": "C:/Users/usuario/Documents/ES24_5A_TMAÑANA_2023.shp" }, "geometry": { "type": "Point", "coordinates": [ -58.602742677495954, -34.554921536235653 ] } },
{ "type": "Feature", "properties": { "DIRECCION": null, "ADRES": null, "layer": "ES24_5A_TMAÑANA_2023", "path": "C:/Users/usuario/Documents/ES24_5A_TMAÑANA_2023.shp" }, "geometry": { "type": "Point", "coordinates": [ -58.601511339318684, -34.556102503752136 ] } },
{ "type": "Feature", "properties": { "DIRECCION": null, "ADRES": null, "layer": "ES24_5A_TMAÑANA_2023", "path": "C:/Users/usuario/Documents/ES24_5A_TMAÑANA_2023.shp" }, "geometry": { "type": "Point", "coordinates": [ -58.597547881704479, -34.55542173462284 ] } },
{ "type": "Feature", "properties": { "DIRECCION": null, "ADRES": null, "layer": "ES24_5A_TMAÑANA_2023", "path": "C:/Users/usuario/Documents/ES24_5A_TMAÑANA_2023.shp" }, "geometry": { "type": "Point", "coordinates": [ -58.597499626515472, -34.555404702374673 ] } },
{ "type": "Feature", "properties": { "DIRECCION": null, "ADRES": null, "layer": "ES24_5A_TMAÑANA_2023", "path": "C:/Users/usuario/Documents/ES24_5A_TMAÑANA_2023.shp" }, "geometry": { "type": "Point", "coordinates": [ -58.599160289889269, -34.549404988211016 ] } },
{ "type": "Feature", "properties": { "DIRECCION": null, "ADRES": null, "layer": "ES24_5A_TMAÑANA_2023", "path": "C:/Users/usuario/Documents/ES24_5A_TMAÑANA_2023.shp" }, "geometry": { "type": "Point", "coordinates": [ -58.594605966476827, -34.542160752426859 ] } },
{ "type": "Feature", "properties": { "DIRECCION": null, "ADRES": null, "layer": "ES24_5A_TMAÑANA_2023", "path": "C:/Users/usuario/Documents/ES24_5A_TMAÑANA_2023.shp" }, "geometry": { "type": "Point", "coordinates": [ -58.6021675039215, -34.55195316107897 ] } },
{ "type": "Feature", "properties": { "DIRECCION": null, "ADRES": null, "layer": "ES24_5A_TMAÑANA_2023", "path": "C:/Users/usuario/Documents/ES24_5A_TMAÑANA_2023.shp" }, "geometry": { "type": "Point", "coordinates": [ -58.586856603161081, -34.560951180063157 ] } },
{ "type": "Feature", "properties": { "DIRECCION": null, "ADRES": null, "layer": "ES24_5A_TMAÑANA_2023", "path": "C:/Users/usuario/Documents/ES24_5A_TMAÑANA_2023.shp" }, "geometry": { "type": "Point", "coordinates": [ -58.603492334467965, -34.55156010049906 ] } },
{ "type": "Feature", "properties": { "DIRECCION": null, "ADRES": null, "layer": "ES24_5A_TMAÑANA_2023", "path": "C:/Users/usuario/Documents/ES24_5A_TMAÑANA_2023.shp" }, "geometry": { "type": "Point", "coordinates": [ -58.606170744422478, -34.553527943676471 ] } },
{ "type": "Feature", "properties": { "DIRECCION": null, "ADRES": null, "layer": "ES24_5A_TMAÑANA_2023", "path": "C:/Users/usuario/Documents/ES24_5A_TMAÑANA_2023.shp" }, "geometry": { "type": "Point", "coordinates": [ -58.601185683259111, -34.552786335889756 ] } },
{ "type": "Feature", "properties": { "DIRECCION": null, "ADRES": null, "layer": "ES24_5A_TMAÑANA_2023", "path": "C:/Users/usuario/Documents/ES24_5A_TMAÑANA_2023.shp" }, "geometry": { "type": "Point", "coordinates": [ -58.600597236324944, -34.553157730948946 ] } },
{ "type": "Feature", "properties": { "DIRECCION": null, "ADRES": null, "layer": "ES24_5A_TMAÑANA_2023", "path": "C:/Users/usuario/Documents/ES24_5A_TMAÑANA_2023.shp" }, "geometry": { "type": "Point", "coordinates": [ -58.602160710190887, -34.554818875225671 ] } },
{ "type": "Feature", "properties": { "DIRECCION": null, "ADRES": null, "layer": "ES24_5A_TMAÑANA_2023", "path": "C:/Users/usuario/Documents/ES24_5A_TMAÑANA_2023.shp" }, "geometry": { "type": "Point", "coordinates": [ -58.604960268624076, -34.55969680816176 ] } },
{ "type": "Feature", "properties": { "DIRECCION": null, "ADRES": null, "layer": "ES24_5A_TMAÑANA_2023", "path": "C:/Users/usuario/Documents/ES24_5A_TMAÑANA_2023.shp" }, "geometry": { "type": "Point", "coordinates": [ -58.597777657469592, -34.556048290608437 ] } },
{ "type": "Feature", "properties": { "DIRECCION": null, "ADRES": null, "layer": "ES24_5A_TMAÑANA_2023", "path": "C:/Users/usuario/Documents/ES24_5A_TMAÑANA_2023.shp" }, "geometry": { "type": "Point", "coordinates": [ -58.586821691093419, -34.561033992474684 ] } },
{ "type": "Feature", "properties": { "DIRECCION": null, "ADRES": null, "layer": "ES24_5A_TMAÑANA_2023", "path": "C:/Users/usuario/Documents/ES24_5A_TMAÑANA_2023.shp" }, "geometry": { "type": "Point", "coordinates": [ -58.602381984385204, -34.55564638108801 ] } },
{ "type": "Feature", "properties": { "DIRECCION": null, "ADRES": null, "layer": "ES24_5A_TMAÑANA_2023", "path": "C:/Users/usuario/Documents/ES24_5A_TMAÑANA_2023.shp" }, "geometry": { "type": "Point", "coordinates": [ -58.602705309913439, -34.553628833715678 ] } },
{ "type": "Feature", "properties": { "DIRECCION": null, "ADRES": null, "layer": "ES24_5A_TMAÑANA_2023", "path": "C:/Users/usuario/Documents/ES24_5A_TMAÑANA_2023.shp" }, "geometry": { "type": "Point", "coordinates": [ -58.610366272204736, -34.554580299922648 ] } },
{ "type": "Feature", "properties": { "DIRECCION": null, "ADRES": null, "layer": "ES24_5A_TMAÑANA_2023", "path": "C:/Users/usuario/Documents/ES24_5A_TMAÑANA_2023.shp" }, "geometry": { "type": "Point", "coordinates": [ -58.60792295812773, -34.55548149262038 ] } },
{ "type": "Feature", "properties": { "DIRECCION": null, "ADRES": null, "layer": "ES24_5TOB_TTARDE_2023", "path": "C:/Users/usuario/Documents/ES24_5TOB_TTARDE_2023.shp" }, "geometry": { "type": "Point", "coordinates": [ -58.600812660570618, -34.557529179514745 ] } },
{ "type": "Feature", "properties": { "DIRECCION": null, "ADRES": null, "layer": "ES24_5TOB_TTARDE_2023", "path": "C:/Users/usuario/Documents/ES24_5TOB_TTARDE_2023.shp" }, "geometry": { "type": "Point", "coordinates": [ -58.603483864970677, -34.555379005534895 ] } },
{ "type": "Feature", "properties": { "DIRECCION": null, "ADRES": null, "layer": "ES24_5TOB_TTARDE_2023", "path": "C:/Users/usuario/Documents/ES24_5TOB_TTARDE_2023.shp" }, "geometry": { "type": "Point", "coordinates": [ -58.599691156151145, -34.548898253513272 ] } },
{ "type": "Feature", "properties": { "DIRECCION": null, "ADRES": null, "layer": "ES24_5TOB_TTARDE_2023", "path": "C:/Users/usuario/Documents/ES24_5TOB_TTARDE_2023.shp" }, "geometry": { "type": "Point", "coordinates": [ -58.60330574521462, -34.558906059769171 ] } },
{ "type": "Feature", "properties": { "DIRECCION": null, "ADRES": null, "layer": "ES24_5TOB_TTARDE_2023", "path": "C:/Users/usuario/Documents/ES24_5TOB_TTARDE_2023.shp" }, "geometry": { "type": "Point", "coordinates": [ -58.597644594567349, -34.546479945252521 ] } },
{ "type": "Feature", "properties": { "DIRECCION": null, "ADRES": null, "layer": "ES24_5TOB_TTARDE_2023", "path": "C:/Users/usuario/Documents/ES24_5TOB_TTARDE_2023.shp" }, "geometry": { "type": "Point", "coordinates": [ -58.605055628482191, -34.552982342691983 ] } },
{ "type": "Feature", "properties": { "DIRECCION": null, "ADRES": null, "layer": "ES24_5TOB_TTARDE_2023", "path": "C:/Users/usuario/Documents/ES24_5TOB_TTARDE_2023.shp" }, "geometry": { "type": "Point", "coordinates": [ -58.606321273815432, -34.553439720710145 ] } },
{ "type": "Feature", "properties": { "DIRECCION": null, "ADRES": null, "layer": "ES24_5TOB_TTARDE_2023", "path": "C:/Users/usuario/Documents/ES24_5TOB_TTARDE_2023.shp" }, "geometry": { "type": "Point", "coordinates": [ -58.607988852135726, -34.555466938707283 ] } },
{ "type": "Feature", "properties": { "DIRECCION": null, "ADRES": null, "layer": "ES24_5TOB_TTARDE_2023", "path": "C:/Users/usuario/Documents/ES24_5TOB_TTARDE_2023.shp" }, "geometry": { "type": "Point", "coordinates": [ -58.606677006683043, -34.556250235943011 ] } },
{ "type": "Feature", "properties": { "DIRECCION": null, "ADRES": null, "layer": "ES24_5TOB_TTARDE_2023", "path": "C:/Users/usuario/Documents/ES24_5TOB_TTARDE_2023.shp" }, "geometry": { "type": "Point", "coordinates": [ -58.599817698557054, -34.556347182643073 ] } },
{ "type": "Feature", "properties": { "DIRECCION": null, "ADRES": null, "layer": "ES24_5TOB_TTARDE_2023", "path": "C:/Users/usuario/Documents/ES24_5TOB_TTARDE_2023.shp" }, "geometry": { "type": "Point", "coordinates": [ -58.598292644891728, -34.553955076299381 ] } },
{ "type": "Feature", "properties": { "DIRECCION": null, "ADRES": null, "layer": "ES24_5TOB_TTARDE_2023", "path": "C:/Users/usuario/Documents/ES24_5TOB_TTARDE_2023.shp" }, "geometry": { "type": "Point", "coordinates": [ -58.610161486388037, -34.553636297720558 ] } },
{ "type": "Feature", "properties": { "DIRECCION": null, "ADRES": null, "layer": "ES24_5TOB_TTARDE_2023", "path": "C:/Users/usuario/Documents/ES24_5TOB_TTARDE_2023.shp" }, "geometry": { "type": "Point", "coordinates": [ -58.592217869824715, -34.560463469653257 ] } },
{ "type": "Feature", "properties": { "DIRECCION": null, "ADRES": null, "layer": "ES24_5TOB_TTARDE_2023", "path": "C:/Users/usuario/Documents/ES24_5TOB_TTARDE_2023.shp" }, "geometry": { "type": "Point", "coordinates": [ -58.597293253131774, -34.554381430928871 ] } },
{ "type": "Feature", "properties": { "DIRECCION": null, "ADRES": null, "layer": "ES24_5TOB_TTARDE_2023", "path": "C:/Users/usuario/Documents/ES24_5TOB_TTARDE_2023.shp" }, "geometry": { "type": "Point", "coordinates": [ -58.602321032112712, -34.555005301588167 ] } },
{ "type": "Feature", "properties": { "DIRECCION": null, "ADRES": null, "layer": "ES24_5TOB_TTARDE_2023", "path": "C:/Users/usuario/Documents/ES24_5TOB_TTARDE_2023.shp" }, "geometry": { "type": "Point", "coordinates": [ -58.609849741366212, -34.552613151537734 ] } },
{ "type": "Feature", "properties": { "DIRECCION": null, "ADRES": null, "layer": "ES24_5TOB_TTARDE_2023", "path": "C:/Users/usuario/Documents/ES24_5TOB_TTARDE_2023.shp" }, "geometry": { "type": "Point", "coordinates": [ -58.592412087273338, -34.559975330031953 ] } },
{ "type": "Feature", "properties": { "DIRECCION": null, "ADRES": null, "layer": "ES24_5TOB_TTARDE_2023", "path": "C:/Users/usuario/Documents/ES24_5TOB_TTARDE_2023.shp" }, "geometry": { "type": "Point", "coordinates": [ -58.585093453600408, -34.573077846759006 ] } },
{ "type": "Feature", "properties": { "DIRECCION": null, "ADRES": null, "layer": "ES24_5TOB_TTARDE_2023", "path": "C:/Users/usuario/Documents/ES24_5TOB_TTARDE_2023.shp" }, "geometry": { "type": "Point", "coordinates": [ -58.601857470202653, -34.553528540627639 ] } },
{ "type": "Feature", "properties": { "DIRECCION": null, "ADRES": null, "layer": "ES24_5TOB_TTARDE_2023", "path": "C:/Users/usuario/Documents/ES24_5TOB_TTARDE_2023.shp" }, "geometry": { "type": "Point", "coordinates": [ -58.606862251625678, -34.556377394532994 ] } },
{ "type": "Feature", "properties": { "DIRECCION": null, "ADRES": null, "layer": "ES24_6TOA_TMAÑANA_2023", "path": "C:/Users/usuario/OneDrive/Escritorio/MAPEO MATRICULA/ES24/ES24_6TOA_TMAÑANA_2023.shp" }, "geometry": { "type": "Point", "coordinates": [ -58.602888547212402, -34.555089227668887 ] } },
{ "type": "Feature", "properties": { "DIRECCION": null, "ADRES": null, "layer": "ES24_6TOA_TMAÑANA_2023", "path": "C:/Users/usuario/OneDrive/Escritorio/MAPEO MATRICULA/ES24/ES24_6TOA_TMAÑANA_2023.shp" }, "geometry": { "type": "Point", "coordinates": [ -58.599290903321688, -34.551124060942271 ] } },
{ "type": "Feature", "properties": { "DIRECCION": null, "ADRES": null, "layer": "ES24_6TOA_TMAÑANA_2023", "path": "C:/Users/usuario/OneDrive/Escritorio/MAPEO MATRICULA/ES24/ES24_6TOA_TMAÑANA_2023.shp" }, "geometry": { "type": "Point", "coordinates": [ -58.597314075087425, -34.546598802357195 ] } },
{ "type": "Feature", "properties": { "DIRECCION": null, "ADRES": null, "layer": "ES24_6TOA_TMAÑANA_2023", "path": "C:/Users/usuario/OneDrive/Escritorio/MAPEO MATRICULA/ES24/ES24_6TOA_TMAÑANA_2023.shp" }, "geometry": { "type": "Point", "coordinates": [ -58.600266833081378, -34.551706968666274 ] } },
{ "type": "Feature", "properties": { "DIRECCION": null, "ADRES": null, "layer": "ES24_6TOA_TMAÑANA_2023", "path": "C:/Users/usuario/OneDrive/Escritorio/MAPEO MATRICULA/ES24/ES24_6TOA_TMAÑANA_2023.shp" }, "geometry": { "type": "Point", "coordinates": [ -58.603833311900239, -34.552384977356411 ] } },
{ "type": "Feature", "properties": { "DIRECCION": null, "ADRES": null, "layer": "ES24_6TOA_TMAÑANA_2023", "path": "C:/Users/usuario/OneDrive/Escritorio/MAPEO MATRICULA/ES24/ES24_6TOA_TMAÑANA_2023.shp" }, "geometry": { "type": "Point", "coordinates": [ -58.604614055297169, -34.553186908266866 ] } },
{ "type": "Feature", "properties": { "DIRECCION": null, "ADRES": null, "layer": "ES24_6TOA_TMAÑANA_2023", "path": "C:/Users/usuario/OneDrive/Escritorio/MAPEO MATRICULA/ES24/ES24_6TOA_TMAÑANA_2023.shp" }, "geometry": { "type": "Point", "coordinates": [ -58.593440762558579, -34.559220215702588 ] } },
{ "type": "Feature", "properties": { "DIRECCION": null, "ADRES": null, "layer": "ES24_6TOA_TMAÑANA_2023", "path": "C:/Users/usuario/OneDrive/Escritorio/MAPEO MATRICULA/ES24/ES24_6TOA_TMAÑANA_2023.shp" }, "geometry": { "type": "Point", "coordinates": [ -58.602789940077216, -34.552952110822424 ] } },
{ "type": "Feature", "properties": { "DIRECCION": null, "ADRES": null, "layer": "ES24_6TOA_TMAÑANA_2023", "path": "C:/Users/usuario/OneDrive/Escritorio/MAPEO MATRICULA/ES24/ES24_6TOA_TMAÑANA_2023.shp" }, "geometry": { "type": "Point", "coordinates": [ -58.602827872554947, -34.555005972025626 ] } },
{ "type": "Feature", "properties": { "DIRECCION": null, "ADRES": null, "layer": "ES24_6TOA_TMAÑANA_2023", "path": "C:/Users/usuario/OneDrive/Escritorio/MAPEO MATRICULA/ES24/ES24_6TOA_TMAÑANA_2023.shp" }, "geometry": { "type": "Point", "coordinates": [ -58.604641082318672, -34.554739928110848 ] } },
{ "type": "Feature", "properties": { "DIRECCION": null, "ADRES": null, "layer": "ES24_6TOA_TMAÑANA_2023", "path": "C:/Users/usuario/OneDrive/Escritorio/MAPEO MATRICULA/ES24/ES24_6TOA_TMAÑANA_2023.shp" }, "geometry": { "type": "Point", "coordinates": [ -58.601215179971497, -34.555701059071566 ] } },
{ "type": "Feature", "properties": { "DIRECCION": null, "ADRES": null, "layer": "ES24_6TOA_TMAÑANA_2023", "path": "C:/Users/usuario/OneDrive/Escritorio/MAPEO MATRICULA/ES24/ES24_6TOA_TMAÑANA_2023.shp" }, "geometry": { "type": "Point", "coordinates": [ -58.599135611111961, -34.552259539430764 ] } },
{ "type": "Feature", "properties": { "DIRECCION": null, "ADRES": null, "layer": "ES24_6TOA_TMAÑANA_2023", "path": "C:/Users/usuario/OneDrive/Escritorio/MAPEO MATRICULA/ES24/ES24_6TOA_TMAÑANA_2023.shp" }, "geometry": { "type": "Point", "coordinates": [ -58.602752452421271, -34.552893539173496 ] } },
{ "type": "Feature", "properties": { "DIRECCION": null, "ADRES": null, "layer": "ES24_6TOA_TMAÑANA_2023", "path": "C:/Users/usuario/OneDrive/Escritorio/MAPEO MATRICULA/ES24/ES24_6TOA_TMAÑANA_2023.shp" }, "geometry": { "type": "Point", "coordinates": [ -58.602294883488035, -34.554677515597845 ] } },
{ "type": "Feature", "properties": { "DIRECCION": null, "ADRES": null, "layer": "ES24_6TOA_TMAÑANA_2023", "path": "C:/Users/usuario/OneDrive/Escritorio/MAPEO MATRICULA/ES24/ES24_6TOA_TMAÑANA_2023.shp" }, "geometry": { "type": "Point", "coordinates": [ -58.59677850583271, -34.550714451694297 ] } },
{ "type": "Feature", "properties": { "DIRECCION": null, "ADRES": null, "layer": "ES24_6TOA_TMAÑANA_2023", "path": "C:/Users/usuario/OneDrive/Escritorio/MAPEO MATRICULA/ES24/ES24_6TOA_TMAÑANA_2023.shp" }, "geometry": { "type": "Point", "coordinates": [ -58.603523891895968, -34.55130209536766 ] } },
{ "type": "Feature", "properties": { "DIRECCION": null, "ADRES": null, "layer": "ES24_6TOA_TMAÑANA_2023", "path": "C:/Users/usuario/OneDrive/Escritorio/MAPEO MATRICULA/ES24/ES24_6TOA_TMAÑANA_2023.shp" }, "geometry": { "type": "Point", "coordinates": [ -58.598854627893076, -34.551548128523301 ] } },
{ "type": "Feature", "properties": { "DIRECCION": null, "ADRES": null, "layer": "ES24_6TOA_TMAÑANA_2023", "path": "C:/Users/usuario/OneDrive/Escritorio/MAPEO MATRICULA/ES24/ES24_6TOA_TMAÑANA_2023.shp" }, "geometry": { "type": "Point", "coordinates": [ -58.604460087621582, -34.554056515151423 ] } },
{ "type": "Feature", "properties": { "DIRECCION": null, "ADRES": null, "layer": "ES24_6TOA_TMAÑANA_2023", "path": "C:/Users/usuario/OneDrive/Escritorio/MAPEO MATRICULA/ES24/ES24_6TOA_TMAÑANA_2023.shp" }, "geometry": { "type": "Point", "coordinates": [ -58.607474078006035, -34.553452241691438 ] } },
{ "type": "Feature", "properties": { "DIRECCION": null, "ADRES": null, "layer": "ES24_6TOA_TMAÑANA_2023", "path": "C:/Users/usuario/OneDrive/Escritorio/MAPEO MATRICULA/ES24/ES24_6TOA_TMAÑANA_2023.shp" }, "geometry": { "type": "Point", "coordinates": [ -58.601918549271801, -34.553623141583387 ] } },
{ "type": "Feature", "properties": { "DIRECCION": null, "ADRES": null, "layer": "ES24_6TOA_TMAÑANA_2023", "path": "C:/Users/usuario/OneDrive/Escritorio/MAPEO MATRICULA/ES24/ES24_6TOA_TMAÑANA_2023.shp" }, "geometry": { "type": "Point", "coordinates": [ -58.606577036693814, -34.553258600725954 ] } },
{ "type": "Feature", "properties": { "DIRECCION": null, "ADRES": null, "layer": "ES24_6TOA_TMAÑANA_2023", "path": "C:/Users/usuario/OneDrive/Escritorio/MAPEO MATRICULA/ES24/ES24_6TOA_TMAÑANA_2023.shp" }, "geometry": { "type": "Point", "coordinates": [ -58.601095888138175, -34.549038849862079 ] } },
{ "type": "Feature", "properties": { "DIRECCION": null, "ADRES": null, "layer": "ES24_6TOA_TMAÑANA_2023", "path": "C:/Users/usuario/OneDrive/Escritorio/MAPEO MATRICULA/ES24/ES24_6TOA_TMAÑANA_2023.shp" }, "geometry": { "type": "Point", "coordinates": [ -58.601613571385656, -34.556219078136792 ] } },
{ "type": "Feature", "properties": { "DIRECCION": null, "ADRES": null, "layer": "ES24_6TOB_TTARDE_2023", "path": "C:/Users/usuario/OneDrive/Escritorio/MAPEO MATRICULA/ES24/ES24_6TOB_TTARDE_2023.shp" }, "geometry": { "type": "Point", "coordinates": [ -58.600757511783179, -34.557470514353618 ] } },
{ "type": "Feature", "properties": { "DIRECCION": null, "ADRES": null, "layer": "ES24_6TOB_TTARDE_2023", "path": "C:/Users/usuario/OneDrive/Escritorio/MAPEO MATRICULA/ES24/ES24_6TOB_TTARDE_2023.shp" }, "geometry": { "type": "Point", "coordinates": [ -58.599070396822086, -34.552204463632734 ] } },
{ "type": "Feature", "properties": { "DIRECCION": null, "ADRES": null, "layer": "ES24_6TOB_TTARDE_2023", "path": "C:/Users/usuario/OneDrive/Escritorio/MAPEO MATRICULA/ES24/ES24_6TOB_TTARDE_2023.shp" }, "geometry": { "type": "Point", "coordinates": [ -58.602134495954843, -34.551732221126677 ] } },
{ "type": "Feature", "properties": { "DIRECCION": null, "ADRES": null, "layer": "ES24_6TOB_TTARDE_2023", "path": "C:/Users/usuario/OneDrive/Escritorio/MAPEO MATRICULA/ES24/ES24_6TOB_TTARDE_2023.shp" }, "geometry": { "type": "Point", "coordinates": [ -58.610945140053296, -34.554269090590687 ] } },
{ "type": "Feature", "properties": { "DIRECCION": null, "ADRES": null, "layer": "ES24_6TOB_TTARDE_2023", "path": "C:/Users/usuario/OneDrive/Escritorio/MAPEO MATRICULA/ES24/ES24_6TOB_TTARDE_2023.shp" }, "geometry": { "type": "Point", "coordinates": [ -58.602703796647468, -34.552905892498224 ] } },
{ "type": "Feature", "properties": { "DIRECCION": null, "ADRES": null, "layer": "ES24_6TOB_TTARDE_2023", "path": "C:/Users/usuario/OneDrive/Escritorio/MAPEO MATRICULA/ES24/ES24_6TOB_TTARDE_2023.shp" }, "geometry": { "type": "Point", "coordinates": [ -58.602834775017634, -34.552941850542467 ] } },
{ "type": "Feature", "properties": { "DIRECCION": null, "ADRES": null, "layer": "ES24_6TOB_TTARDE_2023", "path": "C:/Users/usuario/OneDrive/Escritorio/MAPEO MATRICULA/ES24/ES24_6TOB_TTARDE_2023.shp" }, "geometry": { "type": "Point", "coordinates": [ -58.592357525141523, -34.560512093269224 ] } },
{ "type": "Feature", "properties": { "DIRECCION": null, "ADRES": null, "layer": "ES24_6TOB_TTARDE_2023", "path": "C:/Users/usuario/OneDrive/Escritorio/MAPEO MATRICULA/ES24/ES24_6TOB_TTARDE_2023.shp" }, "geometry": { "type": "Point", "coordinates": [ -58.60830741477745, -34.555042881277515 ] } },
{ "type": "Feature", "properties": { "DIRECCION": null, "ADRES": null, "layer": "ES24_6TOB_TTARDE_2023", "path": "C:/Users/usuario/OneDrive/Escritorio/MAPEO MATRICULA/ES24/ES24_6TOB_TTARDE_2023.shp" }, "geometry": { "type": "Point", "coordinates": [ -58.57979885246931, -34.53198206720468 ] } },
{ "type": "Feature", "properties": { "DIRECCION": null, "ADRES": null, "layer": "ES24_6TOB_TTARDE_2023", "path": "C:/Users/usuario/OneDrive/Escritorio/MAPEO MATRICULA/ES24/ES24_6TOB_TTARDE_2023.shp" }, "geometry": { "type": "Point", "coordinates": [ -58.601986174952501, -34.554198285127413 ] } }
]
}
