{"type":"FeatureCollection","metadata":{"generated":"2026-05-07T23:04:55.980Z","eligible_students_farther_than_m":1200,"assigned_students":111,"total_eligible_students":178,"assumptions":{"WALK_TO_BUS_M":750,"SCHOOL_STOP_M":650,"MIN_BUS_TRIP_M":1200,"STOP_SPACING_VERTICES":8}},"features":[{"type":"Feature","geometry":{"type":"Point","coordinates":[-58.612211,-34.568417]},"properties":{"stop_id":"stop_1","school_id":"walsh","school_name":"Escuela Walsh","linea":"169","linea_label":"Linea 169","students":4,"walk_avg_m":369,"color":"#475569","source":"Parada aproximada sobre recorrido; no es parada oficial"}},{"type":"Feature","geometry":{"type":"Point","coordinates":[-58.547966,-34.584939]},"properties":{"stop_id":"stop_2","school_id":"walsh","school_name":"Escuela Walsh","linea":"169","linea_label":"Linea 169","students":6,"walk_avg_m":382,"color":"#475569","source":"Parada aproximada sobre recorrido; no es parada oficial"}},{"type":"Feature","geometry":{"type":"Point","coordinates":[-58.57275,-34.569147]},"properties":{"stop_id":"stop_3","school_id":"walsh","school_name":"Escuela Walsh","linea":"169","linea_label":"Linea 169","students":9,"walk_avg_m":550,"color":"#475569","source":"Parada aproximada sobre recorrido; no es parada oficial"}},{"type":"Feature","geometry":{"type":"Point","coordinates":[-58.558369,-34.576587]},"properties":{"stop_id":"stop_4","school_id":"walsh","school_name":"Escuela Walsh","linea":"169","linea_label":"Linea 169","students":4,"walk_avg_m":426,"color":"#475569","source":"Parada aproximada sobre recorrido; no es parada oficial"}},{"type":"Feature","geometry":{"type":"Point","coordinates":[-58.592298,-34.58347]},"properties":{"stop_id":"stop_5","school_id":"walsh","school_name":"Escuela Walsh","linea":"169","linea_label":"Linea 169","students":1,"walk_avg_m":283,"color":"#475569","source":"Parada aproximada sobre recorrido; no es parada oficial"}},{"type":"Feature","geometry":{"type":"Point","coordinates":[-58.567708,-34.569876]},"properties":{"stop_id":"stop_6","school_id":"walsh","school_name":"Escuela Walsh","linea":"169","linea_label":"Linea 169","students":3,"walk_avg_m":460,"color":"#475569","source":"Parada aproximada sobre recorrido; no es parada oficial"}},{"type":"Feature","geometry":{"type":"Point","coordinates":[-58.589122,-34.578202]},"properties":{"stop_id":"stop_7","school_id":"walsh","school_name":"Escuela Walsh","linea":"169","linea_label":"Linea 169","students":1,"walk_avg_m":502,"color":"#475569","source":"Parada aproximada sobre recorrido; no es parada oficial"}},{"type":"Feature","geometry":{"type":"Point","coordinates":[-58.601825,-34.576228]},"properties":{"stop_id":"stop_8","school_id":"walsh","school_name":"Escuela Walsh","linea":"169","linea_label":"Linea 169","students":1,"walk_avg_m":707,"color":"#475569","source":"Parada aproximada sobre recorrido; no es parada oficial"}},{"type":"Feature","geometry":{"type":"Point","coordinates":[-58.536994,-34.575651]},"properties":{"stop_id":"stop_9","school_id":"walsh","school_name":"Escuela Walsh","linea":"169","linea_label":"Linea 169","students":1,"walk_avg_m":157,"color":"#475569","source":"Parada aproximada sobre recorrido; no es parada oficial"}},{"type":"Feature","geometry":{"type":"Point","coordinates":[-58.554146,-34.581356]},"properties":{"stop_id":"stop_10","school_id":"walsh","school_name":"Escuela Walsh","linea":"169","linea_label":"Linea 169","students":3,"walk_avg_m":454,"color":"#475569","source":"Parada aproximada sobre recorrido; no es parada oficial"}},{"type":"Feature","geometry":{"type":"Point","coordinates":[-58.591504,-34.587686]},"properties":{"stop_id":"stop_11","school_id":"walsh","school_name":"Escuela Walsh","linea":"169","linea_label":"Linea 169","students":2,"walk_avg_m":657,"color":"#475569","source":"Parada aproximada sobre recorrido; no es parada oficial"}},{"type":"Feature","geometry":{"type":"Point","coordinates":[-58.550606,-34.546638]},"properties":{"stop_id":"stop_12","school_id":"pizarnik","school_name":"Escuela Pizarnik","linea":"78","linea_label":"Linea 78","students":3,"walk_avg_m":506,"color":"#c8a7ff","source":"Parada aproximada sobre recorrido; no es parada oficial"}},{"type":"Feature","geometry":{"type":"Point","coordinates":[-58.527661,-34.54174]},"properties":{"stop_id":"stop_13","school_id":"pizarnik","school_name":"Escuela Pizarnik","linea":"161","linea_label":"Linea 161","students":3,"walk_avg_m":208,"color":"#c8a7ff","source":"Parada aproximada sobre recorrido; no es parada oficial"}},{"type":"Feature","geometry":{"type":"Point","coordinates":[-58.528032,-34.547431]},"properties":{"stop_id":"stop_14","school_id":"pizarnik","school_name":"Escuela Pizarnik","linea":"161","linea_label":"Linea 161","students":49,"walk_avg_m":386,"color":"#c8a7ff","source":"Parada aproximada sobre recorrido; no es parada oficial"}},{"type":"Feature","geometry":{"type":"Point","coordinates":[-58.530715,-34.552152]},"properties":{"stop_id":"stop_15","school_id":"pizarnik","school_name":"Escuela Pizarnik","linea":"161","linea_label":"Linea 161","students":8,"walk_avg_m":347,"color":"#c8a7ff","source":"Parada aproximada sobre recorrido; no es parada oficial"}},{"type":"Feature","geometry":{"type":"Point","coordinates":[-58.551979,-34.541423]},"properties":{"stop_id":"stop_16","school_id":"pizarnik","school_name":"Escuela Pizarnik","linea":"78","linea_label":"Linea 78","students":1,"walk_avg_m":273,"color":"#c8a7ff","source":"Parada aproximada sobre recorrido; no es parada oficial"}},{"type":"Feature","geometry":{"type":"Point","coordinates":[-58.531294,-34.553161]},"properties":{"stop_id":"stop_17","school_id":"pizarnik","school_name":"Escuela Pizarnik","linea":"161","linea_label":"Linea 161","students":7,"walk_avg_m":604,"color":"#c8a7ff","source":"Parada aproximada sobre recorrido; no es parada oficial"}},{"type":"Feature","geometry":{"type":"Point","coordinates":[-58.55921,-34.545457]},"properties":{"stop_id":"stop_18","school_id":"pizarnik","school_name":"Escuela Pizarnik","linea":"78","linea_label":"Linea 78","students":1,"walk_avg_m":675,"color":"#c8a7ff","source":"Parada aproximada sobre recorrido; no es parada oficial"}},{"type":"Feature","geometry":{"type":"Point","coordinates":[-58.53389,-34.573052]},"properties":{"stop_id":"stop_19","school_id":"pizarnik","school_name":"Escuela Pizarnik","linea":"161","linea_label":"Linea 161","students":1,"walk_avg_m":325,"color":"#c8a7ff","source":"Parada aproximada sobre recorrido; no es parada oficial"}},{"type":"Feature","geometry":{"type":"Point","coordinates":[-58.540027,-34.569361]},"properties":{"stop_id":"stop_20","school_id":"pizarnik","school_name":"Escuela Pizarnik","linea":"161","linea_label":"Linea 161","students":2,"walk_avg_m":292,"color":"#c8a7ff","source":"Parada aproximada sobre recorrido; no es parada oficial"}},{"type":"Feature","geometry":{"type":"Point","coordinates":[-58.522003,-34.542711]},"properties":{"stop_id":"stop_21","school_id":"pizarnik","school_name":"Escuela Pizarnik","linea":"161","linea_label":"Linea 161","students":1,"walk_avg_m":450,"color":"#c8a7ff","source":"Parada aproximada sobre recorrido; no es parada oficial"}},{"type":"Feature","geometry":{"type":"Point","coordinates":[-58.629519,-34.564693]},"properties":{"school_id":"galeano","school_name":"Escuela Galeano","linea":"57","linea_label":"Linea 57","recorrido":"B","sentido":"VUELTA","empresa":"TRANSPORTES ATLANTIDA SAC","students":1,"color":"#38bdf8","stop_id":"galeano_board_22","stop_role":"boarding","walk_avg_m":535,"source":"Parada aproximada de abordaje sobre recorrido; no es parada oficial"}},{"type":"Feature","geometry":{"type":"Point","coordinates":[-58.607833,-34.5502]},"properties":{"school_id":"galeano","school_name":"Escuela Galeano","linea":"57","linea_label":"Linea 57","recorrido":"B","sentido":"VUELTA","empresa":"TRANSPORTES ATLANTIDA SAC","students":1,"color":"#38bdf8","stop_id":"galeano_school_23","stop_role":"school_near","walk_avg_m":689,"source":"Punto de bajada aproximado cercano a la escuela sobre recorrido; no es parada oficial"}},{"type":"Feature","geometry":{"type":"Point","coordinates":[-58.601448,-34.542254]},"properties":{"school_id":"galeano","school_name":"Escuela Galeano","linea":"57","linea_label":"Linea 57","recorrido":"B","sentido":"VUELTA","empresa":"TRANSPORTES ATLANTIDA SAC","students":2,"color":"#38bdf8","stop_id":"galeano_board_24","stop_role":"boarding","walk_avg_m":406,"source":"Parada aproximada de abordaje sobre recorrido; no es parada oficial"}},{"type":"Feature","geometry":{"type":"Point","coordinates":[-58.607833,-34.5502]},"properties":{"school_id":"galeano","school_name":"Escuela Galeano","linea":"57","linea_label":"Linea 57","recorrido":"B","sentido":"VUELTA","empresa":"TRANSPORTES ATLANTIDA SAC","students":2,"color":"#38bdf8","stop_id":"galeano_school_25","stop_role":"school_near","walk_avg_m":689,"source":"Punto de bajada aproximado cercano a la escuela sobre recorrido; no es parada oficial"}},{"type":"Feature","geometry":{"type":"Point","coordinates":[-58.585532,-34.555143]},"properties":{"school_id":"galeano","school_name":"Escuela Galeano","linea":"78","linea_label":"Linea 78","recorrido":"C","sentido":"IDA","empresa":"LOS CONSTITUYENTES SAT","students":3,"color":"#38bdf8","stop_id":"galeano_board_26","stop_role":"boarding","walk_avg_m":469,"source":"Parada aproximada de abordaje sobre recorrido; no es parada oficial"}},{"type":"Feature","geometry":{"type":"Point","coordinates":[-58.603349,-34.562645]},"properties":{"school_id":"galeano","school_name":"Escuela Galeano","linea":"78","linea_label":"Linea 78","recorrido":"C","sentido":"IDA","empresa":"LOS CONSTITUYENTES SAT","students":3,"color":"#38bdf8","stop_id":"galeano_school_27","stop_role":"school_near","walk_avg_m":844,"source":"Punto de bajada aproximado cercano a la escuela sobre recorrido; no es parada oficial"}},{"type":"Feature","geometry":{"type":"Point","coordinates":[-58.600401,-34.540444]},"properties":{"school_id":"galeano","school_name":"Escuela Galeano","linea":"57","linea_label":"Linea 57","recorrido":"B","sentido":"VUELTA","empresa":"TRANSPORTES ATLANTIDA SAC","students":4,"color":"#38bdf8","stop_id":"galeano_board_28","stop_role":"boarding","walk_avg_m":581,"source":"Parada aproximada de abordaje sobre recorrido; no es parada oficial"}},{"type":"Feature","geometry":{"type":"Point","coordinates":[-58.607833,-34.5502]},"properties":{"school_id":"galeano","school_name":"Escuela Galeano","linea":"57","linea_label":"Linea 57","recorrido":"B","sentido":"VUELTA","empresa":"TRANSPORTES ATLANTIDA SAC","students":4,"color":"#38bdf8","stop_id":"galeano_school_29","stop_role":"school_near","walk_avg_m":689,"source":"Punto de bajada aproximado cercano a la escuela sobre recorrido; no es parada oficial"}},{"type":"Feature","geometry":{"type":"Point","coordinates":[-58.576119,-34.553118]},"properties":{"school_id":"galeano","school_name":"Escuela Galeano","linea":"78","linea_label":"Linea 78","recorrido":"C","sentido":"IDA","empresa":"LOS CONSTITUYENTES SAT","students":3,"color":"#38bdf8","stop_id":"galeano_board_30","stop_role":"boarding","walk_avg_m":1317,"source":"Parada aproximada de abordaje sobre recorrido; no es parada oficial"}},{"type":"Feature","geometry":{"type":"Point","coordinates":[-58.603349,-34.562645]},"properties":{"school_id":"galeano","school_name":"Escuela Galeano","linea":"78","linea_label":"Linea 78","recorrido":"C","sentido":"IDA","empresa":"LOS CONSTITUYENTES SAT","students":3,"color":"#38bdf8","stop_id":"galeano_school_31","stop_role":"school_near","walk_avg_m":844,"source":"Punto de bajada aproximado cercano a la escuela sobre recorrido; no es parada oficial"}},{"type":"Feature","geometry":{"type":"Point","coordinates":[-58.587985,-34.56301]},"properties":{"school_id":"galeano","school_name":"Escuela Galeano","linea":"57","linea_label":"Linea 57","recorrido":"A","sentido":"VUELTA","empresa":"TRANSPORTES ATLANTIDA SAC","students":2,"color":"#38bdf8","stop_id":"galeano_board_32","stop_role":"boarding","walk_avg_m":1147,"source":"Parada aproximada de abordaje sobre recorrido; no es parada oficial"}},{"type":"Feature","geometry":{"type":"Point","coordinates":[-58.603349,-34.562645]},"properties":{"school_id":"galeano","school_name":"Escuela Galeano","linea":"57","linea_label":"Linea 57","recorrido":"A","sentido":"VUELTA","empresa":"TRANSPORTES ATLANTIDA SAC","students":2,"color":"#38bdf8","stop_id":"galeano_school_33","stop_role":"school_near","walk_avg_m":844,"source":"Punto de bajada aproximado cercano a la escuela sobre recorrido; no es parada oficial"}},{"type":"Feature","geometry":{"type":"Point","coordinates":[-58.58771,-34.56075]},"properties":{"school_id":"galeano","school_name":"Escuela Galeano","linea":"78","linea_label":"Linea 78","recorrido":"C","sentido":"IDA","empresa":"LOS CONSTITUYENTES SAT","students":4,"color":"#38bdf8","stop_id":"galeano_board_34","stop_role":"boarding","walk_avg_m":85,"source":"Parada aproximada de abordaje sobre recorrido; no es parada oficial"}},{"type":"Feature","geometry":{"type":"Point","coordinates":[-58.603349,-34.562645]},"properties":{"school_id":"galeano","school_name":"Escuela Galeano","linea":"78","linea_label":"Linea 78","recorrido":"C","sentido":"IDA","empresa":"LOS CONSTITUYENTES SAT","students":4,"color":"#38bdf8","stop_id":"galeano_school_35","stop_role":"school_near","walk_avg_m":844,"source":"Punto de bajada aproximado cercano a la escuela sobre recorrido; no es parada oficial"}},{"type":"Feature","geometry":{"type":"Point","coordinates":[-58.602469,-34.54402]},"properties":{"school_id":"galeano","school_name":"Escuela Galeano","linea":"57","linea_label":"Linea 57","recorrido":"B","sentido":"VUELTA","empresa":"TRANSPORTES ATLANTIDA SAC","students":2,"color":"#38bdf8","stop_id":"galeano_board_36","stop_role":"boarding","walk_avg_m":854,"source":"Parada aproximada de abordaje sobre recorrido; no es parada oficial"}},{"type":"Feature","geometry":{"type":"Point","coordinates":[-58.607833,-34.5502]},"properties":{"school_id":"galeano","school_name":"Escuela Galeano","linea":"57","linea_label":"Linea 57","recorrido":"B","sentido":"VUELTA","empresa":"TRANSPORTES ATLANTIDA SAC","students":2,"color":"#38bdf8","stop_id":"galeano_school_37","stop_role":"school_near","walk_avg_m":689,"source":"Punto de bajada aproximado cercano a la escuela sobre recorrido; no es parada oficial"}},{"type":"Feature","geometry":{"type":"Point","coordinates":[-58.587288,-34.559754]},"properties":{"school_id":"galeano","school_name":"Escuela Galeano","linea":"78","linea_label":"Linea 78","recorrido":"C","sentido":"IDA","empresa":"LOS CONSTITUYENTES SAT","students":1,"color":"#38bdf8","stop_id":"galeano_board_38","stop_role":"boarding","walk_avg_m":85,"source":"Parada aproximada de abordaje sobre recorrido; no es parada oficial"}},{"type":"Feature","geometry":{"type":"Point","coordinates":[-58.603349,-34.562645]},"properties":{"school_id":"galeano","school_name":"Escuela Galeano","linea":"78","linea_label":"Linea 78","recorrido":"C","sentido":"IDA","empresa":"LOS CONSTITUYENTES SAT","students":1,"color":"#38bdf8","stop_id":"galeano_school_39","stop_role":"school_near","walk_avg_m":844,"source":"Punto de bajada aproximado cercano a la escuela sobre recorrido; no es parada oficial"}},{"type":"Feature","geometry":{"type":"Point","coordinates":[-58.622746,-34.562795]},"properties":{"school_id":"galeano","school_name":"Escuela Galeano","linea":"57","linea_label":"Linea 57","recorrido":"A","sentido":"IDA","empresa":"TRANSPORTES ATLANTIDA SAC","students":2,"color":"#38bdf8","stop_id":"galeano_board_40","stop_role":"boarding","walk_avg_m":116,"source":"Parada aproximada de abordaje sobre recorrido; no es parada oficial"}},{"type":"Feature","geometry":{"type":"Point","coordinates":[-58.603349,-34.562645]},"properties":{"school_id":"galeano","school_name":"Escuela Galeano","linea":"57","linea_label":"Linea 57","recorrido":"A","sentido":"IDA","empresa":"TRANSPORTES ATLANTIDA SAC","students":2,"color":"#38bdf8","stop_id":"galeano_school_41","stop_role":"school_near","walk_avg_m":844,"source":"Punto de bajada aproximado cercano a la escuela sobre recorrido; no es parada oficial"}},{"type":"Feature","geometry":{"type":"Point","coordinates":[-58.592936,-34.527456]},"properties":{"school_id":"galeano","school_name":"Escuela Galeano","linea":"57","linea_label":"Linea 57","recorrido":"B","sentido":"VUELTA","empresa":"TRANSPORTES ATLANTIDA SAC","students":1,"color":"#38bdf8","stop_id":"galeano_board_42","stop_role":"boarding","walk_avg_m":1304,"source":"Parada aproximada de abordaje sobre recorrido; no es parada oficial"}},{"type":"Feature","geometry":{"type":"Point","coordinates":[-58.607833,-34.5502]},"properties":{"school_id":"galeano","school_name":"Escuela Galeano","linea":"57","linea_label":"Linea 57","recorrido":"B","sentido":"VUELTA","empresa":"TRANSPORTES ATLANTIDA SAC","students":1,"color":"#38bdf8","stop_id":"galeano_school_43","stop_role":"school_near","walk_avg_m":689,"source":"Punto de bajada aproximado cercano a la escuela sobre recorrido; no es parada oficial"}}]}