{"type":"FeatureCollection","metadata":{"generated":"2026-05-07T23:04:55.980Z","eligible_students_farther_than_m":1200,"assigned_students":111,"total_eligible_students":178,"assumptions":{"WALK_TO_BUS_M":750,"SCHOOL_STOP_M":650,"MIN_BUS_TRIP_M":1200,"STOP_SPACING_VERTICES":8},"removed_direct_school_diagonals":21,"updated":"2026-05-08T03:22:46.484Z"},"features":[{"type":"Feature","geometry":{"type":"LineString","coordinates":[[-58.612211,-34.568417],[-58.609657,-34.570348],[-58.606997,-34.572344],[-58.604422,-34.574275],[-58.600967,-34.576871],[-58.60028,-34.577408],[-58.599358,-34.578116],[-58.599293,-34.57818],[-58.599164,-34.578266],[-58.5991,-34.578309],[-58.599615,-34.579017],[-58.599851,-34.579318],[-58.600259,-34.57979],[-58.600838,-34.580562],[-58.601441,-34.581296],[-58.600571,-34.581982],[-58.599317,-34.582928],[-58.598678,-34.583406],[-58.598086,-34.583875],[-58.597447,-34.584372],[-58.596634,-34.584983],[-58.596019,-34.585461],[-58.593081,-34.587651],[-58.592222,-34.588339],[-58.591504,-34.587686],[-58.590775,-34.586935],[-58.590045,-34.586184],[-58.589423,-34.585626],[-58.590369,-34.584916],[-58.590968,-34.584467],[-58.591692,-34.583929],[-58.592152,-34.583579],[-58.592298,-34.58347],[-58.593028,-34.582922],[-58.593768,-34.582355],[-58.593748,-34.582336],[-58.592813,-34.581463],[-58.591847,-34.580584],[-58.59086,-34.579704],[-58.589938,-34.57891],[-58.589122,-34.578202],[-58.588328,-34.577494],[-58.587492,-34.576786],[-58.586633,-34.576035],[-58.585796,-34.575326],[-58.585235,-34.575773],[-58.584653,-34.576234],[-58.583825,-34.57552],[-58.5829,-34.574811],[-58.581955,-34.574018],[-58.580818,-34.57303],[-58.57975,-34.572084],[-58.578656,-34.5711],[-58.577862,-34.571739],[-58.576977,-34.572451],[-58.576193,-34.573068],[-58.575372,-34.573714]]},"properties":{"flow_id":"flow_1","school_id":"walsh","school_name":"Escuela Walsh","linea":"169","linea_label":"Linea 169","recorrido":"C","sentido":"IDA","empresa":"TRANSPORTE ESCALADA SOCIEDAD ANONIMA DE TRANSPORTES","students":4,"ride_avg_m":6536,"color":"#475569","source":"Flujo exploratorio desde parada aproximada hacia escuela por traza de colectivo"}},{"type":"Feature","geometry":{"type":"LineString","coordinates":[[-58.547966,-34.584939],[-58.548739,-34.585605],[-58.549254,-34.585197],[-58.549812,-34.584746],[-58.550284,-34.584382],[-58.550863,-34.58391],[-58.551936,-34.583073],[-58.553073,-34.582193],[-58.554146,-34.581356],[-58.553288,-34.580626],[-58.554404,-34.579725],[-58.555176,-34.579103],[-58.555974,-34.578469],[-58.556013,-34.578438],[-58.556635,-34.577944],[-58.557622,-34.577172],[-58.558369,-34.576587],[-58.558416,-34.57655],[-58.559167,-34.575949],[-58.559575,-34.575648],[-58.559983,-34.575305],[-58.560744,-34.574688],[-58.560777,-34.574661],[-58.561571,-34.57406],[-58.562343,-34.573417],[-58.563138,-34.572805],[-58.56318,-34.572773],[-58.563952,-34.572129],[-58.564746,-34.571507],[-58.565519,-34.570906],[-58.565862,-34.571335],[-58.566892,-34.57052],[-58.567708,-34.569876],[-58.568673,-34.569168],[-58.56951,-34.568481],[-58.570239,-34.567905],[-58.570883,-34.567344],[-58.571676,-34.568116],[-58.57172,-34.56816],[-58.572235,-34.568653],[-58.57275,-34.569147],[-58.573372,-34.569769],[-58.572854,-34.570176],[-58.571987,-34.570852],[-58.571221,-34.571476],[-58.572343,-34.572437],[-58.573447,-34.573399],[-58.57456,-34.57436],[-58.575372,-34.573714]]},"properties":{"flow_id":"flow_2","school_id":"walsh","school_name":"Escuela Walsh","linea":"169","linea_label":"Linea 169","recorrido":"C","sentido":"IDA","empresa":"TRANSPORTE ESCALADA SOCIEDAD ANONIMA DE TRANSPORTES","students":6,"ride_avg_m":4326,"color":"#475569","source":"Flujo exploratorio desde parada aproximada hacia escuela por traza de colectivo"}},{"type":"Feature","geometry":{"type":"LineString","coordinates":[[-58.57275,-34.569147],[-58.573372,-34.569769],[-58.572854,-34.570176],[-58.571987,-34.570852],[-58.571221,-34.571476],[-58.572343,-34.572437],[-58.573447,-34.573399],[-58.57456,-34.57436],[-58.575372,-34.573714]]},"properties":{"flow_id":"flow_3","school_id":"walsh","school_name":"Escuela Walsh","linea":"169","linea_label":"Linea 169","recorrido":"C","sentido":"IDA","empresa":"TRANSPORTE ESCALADA SOCIEDAD ANONIMA DE TRANSPORTES","students":9,"ride_avg_m":910,"color":"#475569","source":"Flujo exploratorio desde parada aproximada hacia escuela por traza de colectivo"}},{"type":"Feature","geometry":{"type":"LineString","coordinates":[[-58.558369,-34.576587],[-58.558416,-34.57655],[-58.559167,-34.575949],[-58.559575,-34.575648],[-58.559983,-34.575305],[-58.560744,-34.574688],[-58.560777,-34.574661],[-58.561571,-34.57406],[-58.562343,-34.573417],[-58.563138,-34.572805],[-58.56318,-34.572773],[-58.563952,-34.572129],[-58.564746,-34.571507],[-58.565519,-34.570906],[-58.565862,-34.571335],[-58.566892,-34.57052],[-58.567708,-34.569876],[-58.568673,-34.569168],[-58.56951,-34.568481],[-58.570239,-34.567905],[-58.570883,-34.567344],[-58.571676,-34.568116],[-58.57172,-34.56816],[-58.572235,-34.568653],[-58.57275,-34.569147],[-58.573372,-34.569769],[-58.572854,-34.570176],[-58.571987,-34.570852],[-58.571221,-34.571476],[-58.572343,-34.572437],[-58.573447,-34.573399],[-58.57456,-34.57436],[-58.575372,-34.573714]]},"properties":{"flow_id":"flow_4","school_id":"walsh","school_name":"Escuela Walsh","linea":"169","linea_label":"Linea 169","recorrido":"C","sentido":"IDA","empresa":"TRANSPORTE ESCALADA SOCIEDAD ANONIMA DE TRANSPORTES","students":4,"ride_avg_m":2779,"color":"#475569","source":"Flujo exploratorio desde parada aproximada hacia escuela por traza de colectivo"}},{"type":"Feature","geometry":{"type":"LineString","coordinates":[[-58.592298,-34.58347],[-58.593028,-34.582922],[-58.593768,-34.582355],[-58.593748,-34.582336],[-58.592813,-34.581463],[-58.591847,-34.580584],[-58.59086,-34.579704],[-58.589938,-34.57891],[-58.589122,-34.578202],[-58.588328,-34.577494],[-58.587492,-34.576786],[-58.586633,-34.576035],[-58.585796,-34.575326],[-58.585235,-34.575773],[-58.584653,-34.576234],[-58.583825,-34.57552],[-58.5829,-34.574811],[-58.581955,-34.574018],[-58.580818,-34.57303],[-58.57975,-34.572084],[-58.578656,-34.5711],[-58.577862,-34.571739],[-58.576977,-34.572451],[-58.576193,-34.573068],[-58.575372,-34.573714]]},"properties":{"flow_id":"flow_5","school_id":"walsh","school_name":"Escuela Walsh","linea":"169","linea_label":"Linea 169","recorrido":"C","sentido":"IDA","empresa":"TRANSPORTE ESCALADA SOCIEDAD ANONIMA DE TRANSPORTES","students":1,"ride_avg_m":2608,"color":"#475569","source":"Flujo exploratorio desde parada aproximada hacia escuela por traza de colectivo"}},{"type":"Feature","geometry":{"type":"LineString","coordinates":[[-58.567708,-34.569876],[-58.568673,-34.569168],[-58.56951,-34.568481],[-58.570239,-34.567905],[-58.570883,-34.567344],[-58.571676,-34.568116],[-58.57172,-34.56816],[-58.572235,-34.568653],[-58.57275,-34.569147],[-58.573372,-34.569769],[-58.572854,-34.570176],[-58.571987,-34.570852],[-58.571221,-34.571476],[-58.572343,-34.572437],[-58.573447,-34.573399],[-58.57456,-34.57436],[-58.575372,-34.573714]]},"properties":{"flow_id":"flow_6","school_id":"walsh","school_name":"Escuela Walsh","linea":"169","linea_label":"Linea 169","recorrido":"C","sentido":"IDA","empresa":"TRANSPORTE ESCALADA SOCIEDAD ANONIMA DE TRANSPORTES","students":3,"ride_avg_m":1578,"color":"#475569","source":"Flujo exploratorio desde parada aproximada hacia escuela por traza de colectivo"}},{"type":"Feature","geometry":{"type":"LineString","coordinates":[[-58.589122,-34.578202],[-58.588328,-34.577494],[-58.587492,-34.576786],[-58.586633,-34.576035],[-58.585796,-34.575326],[-58.585235,-34.575773],[-58.584653,-34.576234],[-58.583825,-34.57552],[-58.5829,-34.574811],[-58.581955,-34.574018],[-58.580818,-34.57303],[-58.57975,-34.572084],[-58.578656,-34.5711],[-58.577862,-34.571739],[-58.576977,-34.572451],[-58.576193,-34.573068],[-58.575372,-34.573714]]},"properties":{"flow_id":"flow_7","school_id":"walsh","school_name":"Escuela Walsh","linea":"169","linea_label":"Linea 169","recorrido":"C","sentido":"IDA","empresa":"TRANSPORTE ESCALADA SOCIEDAD ANONIMA DE TRANSPORTES","students":1,"ride_avg_m":1798,"color":"#475569","source":"Flujo exploratorio desde parada aproximada hacia escuela por traza de colectivo"}},{"type":"Feature","geometry":{"type":"LineString","coordinates":[[-58.601825,-34.576228],[-58.600967,-34.576871],[-58.60028,-34.577408],[-58.599358,-34.578116],[-58.599293,-34.57818],[-58.600624,-34.579875],[-58.600881,-34.580047],[-58.60116,-34.580369],[-58.601761,-34.581141],[-58.601761,-34.581141],[-58.601696,-34.581206],[-58.601632,-34.581249],[-58.601589,-34.581292],[-58.600571,-34.581982],[-58.599317,-34.582928],[-58.598678,-34.583406],[-58.598086,-34.583875],[-58.597447,-34.584372],[-58.596634,-34.584983],[-58.596019,-34.585461],[-58.593081,-34.587651],[-58.593081,-34.587651],[-58.592222,-34.588339],[-58.591745,-34.588733],[-58.590764,-34.588759],[-58.590431,-34.58848],[-58.589659,-34.587772],[-58.588886,-34.587064],[-58.588264,-34.586506],[-58.588758,-34.586141],[-58.589637,-34.585476],[-58.590496,-34.584811],[-58.591375,-34.584167],[-58.591719,-34.58391],[-58.592427,-34.583373],[-58.593779,-34.582365],[-58.593748,-34.582336],[-58.592813,-34.581463],[-58.591847,-34.580584],[-58.59086,-34.579704],[-58.589938,-34.57891],[-58.589122,-34.578202],[-58.588328,-34.577494],[-58.587492,-34.576786],[-58.586633,-34.576035],[-58.585796,-34.575326],[-58.585235,-34.575773],[-58.584653,-34.576234],[-58.583825,-34.57552],[-58.5829,-34.574811],[-58.581955,-34.574018],[-58.581158,-34.574652],[-58.580344,-34.575306],[-58.579187,-34.574361],[-58.578072,-34.573417],[-58.576977,-34.572451],[-58.57584,-34.571486]]},"properties":{"flow_id":"flow_8","school_id":"walsh","school_name":"Escuela Walsh","linea":"169","linea_label":"Linea 169","recorrido":"C","sentido":"VUELTA","empresa":"TRANSPORTE ESCALADA SOCIEDAD ANONIMA DE TRANSPORTES","students":1,"ride_avg_m":5441,"color":"#475569","source":"Flujo exploratorio desde parada aproximada hacia escuela por traza de colectivo"}},{"type":"Feature","geometry":{"type":"LineString","coordinates":[[-58.536994,-34.575651],[-58.537066,-34.575713],[-58.53786,-34.576378],[-58.538654,-34.577043],[-58.539448,-34.577708],[-58.540199,-34.578352],[-58.540971,-34.579017],[-58.541722,-34.579661],[-58.542581,-34.580305],[-58.543375,-34.581034],[-58.544126,-34.581721],[-58.544919,-34.582386],[-58.545671,-34.583008],[-58.54641,-34.583645],[-58.546443,-34.583673],[-58.547258,-34.584339],[-58.547966,-34.584939],[-58.548739,-34.585605],[-58.549254,-34.585197],[-58.549812,-34.584746],[-58.550284,-34.584382],[-58.550863,-34.58391],[-58.551936,-34.583073],[-58.553073,-34.582193],[-58.554146,-34.581356],[-58.553288,-34.580626],[-58.554404,-34.579725],[-58.555176,-34.579103],[-58.555974,-34.578469],[-58.556013,-34.578438],[-58.556635,-34.577944],[-58.557622,-34.577172],[-58.558369,-34.576587],[-58.558416,-34.57655],[-58.559167,-34.575949],[-58.559575,-34.575648],[-58.559983,-34.575305],[-58.560744,-34.574688],[-58.560777,-34.574661],[-58.561571,-34.57406],[-58.562343,-34.573417],[-58.563138,-34.572805],[-58.56318,-34.572773],[-58.563952,-34.572129],[-58.564746,-34.571507],[-58.565519,-34.570906],[-58.565862,-34.571335],[-58.566892,-34.57052],[-58.567708,-34.569876],[-58.568673,-34.569168],[-58.56951,-34.568481],[-58.570239,-34.567905],[-58.570883,-34.567344],[-58.571676,-34.568116],[-58.57172,-34.56816],[-58.572235,-34.568653],[-58.57275,-34.569147],[-58.573372,-34.569769],[-58.572854,-34.570176],[-58.571987,-34.570852],[-58.571221,-34.571476],[-58.572343,-34.572437],[-58.573447,-34.573399],[-58.57456,-34.57436],[-58.575372,-34.573714]]},"properties":{"flow_id":"flow_9","school_id":"walsh","school_name":"Escuela Walsh","linea":"169","linea_label":"Linea 169","recorrido":"C","sentido":"IDA","empresa":"TRANSPORTE ESCALADA SOCIEDAD ANONIMA DE TRANSPORTES","students":1,"ride_avg_m":5767,"color":"#475569","source":"Flujo exploratorio desde parada aproximada hacia escuela por traza de colectivo"}},{"type":"Feature","geometry":{"type":"LineString","coordinates":[[-58.554146,-34.581356],[-58.553288,-34.580626],[-58.554404,-34.579725],[-58.555176,-34.579103],[-58.555974,-34.578469],[-58.556013,-34.578438],[-58.556635,-34.577944],[-58.557622,-34.577172],[-58.558369,-34.576587],[-58.558416,-34.57655],[-58.559167,-34.575949],[-58.559575,-34.575648],[-58.559983,-34.575305],[-58.560744,-34.574688],[-58.560777,-34.574661],[-58.561571,-34.57406],[-58.562343,-34.573417],[-58.563138,-34.572805],[-58.56318,-34.572773],[-58.563952,-34.572129],[-58.564746,-34.571507],[-58.565519,-34.570906],[-58.565862,-34.571335],[-58.566892,-34.57052],[-58.567708,-34.569876],[-58.568673,-34.569168],[-58.56951,-34.568481],[-58.570239,-34.567905],[-58.570883,-34.567344],[-58.571676,-34.568116],[-58.57172,-34.56816],[-58.572235,-34.568653],[-58.57275,-34.569147],[-58.573372,-34.569769],[-58.572854,-34.570176],[-58.571987,-34.570852],[-58.571221,-34.571476],[-58.572343,-34.572437],[-58.573447,-34.573399],[-58.57456,-34.57436],[-58.575372,-34.573714]]},"properties":{"flow_id":"flow_10","school_id":"walsh","school_name":"Escuela Walsh","linea":"169","linea_label":"Linea 169","recorrido":"C","sentido":"IDA","empresa":"TRANSPORTE ESCALADA SOCIEDAD ANONIMA DE TRANSPORTES","students":3,"ride_avg_m":3539,"color":"#475569","source":"Flujo exploratorio desde parada aproximada hacia escuela por traza de colectivo"}},{"type":"Feature","geometry":{"type":"LineString","coordinates":[[-58.591504,-34.587686],[-58.590775,-34.586935],[-58.590045,-34.586184],[-58.589423,-34.585626],[-58.590369,-34.584916],[-58.590968,-34.584467],[-58.591692,-34.583929],[-58.592152,-34.583579],[-58.592298,-34.58347],[-58.593028,-34.582922],[-58.593768,-34.582355],[-58.593748,-34.582336],[-58.592813,-34.581463],[-58.591847,-34.580584],[-58.59086,-34.579704],[-58.589938,-34.57891],[-58.589122,-34.578202],[-58.588328,-34.577494],[-58.587492,-34.576786],[-58.586633,-34.576035],[-58.585796,-34.575326],[-58.585235,-34.575773],[-58.584653,-34.576234],[-58.583825,-34.57552],[-58.5829,-34.574811],[-58.581955,-34.574018],[-58.580818,-34.57303],[-58.57975,-34.572084],[-58.578656,-34.5711],[-58.577862,-34.571739],[-58.576977,-34.572451],[-58.576193,-34.573068],[-58.575372,-34.573714]]},"properties":{"flow_id":"flow_11","school_id":"walsh","school_name":"Escuela Walsh","linea":"169","linea_label":"Linea 169","recorrido":"C","sentido":"IDA","empresa":"TRANSPORTE ESCALADA SOCIEDAD ANONIMA DE TRANSPORTES","students":2,"ride_avg_m":3263,"color":"#475569","source":"Flujo exploratorio desde parada aproximada hacia escuela por traza de colectivo"}},{"type":"Feature","geometry":{"type":"LineString","coordinates":[[-58.550606,-34.546638],[-58.551486,-34.547389],[-58.552365,-34.548118],[-58.553224,-34.548848],[-58.554103,-34.549599],[-58.552794,-34.55065],[-58.551528,-34.55168],[-58.550413,-34.552603],[-58.549125,-34.553611],[-58.547816,-34.554684],[-58.5467,-34.555542],[-58.545971,-34.55595],[-58.545177,-34.556401],[-58.544104,-34.557281],[-58.543053,-34.558117],[-58.54198,-34.558976],[-58.542881,-34.559727]]},"properties":{"flow_id":"flow_12","school_id":"pizarnik","school_name":"Escuela Pizarnik","linea":"78","linea_label":"Linea 78","recorrido":"A","sentido":"IDA","empresa":"LOS CONSTITUYENTES SAT","students":3,"ride_avg_m":2102,"color":"#c8a7ff","source":"Flujo exploratorio desde parada aproximada hacia escuela por traza de colectivo"}},{"type":"Feature","geometry":{"type":"LineString","coordinates":[[-58.527661,-34.54174],[-58.529019,-34.542389],[-58.528183,-34.54329],[-58.527796,-34.543741],[-58.52741,-34.54417],[-58.526659,-34.545007],[-58.527024,-34.545672],[-58.527474,-34.546444],[-58.527753,-34.546959],[-58.528032,-34.547431],[-58.528311,-34.547925],[-58.52859,-34.54844],[-58.528976,-34.549105],[-58.529556,-34.550092],[-58.529599,-34.5502],[-58.530135,-34.551144],[-58.530715,-34.552152],[-58.531294,-34.553161],[-58.531895,-34.554169],[-58.532109,-34.554555],[-58.532474,-34.555242],[-58.532646,-34.555392],[-58.533633,-34.556208],[-58.53462,-34.557002],[-58.535328,-34.557581]]},"properties":{"flow_id":"flow_13","school_id":"pizarnik","school_name":"Escuela Pizarnik","linea":"161","linea_label":"Linea 161","recorrido":"A","sentido":"IDA","empresa":"TRANSPORTES LARRAZABAL CISA","students":3,"ride_avg_m":2132,"color":"#c8a7ff","source":"Flujo exploratorio desde parada aproximada hacia escuela por traza de colectivo"}},{"type":"Feature","geometry":{"type":"LineString","coordinates":[[-58.528032,-34.547431],[-58.528311,-34.547925],[-58.52859,-34.54844],[-58.528976,-34.549105],[-58.529556,-34.550092],[-58.529599,-34.5502],[-58.530135,-34.551144],[-58.530715,-34.552152],[-58.531294,-34.553161],[-58.531895,-34.554169],[-58.532109,-34.554555],[-58.532474,-34.555242],[-58.532646,-34.555392],[-58.533633,-34.556208],[-58.53462,-34.557002],[-58.535328,-34.557581],[-58.535864,-34.558032]]},"properties":{"flow_id":"flow_14","school_id":"pizarnik","school_name":"Escuela Pizarnik","linea":"161","linea_label":"Linea 161","recorrido":"A","sentido":"VUELTA","empresa":"TRANSPORTES LARRAZABAL CISA","students":49,"ride_avg_m":1398,"color":"#c8a7ff","source":"Flujo exploratorio desde parada aproximada hacia escuela por traza de colectivo"}},{"type":"Feature","geometry":{"type":"LineString","coordinates":[[-58.530715,-34.552152],[-58.531294,-34.553161],[-58.531895,-34.554169],[-58.532109,-34.554555],[-58.532474,-34.555242],[-58.532646,-34.555392],[-58.533633,-34.556208],[-58.53462,-34.557002],[-58.535328,-34.557581]]},"properties":{"flow_id":"flow_15","school_id":"pizarnik","school_name":"Escuela Pizarnik","linea":"161","linea_label":"Linea 161","recorrido":"A","sentido":"IDA","empresa":"TRANSPORTES LARRAZABAL CISA","students":8,"ride_avg_m":748,"color":"#c8a7ff","source":"Flujo exploratorio desde parada aproximada hacia escuela por traza de colectivo"}},{"type":"Feature","geometry":{"type":"LineString","coordinates":[[-58.551979,-34.541423],[-58.55067,-34.542475],[-58.549383,-34.543526],[-58.55022,-34.544213],[-58.550992,-34.544857],[-58.55185,-34.545608],[-58.55273,-34.546337],[-58.55361,-34.547088],[-58.55449,-34.547839],[-58.555369,-34.548569],[-58.556206,-34.549298],[-58.554993,-34.550323],[-58.554962,-34.55035],[-58.553631,-34.55138],[-58.552387,-34.552431],[-58.551292,-34.553332],[-58.550413,-34.552603],[-58.549533,-34.551852],[-58.548245,-34.552882],[-58.546958,-34.553933],[-58.545864,-34.554813],[-58.545113,-34.555178],[-58.544276,-34.555607],[-58.543139,-34.556487],[-58.542109,-34.557302]]},"properties":{"flow_id":"flow_16","school_id":"pizarnik","school_name":"Escuela Pizarnik","linea":"78","linea_label":"Linea 78","recorrido":"A","sentido":"VUELTA","empresa":"LOS CONSTITUYENTES SAT","students":1,"ride_avg_m":3009,"color":"#c8a7ff","source":"Flujo exploratorio desde parada aproximada hacia escuela por traza de colectivo"}},{"type":"Feature","geometry":{"type":"LineString","coordinates":[[-58.531294,-34.553161],[-58.531895,-34.554169],[-58.532109,-34.554555],[-58.532474,-34.555242],[-58.532646,-34.555392],[-58.533633,-34.556208],[-58.53462,-34.557002],[-58.535328,-34.557581],[-58.535864,-34.558032]]},"properties":{"flow_id":"flow_17","school_id":"pizarnik","school_name":"Escuela Pizarnik","linea":"161","linea_label":"Linea 161","recorrido":"A","sentido":"VUELTA","empresa":"TRANSPORTES LARRAZABAL CISA","students":7,"ride_avg_m":694,"color":"#c8a7ff","source":"Flujo exploratorio desde parada aproximada hacia escuela por traza de colectivo"}},{"type":"Feature","geometry":{"type":"LineString","coordinates":[[-58.55921,-34.545457],[-58.557944,-34.546487],[-58.556635,-34.547539],[-58.555369,-34.548569],[-58.554103,-34.549599],[-58.552794,-34.55065],[-58.551528,-34.55168],[-58.550413,-34.552603],[-58.549125,-34.553611],[-58.547816,-34.554684],[-58.5467,-34.555542],[-58.545971,-34.55595],[-58.545177,-34.556401],[-58.544104,-34.557281],[-58.543053,-34.558117],[-58.54198,-34.558976],[-58.542881,-34.559727]]},"properties":{"flow_id":"flow_18","school_id":"pizarnik","school_name":"Escuela Pizarnik","linea":"78","linea_label":"Linea 78","recorrido":"B","sentido":"IDA","empresa":"LOS CONSTITUYENTES SAT","students":1,"ride_avg_m":2299,"color":"#c8a7ff","source":"Flujo exploratorio desde parada aproximada hacia escuela por traza de colectivo"}},{"type":"Feature","geometry":{"type":"LineString","coordinates":[[-58.53389,-34.573052],[-58.534663,-34.573696],[-58.535693,-34.572859],[-58.536766,-34.572001],[-58.537817,-34.571142],[-58.538203,-34.570842],[-58.538868,-34.570284],[-58.539898,-34.569447],[-58.540027,-34.569361],[-58.541057,-34.568503],[-58.542109,-34.567666],[-58.543117,-34.566786],[-58.542452,-34.566207],[-58.541851,-34.565692],[-58.541443,-34.56537],[-58.540392,-34.56449],[-58.540993,-34.563718],[-58.541551,-34.56301],[-58.541508,-34.562731],[-58.54125,-34.562538],[-58.540928,-34.562237],[-58.540349,-34.561765],[-58.540156,-34.561594],[-58.539426,-34.560993],[-58.539362,-34.56095],[-58.538954,-34.560606],[-58.538697,-34.56037],[-58.538482,-34.56022],[-58.538289,-34.560049],[-58.537838,-34.559684],[-58.537195,-34.559126],[-58.536508,-34.558568],[-58.535864,-34.558032]]},"properties":{"flow_id":"flow_19","school_id":"pizarnik","school_name":"Escuela Pizarnik","linea":"161","linea_label":"Linea 161","recorrido":"A","sentido":"VUELTA","empresa":"TRANSPORTES LARRAZABAL CISA","students":1,"ride_avg_m":2511,"color":"#c8a7ff","source":"Flujo exploratorio desde parada aproximada hacia escuela por traza de colectivo"}},{"type":"Feature","geometry":{"type":"LineString","coordinates":[[-58.540027,-34.569361],[-58.541057,-34.568503],[-58.542109,-34.567666],[-58.543117,-34.566786],[-58.542452,-34.566207],[-58.541851,-34.565692],[-58.541443,-34.56537],[-58.540392,-34.56449],[-58.540993,-34.563718],[-58.541551,-34.56301],[-58.541508,-34.562731],[-58.54125,-34.562538],[-58.540928,-34.562237],[-58.540349,-34.561765],[-58.540156,-34.561594],[-58.539426,-34.560993],[-58.539362,-34.56095],[-58.538954,-34.560606],[-58.538697,-34.56037],[-58.538482,-34.56022],[-58.538289,-34.560049],[-58.537838,-34.559684],[-58.537195,-34.559126],[-58.536508,-34.558568],[-58.535864,-34.558032]]},"properties":{"flow_id":"flow_20","school_id":"pizarnik","school_name":"Escuela Pizarnik","linea":"161","linea_label":"Linea 161","recorrido":"A","sentido":"VUELTA","empresa":"TRANSPORTES LARRAZABAL CISA","students":2,"ride_avg_m":1722,"color":"#c8a7ff","source":"Flujo exploratorio desde parada aproximada hacia escuela por traza de colectivo"}},{"type":"Feature","geometry":{"type":"LineString","coordinates":[[-58.522003,-34.542711],[-58.523247,-34.543333],[-58.523848,-34.543633],[-58.525651,-34.544535],[-58.526659,-34.545007],[-58.527024,-34.545672],[-58.527474,-34.546444],[-58.527753,-34.546959],[-58.528032,-34.547431],[-58.528311,-34.547925],[-58.52859,-34.54844],[-58.528976,-34.549105],[-58.529556,-34.550092],[-58.529599,-34.5502],[-58.530135,-34.551144],[-58.530715,-34.552152],[-58.531294,-34.553161],[-58.531895,-34.554169],[-58.532109,-34.554555],[-58.532474,-34.555242],[-58.532646,-34.555392],[-58.533633,-34.556208],[-58.53462,-34.557002],[-58.535328,-34.557581],[-58.535864,-34.558032]]},"properties":{"flow_id":"flow_21","school_id":"pizarnik","school_name":"Escuela Pizarnik","linea":"161","linea_label":"Linea 161","recorrido":"A","sentido":"VUELTA","empresa":"TRANSPORTES LARRAZABAL CISA","students":1,"ride_avg_m":2193,"color":"#c8a7ff","source":"Flujo exploratorio desde parada aproximada hacia escuela por traza de colectivo"}}]}