{"type":"FeatureCollection","metadata":{"generated":"2026-05-07T23:04:55.980Z","eligible_students_farther_than_m":1200,"assigned_students":111,"total_eligible_students":178,"assumptions":{"WALK_TO_BUS_M":750,"SCHOOL_STOP_M":650,"MIN_BUS_TRIP_M":1200,"STOP_SPACING_VERTICES":8}},"features":[{"type":"Feature","geometry":{"type":"LineString","coordinates":[[-58.611622794204195,-34.567734794492324],[-58.612211,-34.568417]]},"properties":{"school_id":"walsh","school_name":"Escuela Walsh","linea":"169","walk_m":93,"source":"Asignacion exploratoria estudiante-parada aproximada"}},{"type":"Feature","geometry":{"type":"LineString","coordinates":[[-58.548681520185966,-34.582140835162946],[-58.547966,-34.584939]]},"properties":{"school_id":"walsh","school_name":"Escuela Walsh","linea":"169","walk_m":318,"source":"Asignacion exploratoria estudiante-parada aproximada"}},{"type":"Feature","geometry":{"type":"LineString","coordinates":[[-58.55293103309091,-34.58894756778067],[-58.547966,-34.584939]]},"properties":{"school_id":"walsh","school_name":"Escuela Walsh","linea":"169","walk_m":637,"source":"Asignacion exploratoria estudiante-parada aproximada"}},{"type":"Feature","geometry":{"type":"LineString","coordinates":[[-58.55085547873683,-34.58368391413938],[-58.547966,-34.584939]]},"properties":{"school_id":"walsh","school_name":"Escuela Walsh","linea":"169","walk_m":299,"source":"Asignacion exploratoria estudiante-parada aproximada"}},{"type":"Feature","geometry":{"type":"LineString","coordinates":[[-58.575140775846776,-34.56504195420663],[-58.57275,-34.569147]]},"properties":{"school_id":"walsh","school_name":"Escuela Walsh","linea":"169","walk_m":506,"source":"Asignacion exploratoria estudiante-parada aproximada"}},{"type":"Feature","geometry":{"type":"LineString","coordinates":[[-58.55734984595471,-34.579335017428555],[-58.558369,-34.576587]]},"properties":{"school_id":"walsh","school_name":"Escuela Walsh","linea":"169","walk_m":319,"source":"Asignacion exploratoria estudiante-parada aproximada"}},{"type":"Feature","geometry":{"type":"LineString","coordinates":[[-58.61064474990096,-34.567053793862165],[-58.612211,-34.568417]]},"properties":{"school_id":"walsh","school_name":"Escuela Walsh","linea":"169","walk_m":209,"source":"Asignacion exploratoria estudiante-parada aproximada"}},{"type":"Feature","geometry":{"type":"LineString","coordinates":[[-58.59048900867003,-34.58140994473296],[-58.592298,-34.58347]]},"properties":{"school_id":"walsh","school_name":"Escuela Walsh","linea":"169","walk_m":283,"source":"Asignacion exploratoria estudiante-parada aproximada"}},{"type":"Feature","geometry":{"type":"LineString","coordinates":[[-58.54892874055934,-34.582118139756986],[-58.547966,-34.584939]]},"properties":{"school_id":"walsh","school_name":"Escuela Walsh","linea":"169","walk_m":326,"source":"Asignacion exploratoria estudiante-parada aproximada"}},{"type":"Feature","geometry":{"type":"LineString","coordinates":[[-58.548967132148135,-34.58215816910001],[-58.547966,-34.584939]]},"properties":{"school_id":"walsh","school_name":"Escuela Walsh","linea":"169","walk_m":323,"source":"Asignacion exploratoria estudiante-parada aproximada"}},{"type":"Feature","geometry":{"type":"LineString","coordinates":[[-58.56753286891473,-34.56634992254515],[-58.567708,-34.569876]]},"properties":{"school_id":"walsh","school_name":"Escuela Walsh","linea":"169","walk_m":392,"source":"Asignacion exploratoria estudiante-parada aproximada"}},{"type":"Feature","geometry":{"type":"LineString","coordinates":[[-58.57666238007476,-34.56446424096949],[-58.57275,-34.569147]]},"properties":{"school_id":"walsh","school_name":"Escuela Walsh","linea":"169","walk_m":632,"source":"Asignacion exploratoria estudiante-parada aproximada"}},{"type":"Feature","geometry":{"type":"LineString","coordinates":[[-58.58736843448093,-34.582482451872536],[-58.589122,-34.578202]]},"properties":{"school_id":"walsh","school_name":"Escuela Walsh","linea":"169","walk_m":502,"source":"Asignacion exploratoria estudiante-parada aproximada"}},{"type":"Feature","geometry":{"type":"LineString","coordinates":[[-58.57595569266452,-34.56480568508644],[-58.57275,-34.569147]]},"properties":{"school_id":"walsh","school_name":"Escuela Walsh","linea":"169","walk_m":565,"source":"Asignacion exploratoria estudiante-parada aproximada"}},{"type":"Feature","geometry":{"type":"LineString","coordinates":[[-58.59749764778084,-34.570965795416946],[-58.601825,-34.576228]]},"properties":{"school_id":"walsh","school_name":"Escuela Walsh","linea":"169","walk_m":707,"source":"Asignacion exploratoria estudiante-parada aproximada"}},{"type":"Feature","geometry":{"type":"LineString","coordinates":[[-58.53539904047333,-34.576176053252574],[-58.536994,-34.575651]]},"properties":{"school_id":"walsh","school_name":"Escuela Walsh","linea":"169","walk_m":157,"source":"Asignacion exploratoria estudiante-parada aproximada"}},{"type":"Feature","geometry":{"type":"LineString","coordinates":[[-58.558368410044025,-34.58068823521318],[-58.554146,-34.581356]]},"properties":{"school_id":"walsh","school_name":"Escuela Walsh","linea":"169","walk_m":394,"source":"Asignacion exploratoria estudiante-parada aproximada"}},{"type":"Feature","geometry":{"type":"LineString","coordinates":[[-58.57664636970871,-34.56454829769683],[-58.57275,-34.569147]]},"properties":{"school_id":"walsh","school_name":"Escuela Walsh","linea":"169","walk_m":624,"source":"Asignacion exploratoria estudiante-parada aproximada"}},{"type":"Feature","geometry":{"type":"LineString","coordinates":[[-58.565702719962744,-34.5643619290537],[-58.567708,-34.569876]]},"properties":{"school_id":"walsh","school_name":"Escuela Walsh","linea":"169","walk_m":640,"source":"Asignacion exploratoria estudiante-parada aproximada"}},{"type":"Feature","geometry":{"type":"LineString","coordinates":[[-58.556880018484364,-34.57395128838282],[-58.558369,-34.576587]]},"properties":{"school_id":"walsh","school_name":"Escuela Walsh","linea":"169","walk_m":323,"source":"Asignacion exploratoria estudiante-parada aproximada"}},{"type":"Feature","geometry":{"type":"LineString","coordinates":[[-58.54634057190315,-34.581687171543834],[-58.547966,-34.584939]]},"properties":{"school_id":"walsh","school_name":"Escuela Walsh","linea":"169","walk_m":391,"source":"Asignacion exploratoria estudiante-parada aproximada"}},{"type":"Feature","geometry":{"type":"LineString","coordinates":[[-58.5751280240902,-34.56503535960441],[-58.57275,-34.569147]]},"properties":{"school_id":"walsh","school_name":"Escuela Walsh","linea":"169","walk_m":506,"source":"Asignacion exploratoria estudiante-parada aproximada"}},{"type":"Feature","geometry":{"type":"LineString","coordinates":[[-58.57527968325565,-34.56491047080541],[-58.57275,-34.569147]]},"properties":{"school_id":"walsh","school_name":"Escuela Walsh","linea":"169","walk_m":525,"source":"Asignacion exploratoria estudiante-parada aproximada"}},{"type":"Feature","geometry":{"type":"LineString","coordinates":[[-58.5754072148266,-34.564884925346135],[-58.57275,-34.569147]]},"properties":{"school_id":"walsh","school_name":"Escuela Walsh","linea":"169","walk_m":533,"source":"Asignacion exploratoria estudiante-parada aproximada"}},{"type":"Feature","geometry":{"type":"LineString","coordinates":[[-58.58501620386082,-34.586235828997],[-58.591504,-34.587686]]},"properties":{"school_id":"walsh","school_name":"Escuela Walsh","linea":"169","walk_m":615,"source":"Asignacion exploratoria estudiante-parada aproximada"}},{"type":"Feature","geometry":{"type":"LineString","coordinates":[[-58.584061461884296,-34.586287391345756],[-58.591504,-34.587686]]},"properties":{"school_id":"walsh","school_name":"Escuela Walsh","linea":"169","walk_m":699,"source":"Asignacion exploratoria estudiante-parada aproximada"}},{"type":"Feature","geometry":{"type":"LineString","coordinates":[[-58.55470830852421,-34.587615380793004],[-58.554146,-34.581356]]},"properties":{"school_id":"walsh","school_name":"Escuela Walsh","linea":"169","walk_m":698,"source":"Asignacion exploratoria estudiante-parada aproximada"}},{"type":"Feature","geometry":{"type":"LineString","coordinates":[[-58.57724771579556,-34.56497977237998],[-58.57275,-34.569147]]},"properties":{"school_id":"walsh","school_name":"Escuela Walsh","linea":"169","walk_m":620,"source":"Asignacion exploratoria estudiante-parada aproximada"}},{"type":"Feature","geometry":{"type":"LineString","coordinates":[[-58.573418621269184,-34.56526867342231],[-58.57275,-34.569147]]},"properties":{"school_id":"walsh","school_name":"Escuela Walsh","linea":"169","walk_m":436,"source":"Asignacion exploratoria estudiante-parada aproximada"}},{"type":"Feature","geometry":{"type":"LineString","coordinates":[[-58.6060531006904,-34.566893123453404],[-58.612211,-34.568417]]},"properties":{"school_id":"walsh","school_name":"Escuela Walsh","linea":"169","walk_m":589,"source":"Asignacion exploratoria estudiante-parada aproximada"}},{"type":"Feature","geometry":{"type":"LineString","coordinates":[[-58.60608756868255,-34.56691582998035],[-58.612211,-34.568417]]},"properties":{"school_id":"walsh","school_name":"Escuela Walsh","linea":"169","walk_m":585,"source":"Asignacion exploratoria estudiante-parada aproximada"}},{"type":"Feature","geometry":{"type":"LineString","coordinates":[[-58.565943878889634,-34.56710827166082],[-58.567708,-34.569876]]},"properties":{"school_id":"walsh","school_name":"Escuela Walsh","linea":"169","walk_m":348,"source":"Asignacion exploratoria estudiante-parada aproximada"}},{"type":"Feature","geometry":{"type":"LineString","coordinates":[[-58.55624650140842,-34.57964351222864],[-58.554146,-34.581356]]},"properties":{"school_id":"walsh","school_name":"Escuela Walsh","linea":"169","walk_m":271,"source":"Asignacion exploratoria estudiante-parada aproximada"}},{"type":"Feature","geometry":{"type":"LineString","coordinates":[[-58.552472616445996,-34.57529860709865],[-58.558369,-34.576587]]},"properties":{"school_id":"walsh","school_name":"Escuela Walsh","linea":"169","walk_m":559,"source":"Asignacion exploratoria estudiante-parada aproximada"}},{"type":"Feature","geometry":{"type":"LineString","coordinates":[[-58.561034835591244,-34.58053526011298],[-58.558369,-34.576587]]},"properties":{"school_id":"walsh","school_name":"Escuela Walsh","linea":"169","walk_m":502,"source":"Asignacion exploratoria estudiante-parada aproximada"}},{"type":"Feature","geometry":{"type":"LineString","coordinates":[[-58.550164800000005,-34.54642410000001],[-58.550606,-34.546638]]},"properties":{"school_id":"pizarnik","school_name":"Escuela Pizarnik","linea":"78","walk_m":47,"source":"Asignacion exploratoria estudiante-parada aproximada"}},{"type":"Feature","geometry":{"type":"LineString","coordinates":[[-58.52716174744062,-34.53989045274166],[-58.527661,-34.54174]]},"properties":{"school_id":"pizarnik","school_name":"Escuela Pizarnik","linea":"161","walk_m":211,"source":"Asignacion exploratoria estudiante-parada aproximada"}},{"type":"Feature","geometry":{"type":"LineString","coordinates":[[-58.5319298196876,-34.547048809290146],[-58.528032,-34.547431]]},"properties":{"school_id":"pizarnik","school_name":"Escuela Pizarnik","linea":"161","walk_m":360,"source":"Asignacion exploratoria estudiante-parada aproximada"}},{"type":"Feature","geometry":{"type":"LineString","coordinates":[[-58.52682434531391,-34.54502329522764],[-58.528032,-34.547431]]},"properties":{"school_id":"pizarnik","school_name":"Escuela Pizarnik","linea":"161","walk_m":290,"source":"Asignacion exploratoria estudiante-parada aproximada"}},{"type":"Feature","geometry":{"type":"LineString","coordinates":[[-58.52839056711553,-34.54433209314917],[-58.528032,-34.547431]]},"properties":{"school_id":"pizarnik","school_name":"Escuela Pizarnik","linea":"161","walk_m":346,"source":"Asignacion exploratoria estudiante-parada aproximada"}},{"type":"Feature","geometry":{"type":"LineString","coordinates":[[-58.53047803617654,-34.54477422920691],[-58.528032,-34.547431]]},"properties":{"school_id":"pizarnik","school_name":"Escuela Pizarnik","linea":"161","walk_m":371,"source":"Asignacion exploratoria estudiante-parada aproximada"}},{"type":"Feature","geometry":{"type":"LineString","coordinates":[[-58.52751026711182,-34.55110664921689],[-58.530715,-34.552152]]},"properties":{"school_id":"pizarnik","school_name":"Escuela Pizarnik","linea":"161","walk_m":316,"source":"Asignacion exploratoria estudiante-parada aproximada"}},{"type":"Feature","geometry":{"type":"LineString","coordinates":[[-58.532257701290526,-34.54731082524446],[-58.528032,-34.547431]]},"properties":{"school_id":"pizarnik","school_name":"Escuela Pizarnik","linea":"161","walk_m":387,"source":"Asignacion exploratoria estudiante-parada aproximada"}},{"type":"Feature","geometry":{"type":"LineString","coordinates":[[-58.52733556389508,-34.551075874127655],[-58.530715,-34.552152]]},"properties":{"school_id":"pizarnik","school_name":"Escuela Pizarnik","linea":"161","walk_m":332,"source":"Asignacion exploratoria estudiante-parada aproximada"}},{"type":"Feature","geometry":{"type":"LineString","coordinates":[[-58.53201112022643,-34.546745272065706],[-58.528032,-34.547431]]},"properties":{"school_id":"pizarnik","school_name":"Escuela Pizarnik","linea":"161","walk_m":372,"source":"Asignacion exploratoria estudiante-parada aproximada"}},{"type":"Feature","geometry":{"type":"LineString","coordinates":[[-58.53191248780077,-34.54679526587173],[-58.528032,-34.547431]]},"properties":{"school_id":"pizarnik","school_name":"Escuela Pizarnik","linea":"161","walk_m":362,"source":"Asignacion exploratoria estudiante-parada aproximada"}},{"type":"Feature","geometry":{"type":"LineString","coordinates":[[-58.55416737722698,-34.53975365499421],[-58.551979,-34.541423]]},"properties":{"school_id":"pizarnik","school_name":"Escuela Pizarnik","linea":"78","walk_m":273,"source":"Asignacion exploratoria estudiante-parada aproximada"}},{"type":"Feature","geometry":{"type":"LineString","coordinates":[[-58.52416035850014,-34.55107743635332],[-58.528032,-34.547431]]},"properties":{"school_id":"pizarnik","school_name":"Escuela Pizarnik","linea":"161","walk_m":539,"source":"Asignacion exploratoria estudiante-parada aproximada"}},{"type":"Feature","geometry":{"type":"LineString","coordinates":[[-58.52425519737095,-34.55231470980923],[-58.531294,-34.553161]]},"properties":{"school_id":"pizarnik","school_name":"Escuela Pizarnik","linea":"161","walk_m":651,"source":"Asignacion exploratoria estudiante-parada aproximada"}},{"type":"Feature","geometry":{"type":"LineString","coordinates":[[-58.533520180580275,-34.54848503540453],[-58.530715,-34.552152]]},"properties":{"school_id":"pizarnik","school_name":"Escuela Pizarnik","linea":"161","walk_m":482,"source":"Asignacion exploratoria estudiante-parada aproximada"}},{"type":"Feature","geometry":{"type":"LineString","coordinates":[[-58.525560624408435,-34.55311977750584],[-58.531294,-34.553161]]},"properties":{"school_id":"pizarnik","school_name":"Escuela Pizarnik","linea":"161","walk_m":525,"source":"Asignacion exploratoria estudiante-parada aproximada"}},{"type":"Feature","geometry":{"type":"LineString","coordinates":[[-58.53177503838917,-34.54708686463876],[-58.528032,-34.547431]]},"properties":{"school_id":"pizarnik","school_name":"Escuela Pizarnik","linea":"161","walk_m":345,"source":"Asignacion exploratoria estudiante-parada aproximada"}},{"type":"Feature","geometry":{"type":"LineString","coordinates":[[-58.56628018364891,-34.543757509933876],[-58.55921,-34.545457]]},"properties":{"school_id":"pizarnik","school_name":"Escuela Pizarnik","linea":"78","walk_m":675,"source":"Asignacion exploratoria estudiante-parada aproximada"}},{"type":"Feature","geometry":{"type":"LineString","coordinates":[[-58.53093796125933,-34.54939375758232],[-58.530715,-34.552152]]},"properties":{"school_id":"pizarnik","school_name":"Escuela Pizarnik","linea":"161","walk_m":307,"source":"Asignacion exploratoria estudiante-parada aproximada"}},{"type":"Feature","geometry":{"type":"LineString","coordinates":[[-58.535590950563446,-34.54666468017553],[-58.528032,-34.547431]]},"properties":{"school_id":"pizarnik","school_name":"Escuela Pizarnik","linea":"161","walk_m":698,"source":"Asignacion exploratoria estudiante-parada aproximada"}},{"type":"Feature","geometry":{"type":"LineString","coordinates":[[-58.53060898203095,-34.544771811461146],[-58.528032,-34.547431]]},"properties":{"school_id":"pizarnik","school_name":"Escuela Pizarnik","linea":"161","walk_m":378,"source":"Asignacion exploratoria estudiante-parada aproximada"}},{"type":"Feature","geometry":{"type":"LineString","coordinates":[[-58.533594808661526,-34.544771811461146],[-58.528032,-34.547431]]},"properties":{"school_id":"pizarnik","school_name":"Escuela Pizarnik","linea":"161","walk_m":589,"source":"Asignacion exploratoria estudiante-parada aproximada"}},{"type":"Feature","geometry":{"type":"LineString","coordinates":[[-58.524792025851866,-34.54853371085446],[-58.528032,-34.547431]]},"properties":{"school_id":"pizarnik","school_name":"Escuela Pizarnik","linea":"161","walk_m":321,"source":"Asignacion exploratoria estudiante-parada aproximada"}},{"type":"Feature","geometry":{"type":"LineString","coordinates":[[-58.53270167368296,-34.54769310340648],[-58.528032,-34.547431]]},"properties":{"school_id":"pizarnik","school_name":"Escuela Pizarnik","linea":"161","walk_m":429,"source":"Asignacion exploratoria estudiante-parada aproximada"}},{"type":"Feature","geometry":{"type":"LineString","coordinates":[[-58.52430443631532,-34.55324666820558],[-58.531294,-34.553161]]},"properties":{"school_id":"pizarnik","school_name":"Escuela Pizarnik","linea":"161","walk_m":640,"source":"Asignacion exploratoria estudiante-parada aproximada"}},{"type":"Feature","geometry":{"type":"LineString","coordinates":[[-58.53187984424379,-34.547060850842236],[-58.528032,-34.547431]]},"properties":{"school_id":"pizarnik","school_name":"Escuela Pizarnik","linea":"161","walk_m":355,"source":"Asignacion exploratoria estudiante-parada aproximada"}},{"type":"Feature","geometry":{"type":"LineString","coordinates":[[-58.5340061317275,-34.54552040781607],[-58.528032,-34.547431]]},"properties":{"school_id":"pizarnik","school_name":"Escuela Pizarnik","linea":"161","walk_m":587,"source":"Asignacion exploratoria estudiante-parada aproximada"}},{"type":"Feature","geometry":{"type":"LineString","coordinates":[[-58.52762852541354,-34.55098971966013],[-58.530715,-34.552152]]},"properties":{"school_id":"pizarnik","school_name":"Escuela Pizarnik","linea":"161","walk_m":311,"source":"Asignacion exploratoria estudiante-parada aproximada"}},{"type":"Feature","geometry":{"type":"LineString","coordinates":[[-58.52956317807993,-34.54715629044137],[-58.528032,-34.547431]]},"properties":{"school_id":"pizarnik","school_name":"Escuela Pizarnik","linea":"161","walk_m":144,"source":"Asignacion exploratoria estudiante-parada aproximada"}},{"type":"Feature","geometry":{"type":"LineString","coordinates":[[-58.523664901253525,-34.55200538655008],[-58.528032,-34.547431]]},"properties":{"school_id":"pizarnik","school_name":"Escuela Pizarnik","linea":"161","walk_m":647,"source":"Asignacion exploratoria estudiante-parada aproximada"}},{"type":"Feature","geometry":{"type":"LineString","coordinates":[[-58.5260510472433,-34.551244587701795],[-58.528032,-34.547431]]},"properties":{"school_id":"pizarnik","school_name":"Escuela Pizarnik","linea":"161","walk_m":461,"source":"Asignacion exploratoria estudiante-parada aproximada"}},{"type":"Feature","geometry":{"type":"LineString","coordinates":[[-58.52649111972505,-34.545172474211334],[-58.528032,-34.547431]]},"properties":{"school_id":"pizarnik","school_name":"Escuela Pizarnik","linea":"161","walk_m":288,"source":"Asignacion exploratoria estudiante-parada aproximada"}},{"type":"Feature","geometry":{"type":"LineString","coordinates":[[-58.527485010970146,-34.55089621136918],[-58.530715,-34.552152]]},"properties":{"school_id":"pizarnik","school_name":"Escuela Pizarnik","linea":"161","walk_m":327,"source":"Asignacion exploratoria estudiante-parada aproximada"}},{"type":"Feature","geometry":{"type":"LineString","coordinates":[[-58.52811094751753,-34.54674370313838],[-58.528032,-34.547431]]},"properties":{"school_id":"pizarnik","school_name":"Escuela Pizarnik","linea":"161","walk_m":77,"source":"Asignacion exploratoria estudiante-parada aproximada"}},{"type":"Feature","geometry":{"type":"LineString","coordinates":[[-58.53303475332486,-34.54617832488667],[-58.528032,-34.547431]]},"properties":{"school_id":"pizarnik","school_name":"Escuela Pizarnik","linea":"161","walk_m":479,"source":"Asignacion exploratoria estudiante-parada aproximada"}},{"type":"Feature","geometry":{"type":"LineString","coordinates":[[-58.527853560321944,-34.5460645037623],[-58.528032,-34.547431]]},"properties":{"school_id":"pizarnik","school_name":"Escuela Pizarnik","linea":"161","walk_m":153,"source":"Asignacion exploratoria estudiante-parada aproximada"}},{"type":"Feature","geometry":{"type":"LineString","coordinates":[[-58.53219186626509,-34.54696938427645],[-58.528032,-34.547431]]},"properties":{"school_id":"pizarnik","school_name":"Escuela Pizarnik","linea":"161","walk_m":384,"source":"Asignacion exploratoria estudiante-parada aproximada"}},{"type":"Feature","geometry":{"type":"LineString","coordinates":[[-58.523066464108794,-34.55003435325093],[-58.528032,-34.547431]]},"properties":{"school_id":"pizarnik","school_name":"Escuela Pizarnik","linea":"161","walk_m":539,"source":"Asignacion exploratoria estudiante-parada aproximada"}},{"type":"Feature","geometry":{"type":"LineString","coordinates":[[-58.528021856673114,-34.54592973348221],[-58.528032,-34.547431]]},"properties":{"school_id":"pizarnik","school_name":"Escuela Pizarnik","linea":"161","walk_m":167,"source":"Asignacion exploratoria estudiante-parada aproximada"}},{"type":"Feature","geometry":{"type":"LineString","coordinates":[[-58.5232067110681,-34.546534272746634],[-58.528032,-34.547431]]},"properties":{"school_id":"pizarnik","school_name":"Escuela Pizarnik","linea":"161","walk_m":453,"source":"Asignacion exploratoria estudiante-parada aproximada"}},{"type":"Feature","geometry":{"type":"LineString","coordinates":[[-58.52522626728302,-34.55085833319296],[-58.528032,-34.547431]]},"properties":{"school_id":"pizarnik","school_name":"Escuela Pizarnik","linea":"161","walk_m":460,"source":"Asignacion exploratoria estudiante-parada aproximada"}},{"type":"Feature","geometry":{"type":"LineString","coordinates":[[-58.531855186137456,-34.547040540926986],[-58.528032,-34.547431]]},"properties":{"school_id":"pizarnik","school_name":"Escuela Pizarnik","linea":"161","walk_m":353,"source":"Asignacion exploratoria estudiante-parada aproximada"}},{"type":"Feature","geometry":{"type":"LineString","coordinates":[[-58.52681734531962,-34.543080793918946],[-58.527661,-34.54174]]},"properties":{"school_id":"pizarnik","school_name":"Escuela Pizarnik","linea":"161","walk_m":168,"source":"Asignacion exploratoria estudiante-parada aproximada"}},{"type":"Feature","geometry":{"type":"LineString","coordinates":[[-58.52434774112354,-34.55234516612938],[-58.531294,-34.553161]]},"properties":{"school_id":"pizarnik","school_name":"Escuela Pizarnik","linea":"161","walk_m":643,"source":"Asignacion exploratoria estudiante-parada aproximada"}},{"type":"Feature","geometry":{"type":"LineString","coordinates":[[-58.52895311669053,-34.544021338774876],[-58.528032,-34.547431]]},"properties":{"school_id":"pizarnik","school_name":"Escuela Pizarnik","linea":"161","walk_m":388,"source":"Asignacion exploratoria estudiante-parada aproximada"}},{"type":"Feature","geometry":{"type":"LineString","coordinates":[[-58.53402130594707,-34.546983516907694],[-58.528032,-34.547431]]},"properties":{"school_id":"pizarnik","school_name":"Escuela Pizarnik","linea":"161","walk_m":551,"source":"Asignacion exploratoria estudiante-parada aproximada"}},{"type":"Feature","geometry":{"type":"LineString","coordinates":[[-58.52643265494668,-34.545306677452615],[-58.528032,-34.547431]]},"properties":{"school_id":"pizarnik","school_name":"Escuela Pizarnik","linea":"161","walk_m":278,"source":"Asignacion exploratoria estudiante-parada aproximada"}},{"type":"Feature","geometry":{"type":"LineString","coordinates":[[-58.52641139502726,-34.545428921989235],[-58.528032,-34.547431]]},"properties":{"school_id":"pizarnik","school_name":"Escuela Pizarnik","linea":"161","walk_m":268,"source":"Asignacion exploratoria estudiante-parada aproximada"}},{"type":"Feature","geometry":{"type":"LineString","coordinates":[[-58.529221510694995,-34.545578995166785],[-58.528032,-34.547431]]},"properties":{"school_id":"pizarnik","school_name":"Escuela Pizarnik","linea":"161","walk_m":233,"source":"Asignacion exploratoria estudiante-parada aproximada"}},{"type":"Feature","geometry":{"type":"LineString","coordinates":[[-58.524346792734896,-34.552351414936254],[-58.531294,-34.553161]]},"properties":{"school_id":"pizarnik","school_name":"Escuela Pizarnik","linea":"161","walk_m":643,"source":"Asignacion exploratoria estudiante-parada aproximada"}},{"type":"Feature","geometry":{"type":"LineString","coordinates":[[-58.52737167851967,-34.55095245159343],[-58.530715,-34.552152]]},"properties":{"school_id":"pizarnik","school_name":"Escuela Pizarnik","linea":"161","walk_m":334,"source":"Asignacion exploratoria estudiante-parada aproximada"}},{"type":"Feature","geometry":{"type":"LineString","coordinates":[[-58.52614256675388,-34.551243025479415],[-58.528032,-34.547431]]},"properties":{"school_id":"pizarnik","school_name":"Escuela Pizarnik","linea":"161","walk_m":458,"source":"Asignacion exploratoria estudiante-parada aproximada"}},{"type":"Feature","geometry":{"type":"LineString","coordinates":[[-58.52412329620075,-34.55112658039132],[-58.528032,-34.547431]]},"properties":{"school_id":"pizarnik","school_name":"Escuela Pizarnik","linea":"161","walk_m":545,"source":"Asignacion exploratoria estudiante-parada aproximada"}},{"type":"Feature","geometry":{"type":"LineString","coordinates":[[-58.530643619562966,-34.546198456231274],[-58.528032,-34.547431]]},"properties":{"school_id":"pizarnik","school_name":"Escuela Pizarnik","linea":"161","walk_m":276,"source":"Asignacion exploratoria estudiante-parada aproximada"}},{"type":"Feature","geometry":{"type":"LineString","coordinates":[[-58.53180379532462,-34.54612007290709],[-58.528032,-34.547431]]},"properties":{"school_id":"pizarnik","school_name":"Escuela Pizarnik","linea":"161","walk_m":375,"source":"Asignacion exploratoria estudiante-parada aproximada"}},{"type":"Feature","geometry":{"type":"LineString","coordinates":[[-58.530569622082176,-34.54893094426747],[-58.528032,-34.547431]]},"properties":{"school_id":"pizarnik","school_name":"Escuela Pizarnik","linea":"161","walk_m":286,"source":"Asignacion exploratoria estudiante-parada aproximada"}},{"type":"Feature","geometry":{"type":"LineString","coordinates":[[-58.53257398487644,-34.57034002525922],[-58.53389,-34.573052]]},"properties":{"school_id":"pizarnik","school_name":"Escuela Pizarnik","linea":"161","walk_m":325,"source":"Asignacion exploratoria estudiante-parada aproximada"}},{"type":"Feature","geometry":{"type":"LineString","coordinates":[[-58.52535272737478,-34.547749090317055],[-58.528032,-34.547431]]},"properties":{"school_id":"pizarnik","school_name":"Escuela Pizarnik","linea":"161","walk_m":248,"source":"Asignacion exploratoria estudiante-parada aproximada"}},{"type":"Feature","geometry":{"type":"LineString","coordinates":[[-58.52301527805192,-34.550124332598834],[-58.528032,-34.547431]]},"properties":{"school_id":"pizarnik","school_name":"Escuela Pizarnik","linea":"161","walk_m":548,"source":"Asignacion exploratoria estudiante-parada aproximada"}},{"type":"Feature","geometry":{"type":"LineString","coordinates":[[-58.534793100827216,-34.548331476157344],[-58.531294,-34.553161]]},"properties":{"school_id":"pizarnik","school_name":"Escuela Pizarnik","linea":"161","walk_m":625,"source":"Asignacion exploratoria estudiante-parada aproximada"}},{"type":"Feature","geometry":{"type":"LineString","coordinates":[[-58.539073554899566,-34.57155620285105],[-58.540027,-34.569361]]},"properties":{"school_id":"pizarnik","school_name":"Escuela Pizarnik","linea":"161","walk_m":259,"source":"Asignacion exploratoria estudiante-parada aproximada"}},{"type":"Feature","geometry":{"type":"LineString","coordinates":[[-58.53164630967638,-34.54623775598382],[-58.528032,-34.547431]]},"properties":{"school_id":"pizarnik","school_name":"Escuela Pizarnik","linea":"161","walk_m":357,"source":"Asignacion exploratoria estudiante-parada aproximada"}},{"type":"Feature","geometry":{"type":"LineString","coordinates":[[-58.52158140708617,-34.54673906452291],[-58.522003,-34.542711]]},"properties":{"school_id":"pizarnik","school_name":"Escuela Pizarnik","linea":"161","walk_m":450,"source":"Asignacion exploratoria estudiante-parada aproximada"}},{"type":"Feature","geometry":{"type":"LineString","coordinates":[[-58.529294251295276,-34.54348094408452],[-58.527661,-34.54174]]},"properties":{"school_id":"pizarnik","school_name":"Escuela Pizarnik","linea":"161","walk_m":245,"source":"Asignacion exploratoria estudiante-parada aproximada"}},{"type":"Feature","geometry":{"type":"LineString","coordinates":[[-58.52479206123354,-34.55064781659114],[-58.528032,-34.547431]]},"properties":{"school_id":"pizarnik","school_name":"Escuela Pizarnik","linea":"161","walk_m":465,"source":"Asignacion exploratoria estudiante-parada aproximada"}},{"type":"Feature","geometry":{"type":"LineString","coordinates":[[-58.52769033712575,-34.54429553215974],[-58.528032,-34.547431]]},"properties":{"school_id":"pizarnik","school_name":"Escuela Pizarnik","linea":"161","walk_m":350,"source":"Asignacion exploratoria estudiante-parada aproximada"}},{"type":"Feature","geometry":{"type":"LineString","coordinates":[[-58.52582276239569,-34.55322866725039],[-58.531294,-34.553161]]},"properties":{"school_id":"pizarnik","school_name":"Escuela Pizarnik","linea":"161","walk_m":501,"source":"Asignacion exploratoria estudiante-parada aproximada"}},{"type":"Feature","geometry":{"type":"LineString","coordinates":[[-58.53665425369599,-34.570277341681276],[-58.540027,-34.569361]]},"properties":{"school_id":"pizarnik","school_name":"Escuela Pizarnik","linea":"161","walk_m":325,"source":"Asignacion exploratoria estudiante-parada aproximada"}},{"type":"Feature","geometry":{"type":"LineString","coordinates":[[-58.53122264698656,-34.54663845478261],[-58.528032,-34.547431]]},"properties":{"school_id":"pizarnik","school_name":"Escuela Pizarnik","linea":"161","walk_m":305,"source":"Asignacion exploratoria estudiante-parada aproximada"}},{"type":"Feature","geometry":{"type":"LineString","coordinates":[[-58.54253882352056,-34.546773223914975],[-58.550606,-34.546638]]},"properties":{"school_id":"pizarnik","school_name":"Escuela Pizarnik","linea":"78","walk_m":739,"source":"Asignacion exploratoria estudiante-parada aproximada"}},{"type":"Feature","geometry":{"type":"LineString","coordinates":[[-58.54262647787017,-34.54667696027126],[-58.550606,-34.546638]]},"properties":{"school_id":"pizarnik","school_name":"Escuela Pizarnik","linea":"78","walk_m":731,"source":"Asignacion exploratoria estudiante-parada aproximada"}},{"type":"Feature","geometry":{"type":"LineString","coordinates":[[-58.526724517945986,-34.55178178799898],[-58.530715,-34.552152]]},"properties":{"school_id":"pizarnik","school_name":"Escuela Pizarnik","linea":"161","walk_m":368,"source":"Asignacion exploratoria estudiante-parada aproximada"}},{"type":"Feature","geometry":{"type":"LineString","coordinates":[[-58.528536771624054,-34.544172261452154],[-58.528032,-34.547431]]},"properties":{"school_id":"pizarnik","school_name":"Escuela Pizarnik","linea":"161","walk_m":365,"source":"Asignacion exploratoria estudiante-parada aproximada"}},{"type":"Feature","geometry":{"type":"LineString","coordinates":[[-58.523699938271136,-34.54875154552506],[-58.528032,-34.547431]]},"properties":{"school_id":"pizarnik","school_name":"Escuela Pizarnik","linea":"161","walk_m":423,"source":"Asignacion exploratoria estudiante-parada aproximada"}},{"type":"Feature","geometry":{"type":"LineString","coordinates":[[-58.52406483142238,-34.55121693504881],[-58.528032,-34.547431]]},"properties":{"school_id":"pizarnik","school_name":"Escuela Pizarnik","linea":"161","walk_m":556,"source":"Asignacion exploratoria estudiante-parada aproximada"}},{"type":"Feature","geometry":{"type":"LineString","coordinates":[[-58.52681400475108,-34.54473265962852],[-58.528032,-34.547431]]},"properties":{"school_id":"pizarnik","school_name":"Escuela Pizarnik","linea":"161","walk_m":320,"source":"Asignacion exploratoria estudiante-parada aproximada"}},{"type":"Feature","geometry":{"type":"LineString","coordinates":[[-58.625093521955364,-34.567828049571986],[-58.629519,-34.564693]]},"properties":{"school_id":"galeano","school_name":"Escuela Galeano","linea":"57","linea_label":"Linea 57","recorrido":"B","sentido":"VUELTA","empresa":"TRANSPORTES ATLANTIDA SAC","walk_m":535,"source":"Asignacion exploratoria Galeano estudiante-recorrido cercano","access_id":"galeano_access_1","straight_distance_m":535}},{"type":"Feature","geometry":{"type":"LineString","coordinates":[[-58.597041237852004,-34.544342381834504],[-58.601448,-34.542254]]},"properties":{"school_id":"galeano","school_name":"Escuela Galeano","linea":"57","linea_label":"Linea 57","recorrido":"B","sentido":"VUELTA","empresa":"TRANSPORTES ATLANTIDA SAC","walk_m":466,"source":"Asignacion exploratoria Galeano estudiante-recorrido cercano","access_id":"galeano_access_2","straight_distance_m":466}},{"type":"Feature","geometry":{"type":"LineString","coordinates":[[-58.58577378255826,-34.55333360984583],[-58.585532,-34.555143]]},"properties":{"school_id":"galeano","school_name":"Escuela Galeano","linea":"78","linea_label":"Linea 78","recorrido":"C","sentido":"IDA","empresa":"LOS CONSTITUYENTES SAT","walk_m":202,"source":"Asignacion exploratoria Galeano estudiante-recorrido cercano","access_id":"galeano_access_3","straight_distance_m":202}},{"type":"Feature","geometry":{"type":"LineString","coordinates":[[-58.594269890876994,-34.54390438832599],[-58.600401,-34.540444]]},"properties":{"school_id":"galeano","school_name":"Escuela Galeano","linea":"57","linea_label":"Linea 57","recorrido":"B","sentido":"VUELTA","empresa":"TRANSPORTES ATLANTIDA SAC","walk_m":681,"source":"Asignacion exploratoria Galeano estudiante-recorrido cercano","access_id":"galeano_access_4","straight_distance_m":681}},{"type":"Feature","geometry":{"type":"LineString","coordinates":[[-58.58206690999402,-34.546430074797414],[-58.576119,-34.553118]]},"properties":{"school_id":"galeano","school_name":"Escuela Galeano","linea":"78","linea_label":"Linea 78","recorrido":"C","sentido":"IDA","empresa":"LOS CONSTITUYENTES SAT","walk_m":922,"source":"Asignacion exploratoria Galeano estudiante-recorrido cercano","access_id":"galeano_access_5","straight_distance_m":922}},{"type":"Feature","geometry":{"type":"LineString","coordinates":[[-58.596148580244716,-34.54269117963836],[-58.600401,-34.540444]]},"properties":{"school_id":"galeano","school_name":"Escuela Galeano","linea":"57","linea_label":"Linea 57","recorrido":"B","sentido":"VUELTA","empresa":"TRANSPORTES ATLANTIDA SAC","walk_m":463,"source":"Asignacion exploratoria Galeano estudiante-recorrido cercano","access_id":"galeano_access_6","straight_distance_m":463}},{"type":"Feature","geometry":{"type":"LineString","coordinates":[[-58.5983567723589,-34.544058177244736],[-58.601448,-34.542254]]},"properties":{"school_id":"galeano","school_name":"Escuela Galeano","linea":"57","linea_label":"Linea 57","recorrido":"B","sentido":"VUELTA","empresa":"TRANSPORTES ATLANTIDA SAC","walk_m":347,"source":"Asignacion exploratoria Galeano estudiante-recorrido cercano","access_id":"galeano_access_7","straight_distance_m":347}},{"type":"Feature","geometry":{"type":"LineString","coordinates":[[-58.58681545674238,-34.56095945278599],[-58.58771,-34.56075]]},"properties":{"school_id":"galeano","school_name":"Escuela Galeano","linea":"78","linea_label":"Linea 78","recorrido":"C","sentido":"IDA","empresa":"LOS CONSTITUYENTES SAT","walk_m":85,"source":"Asignacion exploratoria Galeano estudiante-recorrido cercano","access_id":"galeano_access_8","straight_distance_m":85}},{"type":"Feature","geometry":{"type":"LineString","coordinates":[[-58.594439811260244,-34.546804788788435],[-58.602469,-34.54402]]},"properties":{"school_id":"galeano","school_name":"Escuela Galeano","linea":"57","linea_label":"Linea 57","recorrido":"B","sentido":"VUELTA","empresa":"TRANSPORTES ATLANTIDA SAC","walk_m":798,"source":"Asignacion exploratoria Galeano estudiante-recorrido cercano","access_id":"galeano_access_9","straight_distance_m":798}},{"type":"Feature","geometry":{"type":"LineString","coordinates":[[-58.59491977633535,-34.543663601914346],[-58.600401,-34.540444]]},"properties":{"school_id":"galeano","school_name":"Escuela Galeano","linea":"57","linea_label":"Linea 57","recorrido":"B","sentido":"VUELTA","empresa":"TRANSPORTES ATLANTIDA SAC","walk_m":617,"source":"Asignacion exploratoria Galeano estudiante-recorrido cercano","access_id":"galeano_access_10","straight_distance_m":617}},{"type":"Feature","geometry":{"type":"LineString","coordinates":[[-58.584721274134026,-34.55279804687892],[-58.585532,-34.555143]]},"properties":{"school_id":"galeano","school_name":"Escuela Galeano","linea":"78","linea_label":"Linea 78","recorrido":"C","sentido":"IDA","empresa":"LOS CONSTITUYENTES SAT","walk_m":271,"source":"Asignacion exploratoria Galeano estudiante-recorrido cercano","access_id":"galeano_access_11","straight_distance_m":271}},{"type":"Feature","geometry":{"type":"LineString","coordinates":[[-58.58817969794261,-34.55955793155827],[-58.587288,-34.559754]]},"properties":{"school_id":"galeano","school_name":"Escuela Galeano","linea":"78","linea_label":"Linea 78","recorrido":"C","sentido":"IDA","empresa":"LOS CONSTITUYENTES SAT","walk_m":85,"source":"Asignacion exploratoria Galeano estudiante-recorrido cercano","access_id":"galeano_access_12","straight_distance_m":85}},{"type":"Feature","geometry":{"type":"LineString","coordinates":[[-58.622656670036335,-34.56172800185942],[-58.622746,-34.562795]]},"properties":{"school_id":"galeano","school_name":"Escuela Galeano","linea":"57","linea_label":"Linea 57","recorrido":"A","sentido":"IDA","empresa":"TRANSPORTES ATLANTIDA SAC","walk_m":119,"source":"Asignacion exploratoria Galeano estudiante-recorrido cercano","access_id":"galeano_access_13","straight_distance_m":119}},{"type":"Feature","geometry":{"type":"LineString","coordinates":[[-58.622610712713474,-34.56177720238224],[-58.622746,-34.562795]]},"properties":{"school_id":"galeano","school_name":"Escuela Galeano","linea":"57","linea_label":"Linea 57","recorrido":"A","sentido":"IDA","empresa":"TRANSPORTES ATLANTIDA SAC","walk_m":114,"source":"Asignacion exploratoria Galeano estudiante-recorrido cercano","access_id":"galeano_access_14","straight_distance_m":114}},{"type":"Feature","geometry":{"type":"LineString","coordinates":[[-58.58873029898061,-34.54717942931916],[-58.585532,-34.555143]]},"properties":{"school_id":"galeano","school_name":"Escuela Galeano","linea":"78","linea_label":"Linea 78","recorrido":"C","sentido":"IDA","empresa":"LOS CONSTITUYENTES SAT","walk_m":933,"source":"Asignacion exploratoria Galeano estudiante-recorrido cercano","access_id":"galeano_access_15","straight_distance_m":933}},{"type":"Feature","geometry":{"type":"LineString","coordinates":[[-58.58679883368375,-34.56097372422773],[-58.58771,-34.56075]]},"properties":{"school_id":"galeano","school_name":"Escuela Galeano","linea":"78","linea_label":"Linea 78","recorrido":"C","sentido":"IDA","empresa":"LOS CONSTITUYENTES SAT","walk_m":87,"source":"Asignacion exploratoria Galeano estudiante-recorrido cercano","access_id":"galeano_access_16","straight_distance_m":87}},{"type":"Feature","geometry":{"type":"LineString","coordinates":[[-58.593487071986566,-34.54753511831394],[-58.602469,-34.54402]]},"properties":{"school_id":"galeano","school_name":"Escuela Galeano","linea":"57","linea_label":"Linea 57","recorrido":"B","sentido":"VUELTA","empresa":"TRANSPORTES ATLANTIDA SAC","walk_m":911,"source":"Asignacion exploratoria Galeano estudiante-recorrido cercano","access_id":"galeano_access_17","straight_distance_m":911}},{"type":"Feature","geometry":{"type":"LineString","coordinates":[[-58.59460596647683,-34.54216075242686],[-58.600401,-34.540444]]},"properties":{"school_id":"galeano","school_name":"Escuela Galeano","linea":"57","linea_label":"Linea 57","recorrido":"B","sentido":"VUELTA","empresa":"TRANSPORTES ATLANTIDA SAC","walk_m":564,"source":"Asignacion exploratoria Galeano estudiante-recorrido cercano","access_id":"galeano_access_18","straight_distance_m":564}},{"type":"Feature","geometry":{"type":"LineString","coordinates":[[-58.58685660316108,-34.56095118006316],[-58.58771,-34.56075]]},"properties":{"school_id":"galeano","school_name":"Escuela Galeano","linea":"78","linea_label":"Linea 78","recorrido":"C","sentido":"IDA","empresa":"LOS CONSTITUYENTES SAT","walk_m":81,"source":"Asignacion exploratoria Galeano estudiante-recorrido cercano","access_id":"galeano_access_19","straight_distance_m":81}},{"type":"Feature","geometry":{"type":"LineString","coordinates":[[-58.58682169109342,-34.561033992474684],[-58.58771,-34.56075]]},"properties":{"school_id":"galeano","school_name":"Escuela Galeano","linea":"78","linea_label":"Linea 78","recorrido":"C","sentido":"IDA","empresa":"LOS CONSTITUYENTES SAT","walk_m":87,"source":"Asignacion exploratoria Galeano estudiante-recorrido cercano","access_id":"galeano_access_20","straight_distance_m":87}}]}