{"type":"FeatureCollection","metadata":{"generated":"2026-05-07T23:04:55.980Z","eligible_students_farther_than_m":1200,"assigned_students":111,"total_eligible_students":178,"assumptions":{"WALK_TO_BUS_M":750,"SCHOOL_STOP_M":650,"MIN_BUS_TRIP_M":1200,"STOP_SPACING_VERTICES":8},"generated_routes":"2026-05-07T23:12:48.427Z","routing_source":"OSRM public foot profile, precomputed for local viewer","fallback_count":0},"features":[{"type":"Feature","geometry":{"coordinates":[[-58.611548,-34.567791],[-58.612224,-34.568407]],"type":"LineString"},"properties":{"school_id":"walsh","school_name":"Escuela Walsh","linea":"169","walk_m":93,"source":"Asignacion exploratoria estudiante-parada aproximada","access_id":"access_route_1","route_distance_m":92,"route_duration_s":13,"straight_distance_m":93,"routing_source":"OSRM foot; ruta peatonal aproximada por red vial"}},{"type":"Feature","geometry":{"coordinates":[[-58.54874,-34.582093],[-58.549328,-34.582572],[-58.550091,-34.583226],[-58.549047,-34.584077],[-58.548069,-34.584875],[-58.547992,-34.584932],[-58.547975,-34.584946]],"type":"LineString"},"properties":{"school_id":"walsh","school_name":"Escuela Walsh","linea":"169","walk_m":318,"source":"Asignacion exploratoria estudiante-parada aproximada","access_id":"access_route_2","route_distance_m":449,"route_duration_s":65,"straight_distance_m":318,"routing_source":"OSRM foot; ruta peatonal aproximada por red vial"}},{"type":"Feature","geometry":{"coordinates":[[-58.552815,-34.589039],[-58.552887,-34.589101],[-58.553247,-34.589407],[-58.553316,-34.589458],[-58.553421,-34.589476],[-58.553529,-34.589356],[-58.554327,-34.588515],[-58.554461,-34.588371],[-58.554221,-34.588227],[-58.553187,-34.587581],[-58.552075,-34.58692],[-58.551936,-34.586837],[-58.550197,-34.585801],[-58.549592,-34.585438],[-58.549308,-34.585276],[-58.549235,-34.585228],[-58.549709,-34.584823],[-58.549829,-34.584721],[-58.549047,-34.584077],[-58.548069,-34.584875],[-58.547992,-34.584932],[-58.547975,-34.584946]],"type":"LineString"},"properties":{"school_id":"walsh","school_name":"Escuela Walsh","linea":"169","walk_m":637,"source":"Asignacion exploratoria estudiante-parada aproximada","access_id":"access_route_3","route_distance_m":1141,"route_duration_s":111,"straight_distance_m":637,"routing_source":"OSRM foot; ruta peatonal aproximada por red vial"}},{"type":"Feature","geometry":{"coordinates":[[-58.550755,-34.583767],[-58.550885,-34.583873],[-58.550961,-34.583943],[-58.550406,-34.58438],[-58.550391,-34.584392],[-58.549981,-34.584725],[-58.549902,-34.584785],[-58.549829,-34.584721],[-58.549047,-34.584077],[-58.548069,-34.584875],[-58.547992,-34.584932],[-58.547975,-34.584946]],"type":"LineString"},"properties":{"school_id":"walsh","school_name":"Escuela Walsh","linea":"169","walk_m":299,"source":"Asignacion exploratoria estudiante-parada aproximada","access_id":"access_route_4","route_distance_m":411,"route_duration_s":54,"straight_distance_m":299,"routing_source":"OSRM foot; ruta peatonal aproximada por red vial"}},{"type":"Feature","geometry":{"coordinates":[[-58.575223,-34.565109],[-58.575067,-34.565239],[-58.574231,-34.565916],[-58.573398,-34.566553],[-58.57399,-34.567063],[-58.572978,-34.567879],[-58.572924,-34.567952],[-58.57288,-34.568012],[-58.572309,-34.568595],[-58.572271,-34.568657],[-58.572762,-34.569127],[-58.572769,-34.569133]],"type":"LineString"},"properties":{"school_id":"walsh","school_name":"Escuela Walsh","linea":"169","walk_m":506,"source":"Asignacion exploratoria estudiante-parada aproximada","access_id":"access_route_5","route_distance_m":618,"route_duration_s":86,"straight_distance_m":506,"routing_source":"OSRM foot; ruta peatonal aproximada por red vial"}},{"type":"Feature","geometry":{"coordinates":[[-58.557131,-34.579517],[-58.557597,-34.579896],[-58.556854,-34.580477],[-58.55608,-34.579841],[-58.55537,-34.579224],[-58.555246,-34.57912],[-58.555994,-34.578516],[-58.556091,-34.578427],[-58.556167,-34.578363],[-58.556576,-34.578037],[-58.556705,-34.57794],[-58.556832,-34.577841],[-58.557683,-34.577151],[-58.558379,-34.576595]],"type":"LineString"},"properties":{"school_id":"walsh","school_name":"Escuela Walsh","linea":"169","walk_m":319,"source":"Asignacion exploratoria estudiante-parada aproximada","access_id":"access_route_6","route_distance_m":766,"route_duration_s":107,"straight_distance_m":319,"routing_source":"OSRM foot; ruta peatonal aproximada por red vial"}},{"type":"Feature","geometry":{"coordinates":[[-58.610716,-34.567006],[-58.610982,-34.567275],[-58.612224,-34.568407]],"type":"LineString"},"properties":{"school_id":"walsh","school_name":"Escuela Walsh","linea":"169","walk_m":209,"source":"Asignacion exploratoria estudiante-parada aproximada","access_id":"access_route_7","route_distance_m":208,"route_duration_s":30,"straight_distance_m":209,"routing_source":"OSRM foot; ruta peatonal aproximada por red vial"}},{"type":"Feature","geometry":{"coordinates":[[-58.590631,-34.581541],[-58.590246,-34.581824],[-58.59122,-34.582673],[-58.592181,-34.583538],[-58.592286,-34.583459]],"type":"LineString"},"properties":{"school_id":"walsh","school_name":"Escuela Walsh","linea":"169","walk_m":283,"source":"Asignacion exploratoria estudiante-parada aproximada","access_id":"access_route_8","route_distance_m":320,"route_duration_s":40,"straight_distance_m":283,"routing_source":"OSRM foot; ruta peatonal aproximada por red vial"}},{"type":"Feature","geometry":{"coordinates":[[-58.548851,-34.582183],[-58.549328,-34.582572],[-58.550091,-34.583226],[-58.549047,-34.584077],[-58.548069,-34.584875],[-58.547992,-34.584932],[-58.547975,-34.584946]],"type":"LineString"},"properties":{"school_id":"walsh","school_name":"Escuela Walsh","linea":"169","walk_m":326,"source":"Asignacion exploratoria estudiante-parada aproximada","access_id":"access_route_9","route_distance_m":435,"route_duration_s":63,"straight_distance_m":326,"routing_source":"OSRM foot; ruta peatonal aproximada por red vial"}},{"type":"Feature","geometry":{"coordinates":[[-58.548894,-34.582218],[-58.549328,-34.582572],[-58.550091,-34.583226],[-58.549047,-34.584077],[-58.548069,-34.584875],[-58.547992,-34.584932],[-58.547975,-34.584946]],"type":"LineString"},"properties":{"school_id":"walsh","school_name":"Escuela Walsh","linea":"169","walk_m":323,"source":"Asignacion exploratoria estudiante-parada aproximada","access_id":"access_route_10","route_distance_m":429,"route_duration_s":62,"straight_distance_m":323,"routing_source":"OSRM foot; ruta peatonal aproximada por red vial"}},{"type":"Feature","geometry":{"coordinates":[[-58.567427,-34.566426],[-58.567903,-34.566879],[-58.56868,-34.567652],[-58.569518,-34.568462],[-58.568671,-34.569145],[-58.567754,-34.569851],[-58.567715,-34.569882]],"type":"LineString"},"properties":{"school_id":"walsh","school_name":"Escuela Walsh","linea":"169","walk_m":392,"source":"Asignacion exploratoria estudiante-parada aproximada","access_id":"access_route_11","route_distance_m":525,"route_duration_s":64,"straight_distance_m":392,"routing_source":"OSRM foot; ruta peatonal aproximada por red vial"}},{"type":"Feature","geometry":{"coordinates":[[-58.576743,-34.564445],[-58.576762,-34.564502],[-58.576782,-34.564542],[-58.576801,-34.564581],[-58.576715,-34.564607],[-58.576237,-34.564725],[-58.575692,-34.564859],[-58.57551,-34.564904],[-58.575444,-34.56493],[-58.575402,-34.56496],[-58.575067,-34.565239],[-58.574231,-34.565916],[-58.573398,-34.566553],[-58.57399,-34.567063],[-58.572978,-34.567879],[-58.572924,-34.567952],[-58.57288,-34.568012],[-58.572309,-34.568595],[-58.572271,-34.568657],[-58.572762,-34.569127],[-58.572769,-34.569133]],"type":"LineString"},"properties":{"school_id":"walsh","school_name":"Escuela Walsh","linea":"169","walk_m":632,"source":"Asignacion exploratoria estudiante-parada aproximada","access_id":"access_route_12","route_distance_m":793,"route_duration_s":111,"straight_distance_m":632,"routing_source":"OSRM foot; ruta peatonal aproximada por red vial"}},{"type":"Feature","geometry":{"coordinates":[[-58.587318,-34.582438],[-58.587613,-34.582214],[-58.588008,-34.581922],[-58.588481,-34.581562],[-58.589093,-34.581101],[-58.589279,-34.580959],[-58.589683,-34.580641],[-58.590066,-34.580354],[-58.590176,-34.580274],[-58.59019,-34.580264],[-58.590293,-34.580188],[-58.590881,-34.579739],[-58.589939,-34.578903],[-58.589129,-34.578201],[-58.589125,-34.578204]],"type":"LineString"},"properties":{"school_id":"walsh","school_name":"Escuela Walsh","linea":"169","walk_m":502,"source":"Asignacion exploratoria estudiante-parada aproximada","access_id":"access_route_13","route_distance_m":678,"route_duration_s":70,"straight_distance_m":502,"routing_source":"OSRM foot; ruta peatonal aproximada por red vial"}},{"type":"Feature","geometry":{"coordinates":[[-58.575952,-34.564795],[-58.575692,-34.564859],[-58.57551,-34.564904],[-58.575444,-34.56493],[-58.575402,-34.56496],[-58.575067,-34.565239],[-58.574231,-34.565916],[-58.573398,-34.566553],[-58.57399,-34.567063],[-58.572978,-34.567879],[-58.572924,-34.567952],[-58.57288,-34.568012],[-58.572309,-34.568595],[-58.572271,-34.568657],[-58.572762,-34.569127],[-58.572769,-34.569133]],"type":"LineString"},"properties":{"school_id":"walsh","school_name":"Escuela Walsh","linea":"169","walk_m":565,"source":"Asignacion exploratoria estudiante-parada aproximada","access_id":"access_route_14","route_distance_m":695,"route_duration_s":95,"straight_distance_m":565,"routing_source":"OSRM foot; ruta peatonal aproximada por red vial"}},{"type":"Feature","geometry":{"coordinates":[[-58.597505,-34.570972],[-58.597545,-34.570942],[-58.597883,-34.570701],[-58.598525,-34.571302],[-58.599325,-34.572028],[-58.600154,-34.572782],[-58.599863,-34.573011],[-58.600655,-34.57374],[-58.60147,-34.574458],[-58.600624,-34.575108],[-58.601206,-34.575664],[-58.601827,-34.576227]],"type":"LineString"},"properties":{"school_id":"walsh","school_name":"Escuela Walsh","linea":"169","walk_m":707,"source":"Asignacion exploratoria estudiante-parada aproximada","access_id":"access_route_15","route_distance_m":884,"route_duration_s":118,"straight_distance_m":707,"routing_source":"OSRM foot; ruta peatonal aproximada por red vial"}},{"type":"Feature","geometry":{"coordinates":[[-58.5352,-34.576005],[-58.535207,-34.576],[-58.535281,-34.575941],[-58.53634,-34.57509],[-58.537004,-34.575643]],"type":"LineString"},"properties":{"school_id":"walsh","school_name":"Escuela Walsh","linea":"169","walk_m":157,"source":"Asignacion exploratoria estudiante-parada aproximada","access_id":"access_route_16","route_distance_m":232,"route_duration_s":36,"straight_distance_m":157,"routing_source":"OSRM foot; ruta peatonal aproximada por red vial"}},{"type":"Feature","geometry":{"coordinates":[[-58.558442,-34.580629],[-58.559068,-34.581161],[-58.558448,-34.581647],[-58.558351,-34.58173],[-58.557606,-34.581128],[-58.556854,-34.580477],[-58.55608,-34.579841],[-58.555812,-34.580057],[-58.555292,-34.580478],[-58.554323,-34.581251],[-58.554223,-34.581322],[-58.554151,-34.581362],[-58.554145,-34.581357]],"type":"LineString"},"properties":{"school_id":"walsh","school_name":"Escuela Walsh","linea":"169","walk_m":394,"source":"Asignacion exploratoria estudiante-parada aproximada","access_id":"access_route_17","route_distance_m":715,"route_duration_s":99,"straight_distance_m":394,"routing_source":"OSRM foot; ruta peatonal aproximada por red vial"}},{"type":"Feature","geometry":{"coordinates":[[-58.576671,-34.564618],[-58.576237,-34.564725],[-58.575692,-34.564859],[-58.57551,-34.564904],[-58.575444,-34.56493],[-58.575402,-34.56496],[-58.575067,-34.565239],[-58.574231,-34.565916],[-58.573398,-34.566553],[-58.57399,-34.567063],[-58.572978,-34.567879],[-58.572924,-34.567952],[-58.57288,-34.568012],[-58.572309,-34.568595],[-58.572271,-34.568657],[-58.572762,-34.569127],[-58.572769,-34.569133]],"type":"LineString"},"properties":{"school_id":"walsh","school_name":"Escuela Walsh","linea":"169","walk_m":624,"source":"Asignacion exploratoria estudiante-parada aproximada","access_id":"access_route_18","route_distance_m":764,"route_duration_s":102,"straight_distance_m":624,"routing_source":"OSRM foot; ruta peatonal aproximada por red vial"}},{"type":"Feature","geometry":{"coordinates":[[-58.565635,-34.564418],[-58.565938,-34.564666],[-58.566418,-34.564283],[-58.567121,-34.563704],[-58.567787,-34.564256],[-58.568529,-34.564971],[-58.568574,-34.565015],[-58.568617,-34.56506],[-58.56867,-34.565115],[-58.56871,-34.565161],[-58.568758,-34.565214],[-58.56884,-34.565294],[-58.569318,-34.565768],[-58.570074,-34.566526],[-58.57087,-34.567287],[-58.570913,-34.567329],[-58.570868,-34.567381],[-58.570226,-34.567905],[-58.569518,-34.568462],[-58.568671,-34.569145],[-58.567754,-34.569851],[-58.567715,-34.569882]],"type":"LineString"},"properties":{"school_id":"walsh","school_name":"Escuela Walsh","linea":"169","walk_m":640,"source":"Asignacion exploratoria estudiante-parada aproximada","access_id":"access_route_19","route_distance_m":1131,"route_duration_s":149,"straight_distance_m":640,"routing_source":"OSRM foot; ruta peatonal aproximada por red vial"}},{"type":"Feature","geometry":{"coordinates":[[-58.556907,-34.573929],[-58.557038,-34.574039],[-58.557766,-34.574668],[-58.558491,-34.575296],[-58.559216,-34.575933],[-58.55847,-34.576522],[-58.558379,-34.576595]],"type":"LineString"},"properties":{"school_id":"walsh","school_name":"Escuela Walsh","linea":"169","walk_m":323,"source":"Asignacion exploratoria estudiante-parada aproximada","access_id":"access_route_20","route_distance_m":413,"route_duration_s":62,"straight_distance_m":323,"routing_source":"OSRM foot; ruta peatonal aproximada por red vial"}},{"type":"Feature","geometry":{"coordinates":[[-58.546273,-34.581741],[-58.545961,-34.581476],[-58.544914,-34.582345],[-58.545564,-34.582888],[-58.545678,-34.582993],[-58.54645,-34.583643],[-58.547077,-34.584164],[-58.54721,-34.584278],[-58.547908,-34.584863],[-58.547992,-34.584932],[-58.547975,-34.584946]],"type":"LineString"},"properties":{"school_id":"walsh","school_name":"Escuela Walsh","linea":"169","walk_m":391,"source":"Asignacion exploratoria estudiante-parada aproximada","access_id":"access_route_21","route_distance_m":582,"route_duration_s":71,"straight_distance_m":391,"routing_source":"OSRM foot; ruta peatonal aproximada por red vial"}},{"type":"Feature","geometry":{"coordinates":[[-58.575221,-34.565111],[-58.575067,-34.565239],[-58.574231,-34.565916],[-58.573398,-34.566553],[-58.57399,-34.567063],[-58.572978,-34.567879],[-58.572924,-34.567952],[-58.57288,-34.568012],[-58.572309,-34.568595],[-58.572271,-34.568657],[-58.572762,-34.569127],[-58.572769,-34.569133]],"type":"LineString"},"properties":{"school_id":"walsh","school_name":"Escuela Walsh","linea":"169","walk_m":506,"source":"Asignacion exploratoria estudiante-parada aproximada","access_id":"access_route_22","route_distance_m":618,"route_duration_s":86,"straight_distance_m":506,"routing_source":"OSRM foot; ruta peatonal aproximada por red vial"}},{"type":"Feature","geometry":{"coordinates":[[-58.575372,-34.564985],[-58.575067,-34.565239],[-58.574231,-34.565916],[-58.573398,-34.566553],[-58.57399,-34.567063],[-58.572978,-34.567879],[-58.572924,-34.567952],[-58.57288,-34.568012],[-58.572309,-34.568595],[-58.572271,-34.568657],[-58.572762,-34.569127],[-58.572769,-34.569133]],"type":"LineString"},"properties":{"school_id":"walsh","school_name":"Escuela Walsh","linea":"169","walk_m":525,"source":"Asignacion exploratoria estudiante-parada aproximada","access_id":"access_route_23","route_distance_m":637,"route_duration_s":88,"straight_distance_m":525,"routing_source":"OSRM foot; ruta peatonal aproximada por red vial"}},{"type":"Feature","geometry":{"coordinates":[[-58.575444,-34.56493],[-58.575402,-34.56496],[-58.575067,-34.565239],[-58.574231,-34.565916],[-58.573398,-34.566553],[-58.57399,-34.567063],[-58.572978,-34.567879],[-58.572924,-34.567952],[-58.57288,-34.568012],[-58.572309,-34.568595],[-58.572271,-34.568657],[-58.572762,-34.569127],[-58.572769,-34.569133]],"type":"LineString"},"properties":{"school_id":"walsh","school_name":"Escuela Walsh","linea":"169","walk_m":533,"source":"Asignacion exploratoria estudiante-parada aproximada","access_id":"access_route_24","route_distance_m":646,"route_duration_s":89,"straight_distance_m":533,"routing_source":"OSRM foot; ruta peatonal aproximada por red vial"}},{"type":"Feature","geometry":{"coordinates":[[-58.585061,-34.586203],[-58.585738,-34.586818],[-58.586684,-34.587682],[-58.586846,-34.587563],[-58.587309,-34.587208],[-58.587643,-34.586965],[-58.588258,-34.587522],[-58.589023,-34.588198],[-58.589123,-34.588123],[-58.58949,-34.587849],[-58.589544,-34.587809],[-58.589646,-34.587735],[-58.590705,-34.586943],[-58.591464,-34.587644],[-58.591508,-34.587683]],"type":"LineString"},"properties":{"school_id":"walsh","school_name":"Escuela Walsh","linea":"169","walk_m":615,"source":"Asignacion exploratoria estudiante-parada aproximada","access_id":"access_route_25","route_distance_m":845,"route_duration_s":105,"straight_distance_m":615,"routing_source":"OSRM foot; ruta peatonal aproximada por red vial"}},{"type":"Feature","geometry":{"coordinates":[[-58.584041,-34.586302],[-58.584166,-34.586414],[-58.58478,-34.585948],[-58.585402,-34.585479],[-58.585508,-34.585573],[-58.586291,-34.586291],[-58.586353,-34.58635],[-58.587113,-34.587038],[-58.587309,-34.587208],[-58.587643,-34.586965],[-58.588258,-34.587522],[-58.589023,-34.588198],[-58.589123,-34.588123],[-58.58949,-34.587849],[-58.589544,-34.587809],[-58.589646,-34.587735],[-58.590705,-34.586943],[-58.591464,-34.587644],[-58.591508,-34.587683]],"type":"LineString"},"properties":{"school_id":"walsh","school_name":"Escuela Walsh","linea":"169","walk_m":699,"source":"Asignacion exploratoria estudiante-parada aproximada","access_id":"access_route_26","route_distance_m":976,"route_duration_s":123,"straight_distance_m":699,"routing_source":"OSRM foot; ruta peatonal aproximada por red vial"}},{"type":"Feature","geometry":{"coordinates":[[-58.554787,-34.58767],[-58.55495,-34.587512],[-58.555809,-34.586728],[-58.557084,-34.585628],[-58.55806,-34.584789],[-58.558112,-34.584741],[-58.557271,-34.584015],[-58.556414,-34.583293],[-58.555712,-34.582681],[-58.554938,-34.58203],[-58.554315,-34.581503],[-58.554264,-34.581459],[-58.554151,-34.581362],[-58.554145,-34.581357]],"type":"LineString"},"properties":{"school_id":"walsh","school_name":"Escuela Walsh","linea":"169","walk_m":698,"source":"Asignacion exploratoria estudiante-parada aproximada","access_id":"access_route_27","route_distance_m":969,"route_duration_s":92,"straight_distance_m":698,"routing_source":"OSRM foot; ruta peatonal aproximada por red vial"}},{"type":"Feature","geometry":{"coordinates":[[-58.577239,-34.564987],[-58.577329,-34.565071],[-58.577593,-34.565302],[-58.577779,-34.565465],[-58.577966,-34.565628],[-58.578253,-34.56588],[-58.577312,-34.566626],[-58.576989,-34.56689],[-58.576963,-34.56691],[-58.57668,-34.567137],[-58.57613,-34.567577],[-58.575305,-34.568234],[-58.574492,-34.568898],[-58.574242,-34.569094],[-58.573769,-34.569457],[-58.573669,-34.569541],[-58.573404,-34.569746],[-58.573304,-34.569825],[-58.573241,-34.569881],[-58.572957,-34.570102],[-58.572865,-34.570176],[-58.57271,-34.570298],[-58.57212,-34.569748],[-58.572839,-34.569199],[-58.572769,-34.569133]],"type":"LineString"},"properties":{"school_id":"walsh","school_name":"Escuela Walsh","linea":"169","walk_m":620,"source":"Asignacion exploratoria estudiante-parada aproximada","access_id":"access_route_28","route_distance_m":1023,"route_duration_s":107,"straight_distance_m":620,"routing_source":"OSRM foot; ruta peatonal aproximada por red vial"}},{"type":"Feature","geometry":{"coordinates":[[-58.573457,-34.565239],[-58.573267,-34.565075],[-58.57322,-34.565113],[-58.572441,-34.565712],[-58.571943,-34.566103],[-58.571469,-34.566474],[-58.571418,-34.566528],[-58.571378,-34.566578],[-58.571095,-34.567031],[-58.570947,-34.567216],[-58.570903,-34.56726],[-58.57087,-34.567287],[-58.570913,-34.567329],[-58.571737,-34.568141],[-58.572271,-34.568657],[-58.572762,-34.569127],[-58.572769,-34.569133]],"type":"LineString"},"properties":{"school_id":"walsh","school_name":"Escuela Walsh","linea":"169","walk_m":436,"source":"Asignacion exploratoria estudiante-parada aproximada","access_id":"access_route_29","route_distance_m":627,"route_duration_s":77,"straight_distance_m":436,"routing_source":"OSRM foot; ruta peatonal aproximada por red vial"}},{"type":"Feature","geometry":{"coordinates":[[-58.606053,-34.566944],[-58.605561,-34.566943],[-58.605558,-34.567711],[-58.605185,-34.56771],[-58.605165,-34.5682],[-58.60517,-34.568232],[-58.605185,-34.568263],[-58.60522,-34.568298],[-58.605407,-34.568456],[-58.605631,-34.568644],[-58.605914,-34.568439],[-58.606479,-34.568936],[-58.607529,-34.56989],[-58.6081,-34.570399],[-58.608352,-34.57063],[-58.6088,-34.571045],[-58.609585,-34.570455],[-58.609666,-34.570395],[-58.610278,-34.569931],[-58.611382,-34.569091],[-58.612249,-34.56843],[-58.612224,-34.568407]],"type":"LineString"},"properties":{"school_id":"walsh","school_name":"Escuela Walsh","linea":"169","walk_m":589,"source":"Asignacion exploratoria estudiante-parada aproximada","access_id":"access_route_30","route_distance_m":1144,"route_duration_s":132,"straight_distance_m":589,"routing_source":"OSRM foot; ruta peatonal aproximada por red vial"}},{"type":"Feature","geometry":{"coordinates":[[-58.606088,-34.566944],[-58.605561,-34.566943],[-58.605558,-34.567711],[-58.605185,-34.56771],[-58.605165,-34.5682],[-58.60517,-34.568232],[-58.605185,-34.568263],[-58.60522,-34.568298],[-58.605407,-34.568456],[-58.605631,-34.568644],[-58.605914,-34.568439],[-58.606479,-34.568936],[-58.607529,-34.56989],[-58.6081,-34.570399],[-58.608352,-34.57063],[-58.6088,-34.571045],[-58.609585,-34.570455],[-58.609666,-34.570395],[-58.610278,-34.569931],[-58.611382,-34.569091],[-58.612249,-34.56843],[-58.612224,-34.568407]],"type":"LineString"},"properties":{"school_id":"walsh","school_name":"Escuela Walsh","linea":"169","walk_m":585,"source":"Asignacion exploratoria estudiante-parada aproximada","access_id":"access_route_31","route_distance_m":1148,"route_duration_s":132,"straight_distance_m":585,"routing_source":"OSRM foot; ruta peatonal aproximada por red vial"}},{"type":"Feature","geometry":{"coordinates":[[-58.56596,-34.567121],[-58.565908,-34.567163],[-58.56564,-34.567378],[-58.565158,-34.567767],[-58.56593,-34.568439],[-58.565974,-34.568402],[-58.566021,-34.568365],[-58.566869,-34.569099],[-58.567754,-34.569851],[-58.567715,-34.569882]],"type":"LineString"},"properties":{"school_id":"walsh","school_name":"Escuela Walsh","linea":"169","walk_m":348,"source":"Asignacion exploratoria estudiante-parada aproximada","access_id":"access_route_32","route_distance_m":451,"route_duration_s":73,"straight_distance_m":348,"routing_source":"OSRM foot; ruta peatonal aproximada por red vial"}},{"type":"Feature","geometry":{"coordinates":[[-58.556287,-34.579678],[-58.55608,-34.579841],[-58.555812,-34.580057],[-58.555292,-34.580478],[-58.554323,-34.581251],[-58.554223,-34.581322],[-58.554151,-34.581362],[-58.554145,-34.581357]],"type":"LineString"},"properties":{"school_id":"walsh","school_name":"Escuela Walsh","linea":"169","walk_m":271,"source":"Asignacion exploratoria estudiante-parada aproximada","access_id":"access_route_33","route_distance_m":272,"route_duration_s":36,"straight_distance_m":271,"routing_source":"OSRM foot; ruta peatonal aproximada por red vial"}},{"type":"Feature","geometry":{"coordinates":[[-58.552438,-34.575326],[-58.552219,-34.575137],[-58.551431,-34.574457],[-58.550762,-34.575001],[-58.551559,-34.575668],[-58.552435,-34.576431],[-58.553116,-34.575927],[-58.553729,-34.575456],[-58.554103,-34.575164],[-58.554728,-34.574666],[-58.555465,-34.575285],[-58.55621,-34.575906],[-58.556814,-34.576416],[-58.556966,-34.576532],[-58.557683,-34.577151],[-58.558379,-34.576595]],"type":"LineString"},"properties":{"school_id":"walsh","school_name":"Escuela Walsh","linea":"169","walk_m":559,"source":"Asignacion exploratoria estudiante-parada aproximada","access_id":"access_route_34","route_distance_m":1203,"route_duration_s":156,"straight_distance_m":559,"routing_source":"OSRM foot; ruta peatonal aproximada por red vial"}},{"type":"Feature","geometry":{"coordinates":[[-58.561087,-34.580493],[-58.561367,-34.58073],[-58.560655,-34.581301],[-58.55992,-34.580657],[-58.559816,-34.580569],[-58.559722,-34.580489],[-58.559085,-34.579968],[-58.558341,-34.579324],[-58.557566,-34.57866],[-58.556705,-34.57794],[-58.555907,-34.57727],[-58.555836,-34.577206],[-58.556814,-34.576416],[-58.556966,-34.576532],[-58.557683,-34.577151],[-58.558379,-34.576595]],"type":"LineString"},"properties":{"school_id":"walsh","school_name":"Escuela Walsh","linea":"169","walk_m":502,"source":"Asignacion exploratoria estudiante-parada aproximada","access_id":"access_route_35","route_distance_m":1090,"route_duration_s":157,"straight_distance_m":502,"routing_source":"OSRM foot; ruta peatonal aproximada por red vial"}},{"type":"Feature","geometry":{"coordinates":[[-58.550234,-34.546369],[-58.549687,-34.545905],[-58.548399,-34.546948],[-58.549276,-34.54769],[-58.550564,-34.546649],[-58.550592,-34.546626]],"type":"LineString"},"properties":{"school_id":"pizarnik","school_name":"Escuela Pizarnik","linea":"78","walk_m":47,"source":"Asignacion exploratoria estudiante-parada aproximada","access_id":"access_route_36","route_distance_m":521,"route_duration_s":61,"straight_distance_m":47,"routing_source":"OSRM foot; ruta peatonal aproximada por red vial"}},{"type":"Feature","geometry":{"coordinates":[[-58.527209,-34.539826],[-58.52664,-34.539545],[-58.527071,-34.538959],[-58.528549,-34.539678],[-58.528257,-34.540232],[-58.528189,-34.540361],[-58.528145,-34.540445],[-58.527887,-34.540936],[-58.527519,-34.541634],[-58.527673,-34.541709],[-58.527653,-34.541736]],"type":"LineString"},"properties":{"school_id":"pizarnik","school_name":"Escuela Pizarnik","linea":"161","walk_m":211,"source":"Asignacion exploratoria estudiante-parada aproximada","access_id":"access_route_37","route_distance_m":551,"route_duration_s":74,"straight_distance_m":211,"routing_source":"OSRM foot; ruta peatonal aproximada por red vial"}},{"type":"Feature","geometry":{"coordinates":[[-58.531927,-34.547052],[-58.531813,-34.546974],[-58.53146,-34.547236],[-58.530981,-34.546795],[-58.53051,-34.54636],[-58.530088,-34.546699],[-58.529057,-34.547516],[-58.528728,-34.547749],[-58.528412,-34.547903],[-58.528357,-34.547929],[-58.528335,-34.547892],[-58.52831,-34.547848],[-58.528064,-34.54744],[-58.528053,-34.547422]],"type":"LineString"},"properties":{"school_id":"pizarnik","school_name":"Escuela Pizarnik","linea":"161","walk_m":360,"source":"Asignacion exploratoria estudiante-parada aproximada","access_id":"access_route_38","route_distance_m":515,"route_duration_s":69,"straight_distance_m":360,"routing_source":"OSRM foot; ruta peatonal aproximada por red vial"}},{"type":"Feature","geometry":{"coordinates":[[-58.526707,-34.544952],[-58.526615,-34.545055],[-58.526686,-34.545094],[-58.526725,-34.545123],[-58.526751,-34.545147],[-58.526807,-34.545234],[-58.526882,-34.545369],[-58.526916,-34.545428],[-58.527048,-34.545656],[-58.52734,-34.546164],[-58.527414,-34.546292],[-58.527459,-34.54637],[-58.527499,-34.54644],[-58.52767,-34.546771],[-58.527774,-34.546953],[-58.527893,-34.547154],[-58.528053,-34.547422]],"type":"LineString"},"properties":{"school_id":"pizarnik","school_name":"Escuela Pizarnik","linea":"161","walk_m":290,"source":"Asignacion exploratoria estudiante-parada aproximada","access_id":"access_route_39","route_distance_m":310,"route_duration_s":24,"straight_distance_m":290,"routing_source":"OSRM foot; ruta peatonal aproximada por red vial"}},{"type":"Feature","geometry":{"coordinates":[[-58.528406,-34.544342],[-58.528053,-34.544689],[-58.527048,-34.545656],[-58.52734,-34.546164],[-58.527414,-34.546292],[-58.527459,-34.54637],[-58.527499,-34.54644],[-58.52767,-34.546771],[-58.527774,-34.546953],[-58.527893,-34.547154],[-58.528053,-34.547422]],"type":"LineString"},"properties":{"school_id":"pizarnik","school_name":"Escuela Pizarnik","linea":"161","walk_m":346,"source":"Asignacion exploratoria estudiante-parada aproximada","access_id":"access_route_40","route_distance_m":408,"route_duration_s":36,"straight_distance_m":346,"routing_source":"OSRM foot; ruta peatonal aproximada por red vial"}},{"type":"Feature","geometry":{"coordinates":[[-58.530441,-34.544809],[-58.530572,-34.544903],[-58.530405,-34.545069],[-58.530243,-34.545231],[-58.529695,-34.545769],[-58.529669,-34.545816],[-58.529353,-34.546099],[-58.529568,-34.54629],[-58.528683,-34.547078],[-58.52837,-34.547295],[-58.528064,-34.54744],[-58.528053,-34.547422]],"type":"LineString"},"properties":{"school_id":"pizarnik","school_name":"Escuela Pizarnik","linea":"161","walk_m":371,"source":"Asignacion exploratoria estudiante-parada aproximada","access_id":"access_route_41","route_distance_m":410,"route_duration_s":62,"straight_distance_m":371,"routing_source":"OSRM foot; ruta peatonal aproximada por red vial"}},{"type":"Feature","geometry":{"coordinates":[[-58.527404,-34.551049],[-58.527324,-34.551148],[-58.526918,-34.551643],[-58.527892,-34.552179],[-58.528867,-34.552723],[-58.529752,-34.553213],[-58.529825,-34.553276],[-58.530704,-34.552226],[-58.53075,-34.552173]],"type":"LineString"},"properties":{"school_id":"pizarnik","school_name":"Escuela Pizarnik","linea":"161","walk_m":316,"source":"Asignacion exploratoria estudiante-parada aproximada","access_id":"access_route_42","route_distance_m":551,"route_duration_s":68,"straight_distance_m":316,"routing_source":"OSRM foot; ruta peatonal aproximada por red vial"}},{"type":"Feature","geometry":{"coordinates":[[-58.532277,-34.547293],[-58.531813,-34.546974],[-58.53146,-34.547236],[-58.530981,-34.546795],[-58.53051,-34.54636],[-58.530088,-34.546699],[-58.529057,-34.547516],[-58.528728,-34.547749],[-58.528412,-34.547903],[-58.528357,-34.547929],[-58.528335,-34.547892],[-58.52831,-34.547848],[-58.528064,-34.54744],[-58.528053,-34.547422]],"type":"LineString"},"properties":{"school_id":"pizarnik","school_name":"Escuela Pizarnik","linea":"161","walk_m":387,"source":"Asignacion exploratoria estudiante-parada aproximada","access_id":"access_route_43","route_distance_m":557,"route_duration_s":75,"straight_distance_m":387,"routing_source":"OSRM foot; ruta peatonal aproximada por red vial"}},{"type":"Feature","geometry":{"coordinates":[[-58.527368,-34.551094],[-58.527324,-34.551148],[-58.526918,-34.551643],[-58.527892,-34.552179],[-58.528867,-34.552723],[-58.529752,-34.553213],[-58.529825,-34.553276],[-58.530704,-34.552226],[-58.53075,-34.552173]],"type":"LineString"},"properties":{"school_id":"pizarnik","school_name":"Escuela Pizarnik","linea":"161","walk_m":332,"source":"Asignacion exploratoria estudiante-parada aproximada","access_id":"access_route_44","route_distance_m":545,"route_duration_s":67,"straight_distance_m":332,"routing_source":"OSRM foot; ruta peatonal aproximada por red vial"}},{"type":"Feature","geometry":{"coordinates":[[-58.532057,-34.546785],[-58.531813,-34.546974],[-58.53146,-34.547236],[-58.530981,-34.546795],[-58.53051,-34.54636],[-58.530088,-34.546699],[-58.529057,-34.547516],[-58.528728,-34.547749],[-58.528412,-34.547903],[-58.528357,-34.547929],[-58.528335,-34.547892],[-58.52831,-34.547848],[-58.528064,-34.54744],[-58.528053,-34.547422]],"type":"LineString"},"properties":{"school_id":"pizarnik","school_name":"Escuela Pizarnik","linea":"161","walk_m":372,"source":"Asignacion exploratoria estudiante-parada aproximada","access_id":"access_route_45","route_distance_m":532,"route_duration_s":69,"straight_distance_m":372,"routing_source":"OSRM foot; ruta peatonal aproximada por red vial"}},{"type":"Feature","geometry":{"coordinates":[[-58.531974,-34.546849],[-58.531813,-34.546974],[-58.53146,-34.547236],[-58.530981,-34.546795],[-58.53051,-34.54636],[-58.530088,-34.546699],[-58.529057,-34.547516],[-58.528728,-34.547749],[-58.528412,-34.547903],[-58.528357,-34.547929],[-58.528335,-34.547892],[-58.52831,-34.547848],[-58.528064,-34.54744],[-58.528053,-34.547422]],"type":"LineString"},"properties":{"school_id":"pizarnik","school_name":"Escuela Pizarnik","linea":"161","walk_m":362,"source":"Asignacion exploratoria estudiante-parada aproximada","access_id":"access_route_46","route_distance_m":522,"route_duration_s":68,"straight_distance_m":362,"routing_source":"OSRM foot; ruta peatonal aproximada por red vial"}},{"type":"Feature","geometry":{"coordinates":[[-58.554109,-34.539705],[-58.553227,-34.540417],[-58.551973,-34.541418]],"type":"LineString"},"properties":{"school_id":"pizarnik","school_name":"Escuela Pizarnik","linea":"78","walk_m":273,"source":"Asignacion exploratoria estudiante-parada aproximada","access_id":"access_route_47","route_distance_m":273,"route_duration_s":31,"straight_distance_m":273,"routing_source":"OSRM foot; ruta peatonal aproximada por red vial"}},{"type":"Feature","geometry":{"coordinates":[[-58.524167,-34.55108],[-58.524578,-34.550445],[-58.524733,-34.550084],[-58.524747,-34.550051],[-58.524803,-34.54989],[-58.52498,-34.549383],[-58.525101,-34.549038],[-58.525156,-34.548901],[-58.525309,-34.548497],[-58.525442,-34.548144],[-58.525666,-34.547546],[-58.525961,-34.546738],[-58.525991,-34.546654],[-58.526068,-34.546443],[-58.526248,-34.545957],[-58.52653,-34.545197],[-58.526567,-34.545123],[-58.526615,-34.545055],[-58.526686,-34.545094],[-58.526725,-34.545123],[-58.526751,-34.545147],[-58.526807,-34.545234],[-58.526882,-34.545369],[-58.526916,-34.545428],[-58.527048,-34.545656],[-58.52734,-34.546164],[-58.527414,-34.546292],[-58.527459,-34.54637],[-58.527499,-34.54644],[-58.52767,-34.546771],[-58.527774,-34.546953],[-58.527893,-34.547154],[-58.528053,-34.547422]],"type":"LineString"},"properties":{"school_id":"pizarnik","school_name":"Escuela Pizarnik","linea":"161","walk_m":539,"source":"Asignacion exploratoria estudiante-parada aproximada","access_id":"access_route_48","route_distance_m":1002,"route_duration_s":82,"straight_distance_m":539,"routing_source":"OSRM foot; ruta peatonal aproximada por red vial"}},{"type":"Feature","geometry":{"coordinates":[[-58.524302,-34.552252],[-58.524499,-34.552351],[-58.524726,-34.552465],[-58.524958,-34.552587],[-58.525188,-34.552706],[-58.525791,-34.553022],[-58.526687,-34.553524],[-58.526739,-34.55358],[-58.526783,-34.553629],[-58.527895,-34.554264],[-58.528118,-34.55412],[-58.528591,-34.55383],[-58.528775,-34.553728],[-58.529647,-34.553352],[-58.529825,-34.553276],[-58.530704,-34.552226],[-58.530769,-34.552151],[-58.531272,-34.55305],[-58.531337,-34.553169],[-58.531294,-34.553167]],"type":"LineString"},"properties":{"school_id":"pizarnik","school_name":"Escuela Pizarnik","linea":"161","walk_m":651,"source":"Asignacion exploratoria estudiante-parada aproximada","access_id":"access_route_49","route_distance_m":888,"route_duration_s":119,"straight_distance_m":651,"routing_source":"OSRM foot; ruta peatonal aproximada por red vial"}},{"type":"Feature","geometry":{"coordinates":[[-58.533566,-34.548564],[-58.533233,-34.548696],[-58.532295,-34.549068],[-58.530939,-34.549606],[-58.529674,-34.550107],[-58.529605,-34.550134],[-58.530091,-34.550976],[-58.530187,-34.551143],[-58.530274,-34.551301],[-58.53071,-34.552049],[-58.530769,-34.552151],[-58.531272,-34.55305],[-58.531337,-34.553169],[-58.530657,-34.553135],[-58.530604,-34.553133],[-58.530536,-34.553137],[-58.530405,-34.553161],[-58.530424,-34.553214],[-58.530427,-34.553237],[-58.530422,-34.553261],[-58.530221,-34.553512],[-58.530168,-34.553517],[-58.530052,-34.553518],[-58.529998,-34.553497],[-58.529934,-34.553454],[-58.52988,-34.553369],[-58.529825,-34.553276],[-58.530704,-34.552226],[-58.53075,-34.552173]],"type":"LineString"},"properties":{"school_id":"pizarnik","school_name":"Escuela Pizarnik","linea":"161","walk_m":482,"source":"Asignacion exploratoria estudiante-parada aproximada","access_id":"access_route_50","route_distance_m":1106,"route_duration_s":137,"straight_distance_m":482,"routing_source":"OSRM foot; ruta peatonal aproximada por red vial"}},{"type":"Feature","geometry":{"coordinates":[[-58.52566,-34.553177],[-58.525791,-34.553022],[-58.526918,-34.551643],[-58.527324,-34.551148],[-58.527539,-34.550883],[-58.527766,-34.550607],[-58.527843,-34.550513],[-58.528812,-34.551064],[-58.529783,-34.551612],[-58.530568,-34.552056],[-58.530622,-34.552066],[-58.53071,-34.552049],[-58.530769,-34.552151],[-58.531272,-34.55305],[-58.531337,-34.553169],[-58.531294,-34.553167]],"type":"LineString"},"properties":{"school_id":"pizarnik","school_name":"Escuela Pizarnik","linea":"161","walk_m":525,"source":"Asignacion exploratoria estudiante-parada aproximada","access_id":"access_route_51","route_distance_m":814,"route_duration_s":102,"straight_distance_m":525,"routing_source":"OSRM foot; ruta peatonal aproximada por red vial"}},{"type":"Feature","geometry":{"coordinates":[[-58.531724,-34.54704],[-58.53146,-34.547236],[-58.530981,-34.546795],[-58.53051,-34.54636],[-58.530088,-34.546699],[-58.529057,-34.547516],[-58.528728,-34.547749],[-58.528412,-34.547903],[-58.528357,-34.547929],[-58.528335,-34.547892],[-58.52831,-34.547848],[-58.528064,-34.54744],[-58.528053,-34.547422]],"type":"LineString"},"properties":{"school_id":"pizarnik","school_name":"Escuela Pizarnik","linea":"161","walk_m":345,"source":"Asignacion exploratoria estudiante-parada aproximada","access_id":"access_route_52","route_distance_m":490,"route_duration_s":65,"straight_distance_m":345,"routing_source":"OSRM foot; ruta peatonal aproximada por red vial"}},{"type":"Feature","geometry":{"coordinates":[[-58.566221,-34.543805],[-58.565738,-34.543394],[-58.566301,-34.542929],[-58.566208,-34.542857],[-58.566172,-34.542826],[-58.566033,-34.542716],[-58.564746,-34.543752],[-58.563449,-34.544788],[-58.562158,-34.545828],[-58.561359,-34.545163],[-58.560506,-34.544424],[-58.559629,-34.543676],[-58.558458,-34.544624],[-58.558339,-34.544721],[-58.559213,-34.545455]],"type":"LineString"},"properties":{"school_id":"pizarnik","school_name":"Escuela Pizarnik","linea":"78","walk_m":675,"source":"Asignacion exploratoria estudiante-parada aproximada","access_id":"access_route_53","route_distance_m":1280,"route_duration_s":168,"straight_distance_m":675,"routing_source":"OSRM foot; ruta peatonal aproximada por red vial"}},{"type":"Feature","geometry":{"coordinates":[[-58.53084,-34.549432],[-58.530939,-34.549606],[-58.531523,-34.550605],[-58.530235,-34.551109],[-58.530187,-34.551143],[-58.53011,-34.551205],[-58.529783,-34.551612],[-58.528867,-34.552723],[-58.529752,-34.553213],[-58.529825,-34.553276],[-58.530704,-34.552226],[-58.53075,-34.552173]],"type":"LineString"},"properties":{"school_id":"pizarnik","school_name":"Escuela Pizarnik","linea":"161","walk_m":307,"source":"Asignacion exploratoria estudiante-parada aproximada","access_id":"access_route_54","route_distance_m":751,"route_duration_s":102,"straight_distance_m":307,"routing_source":"OSRM foot; ruta peatonal aproximada por red vial"}},{"type":"Feature","geometry":{"coordinates":[[-58.535515,-34.546596],[-58.535327,-34.546737],[-58.534687,-34.546158],[-58.533864,-34.545413],[-58.533041,-34.546025],[-58.532899,-34.546133],[-58.531813,-34.546974],[-58.53146,-34.547236],[-58.530981,-34.546795],[-58.53051,-34.54636],[-58.530088,-34.546699],[-58.529057,-34.547516],[-58.528728,-34.547749],[-58.528412,-34.547903],[-58.528357,-34.547929],[-58.528335,-34.547892],[-58.52831,-34.547848],[-58.528064,-34.54744],[-58.528053,-34.547422]],"type":"LineString"},"properties":{"school_id":"pizarnik","school_name":"Escuela Pizarnik","linea":"161","walk_m":698,"source":"Asignacion exploratoria estudiante-parada aproximada","access_id":"access_route_55","route_distance_m":979,"route_duration_s":128,"straight_distance_m":698,"routing_source":"OSRM foot; ruta peatonal aproximada por red vial"}},{"type":"Feature","geometry":{"coordinates":[[-58.530666,-34.544812],[-58.530572,-34.544903],[-58.530405,-34.545069],[-58.530243,-34.545231],[-58.529695,-34.545769],[-58.529669,-34.545816],[-58.529353,-34.546099],[-58.529568,-34.54629],[-58.528683,-34.547078],[-58.52837,-34.547295],[-58.528064,-34.54744],[-58.528053,-34.547422]],"type":"LineString"},"properties":{"school_id":"pizarnik","school_name":"Escuela Pizarnik","linea":"161","walk_m":378,"source":"Asignacion exploratoria estudiante-parada aproximada","access_id":"access_route_56","route_distance_m":408,"route_duration_s":56,"straight_distance_m":378,"routing_source":"OSRM foot; ruta peatonal aproximada por red vial"}},{"type":"Feature","geometry":{"coordinates":[[-58.533618,-34.544792],[-58.532435,-34.545699],[-58.531941,-34.545272],[-58.53051,-34.54636],[-58.530088,-34.546699],[-58.529057,-34.547516],[-58.528728,-34.547749],[-58.528412,-34.547903],[-58.528357,-34.547929],[-58.528335,-34.547892],[-58.52831,-34.547848],[-58.528064,-34.54744],[-58.528053,-34.547422]],"type":"LineString"},"properties":{"school_id":"pizarnik","school_name":"Escuela Pizarnik","linea":"161","walk_m":589,"source":"Asignacion exploratoria estudiante-parada aproximada","access_id":"access_route_57","route_distance_m":719,"route_duration_s":93,"straight_distance_m":589,"routing_source":"OSRM foot; ruta peatonal aproximada por red vial"}},{"type":"Feature","geometry":{"coordinates":[[-58.524716,-34.548501],[-58.524853,-34.548285],[-58.525431,-34.547448],[-58.525666,-34.547546],[-58.525961,-34.546738],[-58.525991,-34.546654],[-58.526068,-34.546443],[-58.526248,-34.545957],[-58.52653,-34.545197],[-58.526567,-34.545123],[-58.526615,-34.545055],[-58.526686,-34.545094],[-58.526725,-34.545123],[-58.526751,-34.545147],[-58.526807,-34.545234],[-58.526882,-34.545369],[-58.526916,-34.545428],[-58.527048,-34.545656],[-58.52734,-34.546164],[-58.527414,-34.546292],[-58.527459,-34.54637],[-58.527499,-34.54644],[-58.52767,-34.546771],[-58.527774,-34.546953],[-58.527893,-34.547154],[-58.528053,-34.547422]],"type":"LineString"},"properties":{"school_id":"pizarnik","school_name":"Escuela Pizarnik","linea":"161","walk_m":321,"source":"Asignacion exploratoria estudiante-parada aproximada","access_id":"access_route_58","route_distance_m":744,"route_duration_s":74,"straight_distance_m":321,"routing_source":"OSRM foot; ruta peatonal aproximada por red vial"}},{"type":"Feature","geometry":{"coordinates":[[-58.532767,-34.54763],[-58.532749,-34.547617],[-58.531813,-34.546974],[-58.53146,-34.547236],[-58.530981,-34.546795],[-58.53051,-34.54636],[-58.530088,-34.546699],[-58.529057,-34.547516],[-58.528728,-34.547749],[-58.528412,-34.547903],[-58.528357,-34.547929],[-58.528335,-34.547892],[-58.52831,-34.547848],[-58.528064,-34.54744],[-58.528053,-34.547422]],"type":"LineString"},"properties":{"school_id":"pizarnik","school_name":"Escuela Pizarnik","linea":"161","walk_m":429,"source":"Asignacion exploratoria estudiante-parada aproximada","access_id":"access_route_59","route_distance_m":615,"route_duration_s":84,"straight_distance_m":429,"routing_source":"OSRM foot; ruta peatonal aproximada por red vial"}},{"type":"Feature","geometry":{"coordinates":[[-58.525026,-34.553226],[-58.525448,-34.553429],[-58.525791,-34.553022],[-58.526918,-34.551643],[-58.527324,-34.551148],[-58.527539,-34.550883],[-58.527766,-34.550607],[-58.527843,-34.550513],[-58.528812,-34.551064],[-58.529783,-34.551612],[-58.530568,-34.552056],[-58.530622,-34.552066],[-58.53071,-34.552049],[-58.530769,-34.552151],[-58.531272,-34.55305],[-58.531337,-34.553169],[-58.531294,-34.553167]],"type":"LineString"},"properties":{"school_id":"pizarnik","school_name":"Escuela Pizarnik","linea":"161","walk_m":640,"source":"Asignacion exploratoria estudiante-parada aproximada","access_id":"access_route_60","route_distance_m":893,"route_duration_s":114,"straight_distance_m":640,"routing_source":"OSRM foot; ruta peatonal aproximada por red vial"}},{"type":"Feature","geometry":{"coordinates":[[-58.531904,-34.547037],[-58.531813,-34.546974],[-58.53146,-34.547236],[-58.530981,-34.546795],[-58.53051,-34.54636],[-58.530088,-34.546699],[-58.529057,-34.547516],[-58.528728,-34.547749],[-58.528412,-34.547903],[-58.528357,-34.547929],[-58.528335,-34.547892],[-58.52831,-34.547848],[-58.528064,-34.54744],[-58.528053,-34.547422]],"type":"LineString"},"properties":{"school_id":"pizarnik","school_name":"Escuela Pizarnik","linea":"161","walk_m":355,"source":"Asignacion exploratoria estudiante-parada aproximada","access_id":"access_route_61","route_distance_m":512,"route_duration_s":69,"straight_distance_m":355,"routing_source":"OSRM foot; ruta peatonal aproximada por red vial"}},{"type":"Feature","geometry":{"coordinates":[[-58.533993,-34.54553],[-58.533864,-34.545413],[-58.533041,-34.546025],[-58.532899,-34.546133],[-58.531813,-34.546974],[-58.53146,-34.547236],[-58.530981,-34.546795],[-58.53051,-34.54636],[-58.530088,-34.546699],[-58.529057,-34.547516],[-58.528728,-34.547749],[-58.528412,-34.547903],[-58.528357,-34.547929],[-58.528335,-34.547892],[-58.52831,-34.547848],[-58.528064,-34.54744],[-58.528053,-34.547422]],"type":"LineString"},"properties":{"school_id":"pizarnik","school_name":"Escuela Pizarnik","linea":"161","walk_m":587,"source":"Asignacion exploratoria estudiante-parada aproximada","access_id":"access_route_62","route_distance_m":775,"route_duration_s":94,"straight_distance_m":587,"routing_source":"OSRM foot; ruta peatonal aproximada por red vial"}},{"type":"Feature","geometry":{"coordinates":[[-58.527507,-34.550923],[-58.527324,-34.551148],[-58.526918,-34.551643],[-58.527892,-34.552179],[-58.528867,-34.552723],[-58.529752,-34.553213],[-58.529825,-34.553276],[-58.530704,-34.552226],[-58.53075,-34.552173]],"type":"LineString"},"properties":{"school_id":"pizarnik","school_name":"Escuela Pizarnik","linea":"161","walk_m":311,"source":"Asignacion exploratoria estudiante-parada aproximada","access_id":"access_route_63","route_distance_m":568,"route_duration_s":70,"straight_distance_m":311,"routing_source":"OSRM foot; ruta peatonal aproximada por red vial"}},{"type":"Feature","geometry":{"coordinates":[[-58.529538,-34.547135],[-58.529057,-34.547516],[-58.528728,-34.547749],[-58.528412,-34.547903],[-58.528357,-34.547929],[-58.528335,-34.547892],[-58.52831,-34.547848],[-58.528064,-34.54744],[-58.528053,-34.547422]],"type":"LineString"},"properties":{"school_id":"pizarnik","school_name":"Escuela Pizarnik","linea":"161","walk_m":144,"source":"Asignacion exploratoria estudiante-parada aproximada","access_id":"access_route_64","route_distance_m":203,"route_duration_s":26,"straight_distance_m":144,"routing_source":"OSRM foot; ruta peatonal aproximada por red vial"}},{"type":"Feature","geometry":{"coordinates":[[-58.523696,-34.55196],[-58.523612,-34.551921],[-58.524094,-34.551192],[-58.524145,-34.551114],[-58.524578,-34.550445],[-58.524733,-34.550084],[-58.524747,-34.550051],[-58.524803,-34.54989],[-58.52498,-34.549383],[-58.525101,-34.549038],[-58.525156,-34.548901],[-58.525309,-34.548497],[-58.525442,-34.548144],[-58.525666,-34.547546],[-58.525961,-34.546738],[-58.525991,-34.546654],[-58.526068,-34.546443],[-58.526248,-34.545957],[-58.52653,-34.545197],[-58.526567,-34.545123],[-58.526615,-34.545055],[-58.526686,-34.545094],[-58.526725,-34.545123],[-58.526751,-34.545147],[-58.526807,-34.545234],[-58.526882,-34.545369],[-58.526916,-34.545428],[-58.527048,-34.545656],[-58.52734,-34.546164],[-58.527414,-34.546292],[-58.527459,-34.54637],[-58.527499,-34.54644],[-58.52767,-34.546771],[-58.527774,-34.546953],[-58.527893,-34.547154],[-58.528053,-34.547422]],"type":"LineString"},"properties":{"school_id":"pizarnik","school_name":"Escuela Pizarnik","linea":"161","walk_m":647,"source":"Asignacion exploratoria estudiante-parada aproximada","access_id":"access_route_65","route_distance_m":1117,"route_duration_s":97,"straight_distance_m":647,"routing_source":"OSRM foot; ruta peatonal aproximada por red vial"}},{"type":"Feature","geometry":{"coordinates":[[-58.526085,-34.5512],[-58.52628,-34.5513],[-58.526319,-34.551319],[-58.526367,-34.551346],[-58.526918,-34.551643],[-58.527324,-34.551148],[-58.527539,-34.550883],[-58.527766,-34.550607],[-58.527843,-34.550513],[-58.528299,-34.54995],[-58.528533,-34.549658],[-58.528941,-34.549163],[-58.529022,-34.549093],[-58.528938,-34.548949],[-58.528904,-34.54889],[-58.528843,-34.548782],[-58.528763,-34.548639],[-58.528653,-34.548444],[-58.528387,-34.547983],[-58.528366,-34.547944],[-58.528357,-34.547929],[-58.528335,-34.547892],[-58.52831,-34.547848],[-58.528064,-34.54744],[-58.528053,-34.547422]],"type":"LineString"},"properties":{"school_id":"pizarnik","school_name":"Escuela Pizarnik","linea":"161","walk_m":461,"source":"Asignacion exploratoria estudiante-parada aproximada","access_id":"access_route_66","route_distance_m":639,"route_duration_s":67,"straight_distance_m":461,"routing_source":"OSRM foot; ruta peatonal aproximada por red vial"}},{"type":"Feature","geometry":{"coordinates":[[-58.526535,-34.545187],[-58.526567,-34.545123],[-58.526615,-34.545055],[-58.526686,-34.545094],[-58.526725,-34.545123],[-58.526751,-34.545147],[-58.526807,-34.545234],[-58.526882,-34.545369],[-58.526916,-34.545428],[-58.527048,-34.545656],[-58.52734,-34.546164],[-58.527414,-34.546292],[-58.527459,-34.54637],[-58.527499,-34.54644],[-58.52767,-34.546771],[-58.527774,-34.546953],[-58.527893,-34.547154],[-58.528053,-34.547422]],"type":"LineString"},"properties":{"school_id":"pizarnik","school_name":"Escuela Pizarnik","linea":"161","walk_m":288,"source":"Asignacion exploratoria estudiante-parada aproximada","access_id":"access_route_67","route_distance_m":312,"route_duration_s":29,"straight_distance_m":288,"routing_source":"OSRM foot; ruta peatonal aproximada por red vial"}},{"type":"Feature","geometry":{"coordinates":[[-58.527515,-34.550913],[-58.527324,-34.551148],[-58.526918,-34.551643],[-58.527892,-34.552179],[-58.528867,-34.552723],[-58.529752,-34.553213],[-58.529825,-34.553276],[-58.530704,-34.552226],[-58.53075,-34.552173]],"type":"LineString"},"properties":{"school_id":"pizarnik","school_name":"Escuela Pizarnik","linea":"161","walk_m":327,"source":"Asignacion exploratoria estudiante-parada aproximada","access_id":"access_route_68","route_distance_m":569,"route_duration_s":70,"straight_distance_m":327,"routing_source":"OSRM foot; ruta peatonal aproximada por red vial"}},{"type":"Feature","geometry":{"coordinates":[[-58.528116,-34.546748],[-58.527971,-34.546853],[-58.527774,-34.546953],[-58.527893,-34.547154],[-58.528053,-34.547422]],"type":"LineString"},"properties":{"school_id":"pizarnik","school_name":"Escuela Pizarnik","linea":"161","walk_m":77,"source":"Asignacion exploratoria estudiante-parada aproximada","access_id":"access_route_69","route_distance_m":97,"route_duration_s":10,"straight_distance_m":77,"routing_source":"OSRM foot; ruta peatonal aproximada por red vial"}},{"type":"Feature","geometry":{"coordinates":[[-58.533131,-34.546107],[-58.533861,-34.54677],[-58.534687,-34.546158],[-58.533864,-34.545413],[-58.533041,-34.546025],[-58.532899,-34.546133],[-58.531813,-34.546974],[-58.53146,-34.547236],[-58.530981,-34.546795],[-58.53051,-34.54636],[-58.530088,-34.546699],[-58.529057,-34.547516],[-58.528728,-34.547749],[-58.528412,-34.547903],[-58.528357,-34.547929],[-58.528335,-34.547892],[-58.52831,-34.547848],[-58.528064,-34.54744],[-58.528053,-34.547422]],"type":"LineString"},"properties":{"school_id":"pizarnik","school_name":"Escuela Pizarnik","linea":"161","walk_m":479,"source":"Asignacion exploratoria estudiante-parada aproximada","access_id":"access_route_70","route_distance_m":1070,"route_duration_s":137,"straight_distance_m":479,"routing_source":"OSRM foot; ruta peatonal aproximada por red vial"}},{"type":"Feature","geometry":{"coordinates":[[-58.527876,-34.54608],[-58.528787,-34.545201],[-58.528886,-34.545238],[-58.52937,-34.545538],[-58.528167,-34.546711],[-58.527971,-34.546853],[-58.527774,-34.546953],[-58.527893,-34.547154],[-58.528053,-34.547422]],"type":"LineString"},"properties":{"school_id":"pizarnik","school_name":"Escuela Pizarnik","linea":"161","walk_m":153,"source":"Asignacion exploratoria estudiante-parada aproximada","access_id":"access_route_71","route_distance_m":468,"route_duration_s":60,"straight_distance_m":153,"routing_source":"OSRM foot; ruta peatonal aproximada por red vial"}},{"type":"Feature","geometry":{"coordinates":[[-58.532034,-34.547125],[-58.531813,-34.546974],[-58.53146,-34.547236],[-58.530981,-34.546795],[-58.53051,-34.54636],[-58.530088,-34.546699],[-58.529057,-34.547516],[-58.528728,-34.547749],[-58.528412,-34.547903],[-58.528357,-34.547929],[-58.528335,-34.547892],[-58.52831,-34.547848],[-58.528064,-34.54744],[-58.528053,-34.547422]],"type":"LineString"},"properties":{"school_id":"pizarnik","school_name":"Escuela Pizarnik","linea":"161","walk_m":384,"source":"Asignacion exploratoria estudiante-parada aproximada","access_id":"access_route_72","route_distance_m":528,"route_duration_s":71,"straight_distance_m":384,"routing_source":"OSRM foot; ruta peatonal aproximada por red vial"}},{"type":"Feature","geometry":{"coordinates":[[-58.523023,-34.550015],[-58.523178,-34.549777],[-58.522112,-34.549274],[-58.521658,-34.549947],[-58.52274,-34.55045],[-58.524145,-34.551114],[-58.524578,-34.550445],[-58.524733,-34.550084],[-58.524747,-34.550051],[-58.524803,-34.54989],[-58.52498,-34.549383],[-58.525101,-34.549038],[-58.525156,-34.548901],[-58.525309,-34.548497],[-58.525442,-34.548144],[-58.525666,-34.547546],[-58.525961,-34.546738],[-58.525991,-34.546654],[-58.526068,-34.546443],[-58.526248,-34.545957],[-58.52653,-34.545197],[-58.526567,-34.545123],[-58.526615,-34.545055],[-58.526686,-34.545094],[-58.526725,-34.545123],[-58.526751,-34.545147],[-58.526807,-34.545234],[-58.526882,-34.545369],[-58.526916,-34.545428],[-58.527048,-34.545656],[-58.52734,-34.546164],[-58.527414,-34.546292],[-58.527459,-34.54637],[-58.527499,-34.54644],[-58.52767,-34.546771],[-58.527774,-34.546953],[-58.527893,-34.547154],[-58.528053,-34.547422]],"type":"LineString"},"properties":{"school_id":"pizarnik","school_name":"Escuela Pizarnik","linea":"161","walk_m":539,"source":"Asignacion exploratoria estudiante-parada aproximada","access_id":"access_route_73","route_distance_m":1497,"route_duration_s":143,"straight_distance_m":539,"routing_source":"OSRM foot; ruta peatonal aproximada por red vial"}},{"type":"Feature","geometry":{"coordinates":[[-58.528027,-34.545934],[-58.528787,-34.545201],[-58.528886,-34.545238],[-58.52937,-34.545538],[-58.528167,-34.546711],[-58.527971,-34.546853],[-58.527774,-34.546953],[-58.527893,-34.547154],[-58.528053,-34.547422]],"type":"LineString"},"properties":{"school_id":"pizarnik","school_name":"Escuela Pizarnik","linea":"161","walk_m":167,"source":"Asignacion exploratoria estudiante-parada aproximada","access_id":"access_route_74","route_distance_m":446,"route_duration_s":58,"straight_distance_m":167,"routing_source":"OSRM foot; ruta peatonal aproximada por red vial"}},{"type":"Feature","geometry":{"coordinates":[[-58.523326,-34.546586],[-58.52299,-34.547112],[-58.522852,-34.547356],[-58.523496,-34.547656],[-58.524206,-34.547985],[-58.524853,-34.548285],[-58.525309,-34.548497],[-58.525442,-34.548144],[-58.525666,-34.547546],[-58.525961,-34.546738],[-58.525991,-34.546654],[-58.526068,-34.546443],[-58.526248,-34.545957],[-58.52653,-34.545197],[-58.526567,-34.545123],[-58.526615,-34.545055],[-58.526686,-34.545094],[-58.526725,-34.545123],[-58.526751,-34.545147],[-58.526807,-34.545234],[-58.526882,-34.545369],[-58.526916,-34.545428],[-58.527048,-34.545656],[-58.52734,-34.546164],[-58.527414,-34.546292],[-58.527459,-34.54637],[-58.527499,-34.54644],[-58.52767,-34.546771],[-58.527774,-34.546953],[-58.527893,-34.547154],[-58.528053,-34.547422]],"type":"LineString"},"properties":{"school_id":"pizarnik","school_name":"Escuela Pizarnik","linea":"161","walk_m":453,"source":"Asignacion exploratoria estudiante-parada aproximada","access_id":"access_route_75","route_distance_m":1051,"route_duration_s":102,"straight_distance_m":453,"routing_source":"OSRM foot; ruta peatonal aproximada por red vial"}},{"type":"Feature","geometry":{"coordinates":[[-58.525272,-34.550792],[-58.525599,-34.550947],[-58.525801,-34.551054],[-58.52628,-34.5513],[-58.526319,-34.551319],[-58.526367,-34.551346],[-58.526918,-34.551643],[-58.527324,-34.551148],[-58.527539,-34.550883],[-58.527766,-34.550607],[-58.527843,-34.550513],[-58.528299,-34.54995],[-58.528533,-34.549658],[-58.528941,-34.549163],[-58.529022,-34.549093],[-58.528938,-34.548949],[-58.528904,-34.54889],[-58.528843,-34.548782],[-58.528763,-34.548639],[-58.528653,-34.548444],[-58.528387,-34.547983],[-58.528366,-34.547944],[-58.528357,-34.547929],[-58.528335,-34.547892],[-58.52831,-34.547848],[-58.528064,-34.54744],[-58.528053,-34.547422]],"type":"LineString"},"properties":{"school_id":"pizarnik","school_name":"Escuela Pizarnik","linea":"161","walk_m":460,"source":"Asignacion exploratoria estudiante-parada aproximada","access_id":"access_route_76","route_distance_m":726,"route_duration_s":77,"straight_distance_m":460,"routing_source":"OSRM foot; ruta peatonal aproximada por red vial"}},{"type":"Feature","geometry":{"coordinates":[[-58.531878,-34.547019],[-58.531813,-34.546974],[-58.53146,-34.547236],[-58.530981,-34.546795],[-58.53051,-34.54636],[-58.530088,-34.546699],[-58.529057,-34.547516],[-58.528728,-34.547749],[-58.528412,-34.547903],[-58.528357,-34.547929],[-58.528335,-34.547892],[-58.52831,-34.547848],[-58.528064,-34.54744],[-58.528053,-34.547422]],"type":"LineString"},"properties":{"school_id":"pizarnik","school_name":"Escuela Pizarnik","linea":"161","walk_m":353,"source":"Asignacion exploratoria estudiante-parada aproximada","access_id":"access_route_77","route_distance_m":509,"route_duration_s":68,"straight_distance_m":353,"routing_source":"OSRM foot; ruta peatonal aproximada por red vial"}},{"type":"Feature","geometry":{"coordinates":[[-58.526731,-34.543041],[-58.526642,-34.543171],[-58.527794,-34.543745],[-58.528224,-34.543272],[-58.528276,-34.543218],[-58.529089,-34.542365],[-58.528794,-34.542236],[-58.527673,-34.541709],[-58.527653,-34.541736]],"type":"LineString"},"properties":{"school_id":"pizarnik","school_name":"Escuela Pizarnik","linea":"161","walk_m":168,"source":"Asignacion exploratoria estudiante-parada aproximada","access_id":"access_route_78","route_distance_m":486,"route_duration_s":49,"straight_distance_m":168,"routing_source":"OSRM foot; ruta peatonal aproximada por red vial"}},{"type":"Feature","geometry":{"coordinates":[[-58.524386,-34.552294],[-58.524499,-34.552351],[-58.524726,-34.552465],[-58.524958,-34.552587],[-58.525188,-34.552706],[-58.525791,-34.553022],[-58.526687,-34.553524],[-58.526739,-34.55358],[-58.526783,-34.553629],[-58.527895,-34.554264],[-58.528118,-34.55412],[-58.528591,-34.55383],[-58.528775,-34.553728],[-58.529647,-34.553352],[-58.529825,-34.553276],[-58.530704,-34.552226],[-58.530769,-34.552151],[-58.531272,-34.55305],[-58.531337,-34.553169],[-58.531294,-34.553167]],"type":"LineString"},"properties":{"school_id":"pizarnik","school_name":"Escuela Pizarnik","linea":"161","walk_m":643,"source":"Asignacion exploratoria estudiante-parada aproximada","access_id":"access_route_79","route_distance_m":879,"route_duration_s":118,"straight_distance_m":643,"routing_source":"OSRM foot; ruta peatonal aproximada por red vial"}},{"type":"Feature","geometry":{"coordinates":[[-58.529032,-34.543955],[-58.528906,-34.543852],[-58.528053,-34.544689],[-58.527048,-34.545656],[-58.52734,-34.546164],[-58.527414,-34.546292],[-58.527459,-34.54637],[-58.527499,-34.54644],[-58.52767,-34.546771],[-58.527774,-34.546953],[-58.527893,-34.547154],[-58.528053,-34.547422]],"type":"LineString"},"properties":{"school_id":"pizarnik","school_name":"Escuela Pizarnik","linea":"161","walk_m":388,"source":"Asignacion exploratoria estudiante-parada aproximada","access_id":"access_route_80","route_distance_m":496,"route_duration_s":49,"straight_distance_m":388,"routing_source":"OSRM foot; ruta peatonal aproximada por red vial"}},{"type":"Feature","geometry":{"coordinates":[[-58.534062,-34.546953],[-58.534506,-34.547356],[-58.533493,-34.548135],[-58.532749,-34.547617],[-58.531813,-34.546974],[-58.53146,-34.547236],[-58.530981,-34.546795],[-58.53051,-34.54636],[-58.530088,-34.546699],[-58.529057,-34.547516],[-58.528728,-34.547749],[-58.528412,-34.547903],[-58.528357,-34.547929],[-58.528335,-34.547892],[-58.52831,-34.547848],[-58.528064,-34.54744],[-58.528053,-34.547422]],"type":"LineString"},"properties":{"school_id":"pizarnik","school_name":"Escuela Pizarnik","linea":"161","walk_m":551,"source":"Asignacion exploratoria estudiante-parada aproximada","access_id":"access_route_81","route_distance_m":890,"route_duration_s":131,"straight_distance_m":551,"routing_source":"OSRM foot; ruta peatonal aproximada por red vial"}},{"type":"Feature","geometry":{"coordinates":[[-58.526484,-34.54532],[-58.52653,-34.545197],[-58.526567,-34.545123],[-58.526615,-34.545055],[-58.526686,-34.545094],[-58.526725,-34.545123],[-58.526751,-34.545147],[-58.526807,-34.545234],[-58.526882,-34.545369],[-58.526916,-34.545428],[-58.527048,-34.545656],[-58.52734,-34.546164],[-58.527414,-34.546292],[-58.527459,-34.54637],[-58.527499,-34.54644],[-58.52767,-34.546771],[-58.527774,-34.546953],[-58.527893,-34.547154],[-58.528053,-34.547422]],"type":"LineString"},"properties":{"school_id":"pizarnik","school_name":"Escuela Pizarnik","linea":"161","walk_m":278,"source":"Asignacion exploratoria estudiante-parada aproximada","access_id":"access_route_82","route_distance_m":327,"route_duration_s":30,"straight_distance_m":278,"routing_source":"OSRM foot; ruta peatonal aproximada por red vial"}},{"type":"Feature","geometry":{"coordinates":[[-58.526441,-34.545437],[-58.52653,-34.545197],[-58.526567,-34.545123],[-58.526615,-34.545055],[-58.526686,-34.545094],[-58.526725,-34.545123],[-58.526751,-34.545147],[-58.526807,-34.545234],[-58.526882,-34.545369],[-58.526916,-34.545428],[-58.527048,-34.545656],[-58.52734,-34.546164],[-58.527414,-34.546292],[-58.527459,-34.54637],[-58.527499,-34.54644],[-58.52767,-34.546771],[-58.527774,-34.546953],[-58.527893,-34.547154],[-58.528053,-34.547422]],"type":"LineString"},"properties":{"school_id":"pizarnik","school_name":"Escuela Pizarnik","linea":"161","walk_m":268,"source":"Asignacion exploratoria estudiante-parada aproximada","access_id":"access_route_83","route_distance_m":341,"route_duration_s":31,"straight_distance_m":268,"routing_source":"OSRM foot; ruta peatonal aproximada por red vial"}},{"type":"Feature","geometry":{"coordinates":[[-58.529284,-34.545622],[-58.528167,-34.546711],[-58.527971,-34.546853],[-58.527774,-34.546953],[-58.527893,-34.547154],[-58.528053,-34.547422]],"type":"LineString"},"properties":{"school_id":"pizarnik","school_name":"Escuela Pizarnik","linea":"161","walk_m":233,"source":"Asignacion exploratoria estudiante-parada aproximada","access_id":"access_route_84","route_distance_m":262,"route_duration_s":28,"straight_distance_m":233,"routing_source":"OSRM foot; ruta peatonal aproximada por red vial"}},{"type":"Feature","geometry":{"coordinates":[[-58.524388,-34.552295],[-58.524499,-34.552351],[-58.524726,-34.552465],[-58.524958,-34.552587],[-58.525188,-34.552706],[-58.525791,-34.553022],[-58.526687,-34.553524],[-58.526739,-34.55358],[-58.526783,-34.553629],[-58.527895,-34.554264],[-58.528118,-34.55412],[-58.528591,-34.55383],[-58.528775,-34.553728],[-58.529647,-34.553352],[-58.529825,-34.553276],[-58.530704,-34.552226],[-58.530769,-34.552151],[-58.531272,-34.55305],[-58.531337,-34.553169],[-58.531294,-34.553167]],"type":"LineString"},"properties":{"school_id":"pizarnik","school_name":"Escuela Pizarnik","linea":"161","walk_m":643,"source":"Asignacion exploratoria estudiante-parada aproximada","access_id":"access_route_85","route_distance_m":879,"route_duration_s":118,"straight_distance_m":643,"routing_source":"OSRM foot; ruta peatonal aproximada por red vial"}},{"type":"Feature","geometry":{"coordinates":[[-58.527449,-34.550994],[-58.527324,-34.551148],[-58.526918,-34.551643],[-58.527892,-34.552179],[-58.528867,-34.552723],[-58.529752,-34.553213],[-58.529825,-34.553276],[-58.530704,-34.552226],[-58.53075,-34.552173]],"type":"LineString"},"properties":{"school_id":"pizarnik","school_name":"Escuela Pizarnik","linea":"161","walk_m":334,"source":"Asignacion exploratoria estudiante-parada aproximada","access_id":"access_route_86","route_distance_m":559,"route_duration_s":68,"straight_distance_m":334,"routing_source":"OSRM foot; ruta peatonal aproximada por red vial"}},{"type":"Feature","geometry":{"coordinates":[[-58.52615,-34.551233],[-58.52628,-34.5513],[-58.526319,-34.551319],[-58.526367,-34.551346],[-58.526918,-34.551643],[-58.527324,-34.551148],[-58.527539,-34.550883],[-58.527766,-34.550607],[-58.527843,-34.550513],[-58.528299,-34.54995],[-58.528533,-34.549658],[-58.528941,-34.549163],[-58.529022,-34.549093],[-58.528938,-34.548949],[-58.528904,-34.54889],[-58.528843,-34.548782],[-58.528763,-34.548639],[-58.528653,-34.548444],[-58.528387,-34.547983],[-58.528366,-34.547944],[-58.528357,-34.547929],[-58.528335,-34.547892],[-58.52831,-34.547848],[-58.528064,-34.54744],[-58.528053,-34.547422]],"type":"LineString"},"properties":{"school_id":"pizarnik","school_name":"Escuela Pizarnik","linea":"161","walk_m":458,"source":"Asignacion exploratoria estudiante-parada aproximada","access_id":"access_route_87","route_distance_m":632,"route_duration_s":66,"straight_distance_m":458,"routing_source":"OSRM foot; ruta peatonal aproximada por red vial"}},{"type":"Feature","geometry":{"coordinates":[[-58.524133,-34.551132],[-58.524145,-34.551114],[-58.524578,-34.550445],[-58.524733,-34.550084],[-58.524747,-34.550051],[-58.524803,-34.54989],[-58.52498,-34.549383],[-58.525101,-34.549038],[-58.525156,-34.548901],[-58.525309,-34.548497],[-58.525442,-34.548144],[-58.525666,-34.547546],[-58.525961,-34.546738],[-58.525991,-34.546654],[-58.526068,-34.546443],[-58.526248,-34.545957],[-58.52653,-34.545197],[-58.526567,-34.545123],[-58.526615,-34.545055],[-58.526686,-34.545094],[-58.526725,-34.545123],[-58.526751,-34.545147],[-58.526807,-34.545234],[-58.526882,-34.545369],[-58.526916,-34.545428],[-58.527048,-34.545656],[-58.52734,-34.546164],[-58.527414,-34.546292],[-58.527459,-34.54637],[-58.527499,-34.54644],[-58.52767,-34.546771],[-58.527774,-34.546953],[-58.527893,-34.547154],[-58.528053,-34.547422]],"type":"LineString"},"properties":{"school_id":"pizarnik","school_name":"Escuela Pizarnik","linea":"161","walk_m":545,"source":"Asignacion exploratoria estudiante-parada aproximada","access_id":"access_route_88","route_distance_m":1009,"route_duration_s":83,"straight_distance_m":545,"routing_source":"OSRM foot; ruta peatonal aproximada por red vial"}},{"type":"Feature","geometry":{"coordinates":[[-58.53068,-34.54623],[-58.53051,-34.54636],[-58.530088,-34.546699],[-58.529057,-34.547516],[-58.528728,-34.547749],[-58.528412,-34.547903],[-58.528357,-34.547929],[-58.528335,-34.547892],[-58.52831,-34.547848],[-58.528064,-34.54744],[-58.528053,-34.547422]],"type":"LineString"},"properties":{"school_id":"pizarnik","school_name":"Escuela Pizarnik","linea":"161","walk_m":276,"source":"Asignacion exploratoria estudiante-parada aproximada","access_id":"access_route_89","route_distance_m":348,"route_duration_s":42,"straight_distance_m":276,"routing_source":"OSRM foot; ruta peatonal aproximada por red vial"}},{"type":"Feature","geometry":{"coordinates":[[-58.531837,-34.54615],[-58.530981,-34.546795],[-58.53051,-34.54636],[-58.530088,-34.546699],[-58.529057,-34.547516],[-58.528728,-34.547749],[-58.528412,-34.547903],[-58.528357,-34.547929],[-58.528335,-34.547892],[-58.52831,-34.547848],[-58.528064,-34.54744],[-58.528053,-34.547422]],"type":"LineString"},"properties":{"school_id":"pizarnik","school_name":"Escuela Pizarnik","linea":"161","walk_m":375,"source":"Asignacion exploratoria estudiante-parada aproximada","access_id":"access_route_90","route_distance_m":498,"route_duration_s":67,"straight_distance_m":375,"routing_source":"OSRM foot; ruta peatonal aproximada por red vial"}},{"type":"Feature","geometry":{"coordinates":[[-58.530559,-34.548935],[-58.530689,-34.549165],[-58.530939,-34.549606],[-58.531523,-34.550605],[-58.530235,-34.551109],[-58.530187,-34.551143],[-58.530091,-34.550976],[-58.529605,-34.550134],[-58.529129,-34.549285],[-58.529022,-34.549093],[-58.528938,-34.548949],[-58.528904,-34.54889],[-58.528843,-34.548782],[-58.528763,-34.548639],[-58.528653,-34.548444],[-58.528387,-34.547983],[-58.528366,-34.547944],[-58.528357,-34.547929],[-58.528335,-34.547892],[-58.52831,-34.547848],[-58.528064,-34.54744],[-58.528053,-34.547422]],"type":"LineString"},"properties":{"school_id":"pizarnik","school_name":"Escuela Pizarnik","linea":"161","walk_m":286,"source":"Asignacion exploratoria estudiante-parada aproximada","access_id":"access_route_91","route_distance_m":799,"route_duration_s":90,"straight_distance_m":286,"routing_source":"OSRM foot; ruta peatonal aproximada por red vial"}},{"type":"Feature","geometry":{"coordinates":[[-58.532571,-34.570337],[-58.532642,-34.570279],[-58.531878,-34.569633],[-58.530929,-34.570422],[-58.530832,-34.570501],[-58.531593,-34.571138],[-58.532348,-34.571776],[-58.53133,-34.572599],[-58.530031,-34.573672],[-58.529228,-34.574331],[-58.529643,-34.574665],[-58.529807,-34.574803],[-58.529969,-34.574935],[-58.53,-34.574959],[-58.530041,-34.574991],[-58.53019,-34.575125],[-58.530634,-34.57551],[-58.530679,-34.575546],[-58.530772,-34.575623],[-58.531826,-34.574782],[-58.531753,-34.574725],[-58.531331,-34.574412],[-58.531242,-34.574359],[-58.531357,-34.574266],[-58.531482,-34.574166],[-58.531539,-34.574119],[-58.531601,-34.57407],[-58.531604,-34.574068],[-58.53163,-34.574047],[-58.531732,-34.573965],[-58.531842,-34.573877],[-58.531903,-34.573827],[-58.531971,-34.573771],[-58.532062,-34.573697],[-58.532166,-34.573614],[-58.53226,-34.573535],[-58.532361,-34.57349],[-58.532418,-34.573446],[-58.533405,-34.572672],[-58.533442,-34.572665],[-58.53348,-34.57268],[-58.533905,-34.57304]],"type":"LineString"},"properties":{"school_id":"pizarnik","school_name":"Escuela Pizarnik","linea":"161","walk_m":325,"source":"Asignacion exploratoria estudiante-parada aproximada","access_id":"access_route_92","route_distance_m":1590,"route_duration_s":196,"straight_distance_m":325,"routing_source":"OSRM foot; ruta peatonal aproximada por red vial"}},{"type":"Feature","geometry":{"coordinates":[[-58.525255,-34.547703],[-58.525431,-34.547448],[-58.525666,-34.547546],[-58.525961,-34.546738],[-58.525991,-34.546654],[-58.526068,-34.546443],[-58.526248,-34.545957],[-58.52653,-34.545197],[-58.526567,-34.545123],[-58.526615,-34.545055],[-58.526686,-34.545094],[-58.526725,-34.545123],[-58.526751,-34.545147],[-58.526807,-34.545234],[-58.526882,-34.545369],[-58.526916,-34.545428],[-58.527048,-34.545656],[-58.52734,-34.546164],[-58.527414,-34.546292],[-58.527459,-34.54637],[-58.527499,-34.54644],[-58.52767,-34.546771],[-58.527774,-34.546953],[-58.527893,-34.547154],[-58.528053,-34.547422]],"type":"LineString"},"properties":{"school_id":"pizarnik","school_name":"Escuela Pizarnik","linea":"161","walk_m":248,"source":"Asignacion exploratoria estudiante-parada aproximada","access_id":"access_route_93","route_distance_m":642,"route_duration_s":63,"straight_distance_m":248,"routing_source":"OSRM foot; ruta peatonal aproximada por red vial"}},{"type":"Feature","geometry":{"coordinates":[[-58.522966,-34.550102],[-58.523178,-34.549777],[-58.522112,-34.549274],[-58.521658,-34.549947],[-58.52274,-34.55045],[-58.524145,-34.551114],[-58.524578,-34.550445],[-58.524733,-34.550084],[-58.524747,-34.550051],[-58.524803,-34.54989],[-58.52498,-34.549383],[-58.525101,-34.549038],[-58.525156,-34.548901],[-58.525309,-34.548497],[-58.525442,-34.548144],[-58.525666,-34.547546],[-58.525961,-34.546738],[-58.525991,-34.546654],[-58.526068,-34.546443],[-58.526248,-34.545957],[-58.52653,-34.545197],[-58.526567,-34.545123],[-58.526615,-34.545055],[-58.526686,-34.545094],[-58.526725,-34.545123],[-58.526751,-34.545147],[-58.526807,-34.545234],[-58.526882,-34.545369],[-58.526916,-34.545428],[-58.527048,-34.545656],[-58.52734,-34.546164],[-58.527414,-34.546292],[-58.527459,-34.54637],[-58.527499,-34.54644],[-58.52767,-34.546771],[-58.527774,-34.546953],[-58.527893,-34.547154],[-58.528053,-34.547422]],"type":"LineString"},"properties":{"school_id":"pizarnik","school_name":"Escuela Pizarnik","linea":"161","walk_m":548,"source":"Asignacion exploratoria estudiante-parada aproximada","access_id":"access_route_94","route_distance_m":1508,"route_duration_s":145,"straight_distance_m":548,"routing_source":"OSRM foot; ruta peatonal aproximada por red vial"}},{"type":"Feature","geometry":{"coordinates":[[-58.534732,-34.548276],[-58.534238,-34.548651],[-58.533911,-34.548428],[-58.533643,-34.548534],[-58.534237,-34.549543],[-58.534826,-34.550562],[-58.535397,-34.551583],[-58.53404,-34.552113],[-58.532705,-34.552641],[-58.53206,-34.552897],[-58.531337,-34.553169],[-58.531294,-34.553167]],"type":"LineString"},"properties":{"school_id":"pizarnik","school_name":"Escuela Pizarnik","linea":"161","walk_m":625,"source":"Asignacion exploratoria estudiante-parada aproximada","access_id":"access_route_95","route_distance_m":918,"route_duration_s":122,"straight_distance_m":625,"routing_source":"OSRM foot; ruta peatonal aproximada por red vial"}},{"type":"Feature","geometry":{"coordinates":[[-58.539089,-34.571569],[-58.538706,-34.571879],[-58.537918,-34.571221],[-58.537843,-34.571156],[-58.538229,-34.570844],[-58.538834,-34.570341],[-58.538906,-34.570278],[-58.539175,-34.570057],[-58.539826,-34.569521],[-58.539863,-34.569491],[-58.539893,-34.569468],[-58.539942,-34.569428],[-58.54003,-34.569363]],"type":"LineString"},"properties":{"school_id":"pizarnik","school_name":"Escuela Pizarnik","linea":"161","walk_m":259,"source":"Asignacion exploratoria estudiante-parada aproximada","access_id":"access_route_96","route_distance_m":445,"route_duration_s":53,"straight_distance_m":259,"routing_source":"OSRM foot; ruta peatonal aproximada por red vial"}},{"type":"Feature","geometry":{"coordinates":[[-58.53168,-34.546268],[-58.530981,-34.546795],[-58.53051,-34.54636],[-58.530088,-34.546699],[-58.529057,-34.547516],[-58.528728,-34.547749],[-58.528412,-34.547903],[-58.528357,-34.547929],[-58.528335,-34.547892],[-58.52831,-34.547848],[-58.528064,-34.54744],[-58.528053,-34.547422]],"type":"LineString"},"properties":{"school_id":"pizarnik","school_name":"Escuela Pizarnik","linea":"161","walk_m":357,"source":"Asignacion exploratoria estudiante-parada aproximada","access_id":"access_route_97","route_distance_m":479,"route_duration_s":65,"straight_distance_m":357,"routing_source":"OSRM foot; ruta peatonal aproximada por red vial"}},{"type":"Feature","geometry":{"coordinates":[[-58.521499,-34.546585],[-58.520931,-34.54679],[-58.52083,-34.546522],[-58.520873,-34.546295],[-58.521369,-34.545522],[-58.521512,-34.545586],[-58.52166,-34.545653],[-58.522237,-34.544807],[-58.522836,-34.543934],[-58.523174,-34.543433],[-58.523246,-34.543327],[-58.522576,-34.542989],[-58.522009,-34.542703]],"type":"LineString"},"properties":{"school_id":"pizarnik","school_name":"Escuela Pizarnik","linea":"161","walk_m":450,"source":"Asignacion exploratoria estudiante-parada aproximada","access_id":"access_route_98","route_distance_m":670,"route_duration_s":87,"straight_distance_m":450,"routing_source":"OSRM foot; ruta peatonal aproximada por red vial"}},{"type":"Feature","geometry":{"coordinates":[[-58.52929,-34.543478],[-58.528906,-34.543852],[-58.528271,-34.543353],[-58.528224,-34.543272],[-58.528276,-34.543218],[-58.529089,-34.542365],[-58.528794,-34.542236],[-58.527673,-34.541709],[-58.527653,-34.541736]],"type":"LineString"},"properties":{"school_id":"pizarnik","school_name":"Escuela Pizarnik","linea":"161","walk_m":245,"source":"Asignacion exploratoria estudiante-parada aproximada","access_id":"access_route_99","route_distance_m":426,"route_duration_s":49,"straight_distance_m":245,"routing_source":"OSRM foot; ruta peatonal aproximada por red vial"}},{"type":"Feature","geometry":{"coordinates":[[-58.524842,-34.550585],[-58.52488,-34.550605],[-58.525599,-34.550947],[-58.525801,-34.551054],[-58.52628,-34.5513],[-58.526319,-34.551319],[-58.526367,-34.551346],[-58.526918,-34.551643],[-58.527324,-34.551148],[-58.527539,-34.550883],[-58.527766,-34.550607],[-58.527843,-34.550513],[-58.528299,-34.54995],[-58.528533,-34.549658],[-58.528941,-34.549163],[-58.529022,-34.549093],[-58.528938,-34.548949],[-58.528904,-34.54889],[-58.528843,-34.548782],[-58.528763,-34.548639],[-58.528653,-34.548444],[-58.528387,-34.547983],[-58.528366,-34.547944],[-58.528357,-34.547929],[-58.528335,-34.547892],[-58.52831,-34.547848],[-58.528064,-34.54744],[-58.528053,-34.547422]],"type":"LineString"},"properties":{"school_id":"pizarnik","school_name":"Escuela Pizarnik","linea":"161","walk_m":465,"source":"Asignacion exploratoria estudiante-parada aproximada","access_id":"access_route_100","route_distance_m":772,"route_duration_s":82,"straight_distance_m":465,"routing_source":"OSRM foot; ruta peatonal aproximada por red vial"}},{"type":"Feature","geometry":{"coordinates":[[-58.527634,-34.544342],[-58.527414,-34.544161],[-58.526812,-34.544833],[-58.526755,-34.544898],[-58.526615,-34.545055],[-58.526686,-34.545094],[-58.526725,-34.545123],[-58.526751,-34.545147],[-58.526807,-34.545234],[-58.526882,-34.545369],[-58.526916,-34.545428],[-58.527048,-34.545656],[-58.52734,-34.546164],[-58.527414,-34.546292],[-58.527459,-34.54637],[-58.527499,-34.54644],[-58.52767,-34.546771],[-58.527774,-34.546953],[-58.527893,-34.547154],[-58.528053,-34.547422]],"type":"LineString"},"properties":{"school_id":"pizarnik","school_name":"Escuela Pizarnik","linea":"161","walk_m":350,"source":"Asignacion exploratoria estudiante-parada aproximada","access_id":"access_route_101","route_distance_m":447,"route_duration_s":39,"straight_distance_m":350,"routing_source":"OSRM foot; ruta peatonal aproximada por red vial"}},{"type":"Feature","geometry":{"coordinates":[[-58.525684,-34.553149],[-58.525791,-34.553022],[-58.526918,-34.551643],[-58.527324,-34.551148],[-58.527539,-34.550883],[-58.527766,-34.550607],[-58.527843,-34.550513],[-58.528812,-34.551064],[-58.529783,-34.551612],[-58.530568,-34.552056],[-58.530622,-34.552066],[-58.53071,-34.552049],[-58.530769,-34.552151],[-58.531272,-34.55305],[-58.531337,-34.553169],[-58.531294,-34.553167]],"type":"LineString"},"properties":{"school_id":"pizarnik","school_name":"Escuela Pizarnik","linea":"161","walk_m":501,"source":"Asignacion exploratoria estudiante-parada aproximada","access_id":"access_route_102","route_distance_m":811,"route_duration_s":102,"straight_distance_m":501,"routing_source":"OSRM foot; ruta peatonal aproximada por red vial"}},{"type":"Feature","geometry":{"coordinates":[[-58.536729,-34.570218],[-58.537065,-34.570505],[-58.537484,-34.570168],[-58.538229,-34.570844],[-58.538834,-34.570341],[-58.538906,-34.570278],[-58.539175,-34.570057],[-58.539826,-34.569521],[-58.539863,-34.569491],[-58.539893,-34.569468],[-58.539942,-34.569428],[-58.54003,-34.569363]],"type":"LineString"},"properties":{"school_id":"pizarnik","school_name":"Escuela Pizarnik","linea":"161","walk_m":325,"source":"Asignacion exploratoria estudiante-parada aproximada","access_id":"access_route_103","route_distance_m":433,"route_duration_s":51,"straight_distance_m":325,"routing_source":"OSRM foot; ruta peatonal aproximada por red vial"}},{"type":"Feature","geometry":{"coordinates":[[-58.531208,-34.546624],[-58.530981,-34.546795],[-58.53051,-34.54636],[-58.530088,-34.546699],[-58.529057,-34.547516],[-58.528728,-34.547749],[-58.528412,-34.547903],[-58.528357,-34.547929],[-58.528335,-34.547892],[-58.52831,-34.547848],[-58.528064,-34.54744],[-58.528053,-34.547422]],"type":"LineString"},"properties":{"school_id":"pizarnik","school_name":"Escuela Pizarnik","linea":"161","walk_m":305,"source":"Asignacion exploratoria estudiante-parada aproximada","access_id":"access_route_104","route_distance_m":420,"route_duration_s":58,"straight_distance_m":305,"routing_source":"OSRM foot; ruta peatonal aproximada por red vial"}},{"type":"Feature","geometry":{"coordinates":[[-58.542448,-34.546697],[-58.542937,-34.546299],[-58.543608,-34.546866],[-58.544408,-34.54754],[-58.545194,-34.548203],[-58.545991,-34.548875],[-58.546884,-34.549628],[-58.54798,-34.548723],[-58.549276,-34.54769],[-58.550564,-34.546649],[-58.550592,-34.546626]],"type":"LineString"},"properties":{"school_id":"pizarnik","school_name":"Escuela Pizarnik","linea":"78","walk_m":739,"source":"Asignacion exploratoria estudiante-parada aproximada","access_id":"access_route_105","route_distance_m":1057,"route_duration_s":128,"straight_distance_m":739,"routing_source":"OSRM foot; ruta peatonal aproximada por red vial"}},{"type":"Feature","geometry":{"coordinates":[[-58.54255,-34.546614],[-58.542937,-34.546299],[-58.543608,-34.546866],[-58.544408,-34.54754],[-58.545194,-34.548203],[-58.545991,-34.548875],[-58.546884,-34.549628],[-58.54798,-34.548723],[-58.549276,-34.54769],[-58.550564,-34.546649],[-58.550592,-34.546626]],"type":"LineString"},"properties":{"school_id":"pizarnik","school_name":"Escuela Pizarnik","linea":"78","walk_m":731,"source":"Asignacion exploratoria estudiante-parada aproximada","access_id":"access_route_106","route_distance_m":1044,"route_duration_s":127,"straight_distance_m":731,"routing_source":"OSRM foot; ruta peatonal aproximada por red vial"}},{"type":"Feature","geometry":{"coordinates":[[-58.52678,-34.551812],[-58.526918,-34.551643],[-58.527892,-34.552179],[-58.528867,-34.552723],[-58.529752,-34.553213],[-58.529825,-34.553276],[-58.530704,-34.552226],[-58.53075,-34.552173]],"type":"LineString"},"properties":{"school_id":"pizarnik","school_name":"Escuela Pizarnik","linea":"161","walk_m":368,"source":"Asignacion exploratoria estudiante-parada aproximada","access_id":"access_route_107","route_distance_m":494,"route_duration_s":64,"straight_distance_m":368,"routing_source":"OSRM foot; ruta peatonal aproximada por red vial"}},{"type":"Feature","geometry":{"coordinates":[[-58.528562,-34.544189],[-58.528053,-34.544689],[-58.527048,-34.545656],[-58.52734,-34.546164],[-58.527414,-34.546292],[-58.527459,-34.54637],[-58.527499,-34.54644],[-58.52767,-34.546771],[-58.527774,-34.546953],[-58.527893,-34.547154],[-58.528053,-34.547422]],"type":"LineString"},"properties":{"school_id":"pizarnik","school_name":"Escuela Pizarnik","linea":"161","walk_m":365,"source":"Asignacion exploratoria estudiante-parada aproximada","access_id":"access_route_108","route_distance_m":431,"route_duration_s":39,"straight_distance_m":365,"routing_source":"OSRM foot; ruta peatonal aproximada por red vial"}},{"type":"Feature","geometry":{"coordinates":[[-58.523867,-34.548473],[-58.524206,-34.547985],[-58.524853,-34.548285],[-58.525309,-34.548497],[-58.525442,-34.548144],[-58.525666,-34.547546],[-58.525961,-34.546738],[-58.525991,-34.546654],[-58.526068,-34.546443],[-58.526248,-34.545957],[-58.52653,-34.545197],[-58.526567,-34.545123],[-58.526615,-34.545055],[-58.526686,-34.545094],[-58.526725,-34.545123],[-58.526751,-34.545147],[-58.526807,-34.545234],[-58.526882,-34.545369],[-58.526916,-34.545428],[-58.527048,-34.545656],[-58.52734,-34.546164],[-58.527414,-34.546292],[-58.527459,-34.54637],[-58.527499,-34.54644],[-58.52767,-34.546771],[-58.527774,-34.546953],[-58.527893,-34.547154],[-58.528053,-34.547422]],"type":"LineString"},"properties":{"school_id":"pizarnik","school_name":"Escuela Pizarnik","linea":"161","walk_m":423,"source":"Asignacion exploratoria estudiante-parada aproximada","access_id":"access_route_109","route_distance_m":875,"route_duration_s":86,"straight_distance_m":423,"routing_source":"OSRM foot; ruta peatonal aproximada por red vial"}},{"type":"Feature","geometry":{"coordinates":[[-58.524075,-34.551221],[-58.524094,-34.551192],[-58.524145,-34.551114],[-58.524578,-34.550445],[-58.524733,-34.550084],[-58.524747,-34.550051],[-58.524803,-34.54989],[-58.52498,-34.549383],[-58.525101,-34.549038],[-58.525156,-34.548901],[-58.525309,-34.548497],[-58.525442,-34.548144],[-58.525666,-34.547546],[-58.525961,-34.546738],[-58.525991,-34.546654],[-58.526068,-34.546443],[-58.526248,-34.545957],[-58.52653,-34.545197],[-58.526567,-34.545123],[-58.526615,-34.545055],[-58.526686,-34.545094],[-58.526725,-34.545123],[-58.526751,-34.545147],[-58.526807,-34.545234],[-58.526882,-34.545369],[-58.526916,-34.545428],[-58.527048,-34.545656],[-58.52734,-34.546164],[-58.527414,-34.546292],[-58.527459,-34.54637],[-58.527499,-34.54644],[-58.52767,-34.546771],[-58.527774,-34.546953],[-58.527893,-34.547154],[-58.528053,-34.547422]],"type":"LineString"},"properties":{"school_id":"pizarnik","school_name":"Escuela Pizarnik","linea":"161","walk_m":556,"source":"Asignacion exploratoria estudiante-parada aproximada","access_id":"access_route_110","route_distance_m":1020,"route_duration_s":84,"straight_distance_m":556,"routing_source":"OSRM foot; ruta peatonal aproximada por red vial"}},{"type":"Feature","geometry":{"coordinates":[[-58.526871,-34.544767],[-58.526812,-34.544833],[-58.526755,-34.544898],[-58.526615,-34.545055],[-58.526686,-34.545094],[-58.526725,-34.545123],[-58.526751,-34.545147],[-58.526807,-34.545234],[-58.526882,-34.545369],[-58.526916,-34.545428],[-58.527048,-34.545656],[-58.52734,-34.546164],[-58.527414,-34.546292],[-58.527459,-34.54637],[-58.527499,-34.54644],[-58.52767,-34.546771],[-58.527774,-34.546953],[-58.527893,-34.547154],[-58.528053,-34.547422]],"type":"LineString"},"properties":{"school_id":"pizarnik","school_name":"Escuela Pizarnik","linea":"161","walk_m":320,"source":"Asignacion exploratoria estudiante-parada aproximada","access_id":"access_route_111","route_distance_m":335,"route_duration_s":26,"straight_distance_m":320,"routing_source":"OSRM foot; ruta peatonal aproximada por red vial"}},{"type":"Feature","geometry":{"type":"LineString","coordinates":[[-58.625093521955364,-34.567828049571986],[-58.629519,-34.564693]]},"properties":{"school_id":"galeano","school_name":"Escuela Galeano","linea":"57","linea_label":"Linea 57","recorrido":"B","sentido":"VUELTA","empresa":"TRANSPORTES ATLANTIDA SAC","walk_m":535,"source":"Asignacion exploratoria Galeano estudiante-recorrido cercano","access_id":"galeano_access_1","route_distance_m":535,"route_duration_s":396,"straight_distance_m":535,"routing_source":"Tramo exploratorio al recorrido cercano; pendiente de ruteo peatonal OSRM"}},{"type":"Feature","geometry":{"type":"LineString","coordinates":[[-58.597041237852004,-34.544342381834504],[-58.601448,-34.542254]]},"properties":{"school_id":"galeano","school_name":"Escuela Galeano","linea":"57","linea_label":"Linea 57","recorrido":"B","sentido":"VUELTA","empresa":"TRANSPORTES ATLANTIDA SAC","walk_m":466,"source":"Asignacion exploratoria Galeano estudiante-recorrido cercano","access_id":"galeano_access_2","route_distance_m":466,"route_duration_s":345,"straight_distance_m":466,"routing_source":"Tramo exploratorio al recorrido cercano; pendiente de ruteo peatonal OSRM"}},{"type":"Feature","geometry":{"type":"LineString","coordinates":[[-58.58577378255826,-34.55333360984583],[-58.585532,-34.555143]]},"properties":{"school_id":"galeano","school_name":"Escuela Galeano","linea":"78","linea_label":"Linea 78","recorrido":"C","sentido":"IDA","empresa":"LOS CONSTITUYENTES SAT","walk_m":202,"source":"Asignacion exploratoria Galeano estudiante-recorrido cercano","access_id":"galeano_access_3","route_distance_m":202,"route_duration_s":150,"straight_distance_m":202,"routing_source":"Tramo exploratorio al recorrido cercano; pendiente de ruteo peatonal OSRM"}},{"type":"Feature","geometry":{"type":"LineString","coordinates":[[-58.594269890876994,-34.54390438832599],[-58.600401,-34.540444]]},"properties":{"school_id":"galeano","school_name":"Escuela Galeano","linea":"57","linea_label":"Linea 57","recorrido":"B","sentido":"VUELTA","empresa":"TRANSPORTES ATLANTIDA SAC","walk_m":681,"source":"Asignacion exploratoria Galeano estudiante-recorrido cercano","access_id":"galeano_access_4","route_distance_m":681,"route_duration_s":504,"straight_distance_m":681,"routing_source":"Tramo exploratorio al recorrido cercano; pendiente de ruteo peatonal OSRM"}},{"type":"Feature","geometry":{"type":"LineString","coordinates":[[-58.58206690999402,-34.546430074797414],[-58.576119,-34.553118]]},"properties":{"school_id":"galeano","school_name":"Escuela Galeano","linea":"78","linea_label":"Linea 78","recorrido":"C","sentido":"IDA","empresa":"LOS CONSTITUYENTES SAT","walk_m":922,"source":"Asignacion exploratoria Galeano estudiante-recorrido cercano","access_id":"galeano_access_5","route_distance_m":922,"route_duration_s":683,"straight_distance_m":922,"routing_source":"Tramo exploratorio al recorrido cercano; pendiente de ruteo peatonal OSRM"}},{"type":"Feature","geometry":{"type":"LineString","coordinates":[[-58.596148580244716,-34.54269117963836],[-58.600401,-34.540444]]},"properties":{"school_id":"galeano","school_name":"Escuela Galeano","linea":"57","linea_label":"Linea 57","recorrido":"B","sentido":"VUELTA","empresa":"TRANSPORTES ATLANTIDA SAC","walk_m":463,"source":"Asignacion exploratoria Galeano estudiante-recorrido cercano","access_id":"galeano_access_6","route_distance_m":463,"route_duration_s":343,"straight_distance_m":463,"routing_source":"Tramo exploratorio al recorrido cercano; pendiente de ruteo peatonal OSRM"}},{"type":"Feature","geometry":{"type":"LineString","coordinates":[[-58.5983567723589,-34.544058177244736],[-58.601448,-34.542254]]},"properties":{"school_id":"galeano","school_name":"Escuela Galeano","linea":"57","linea_label":"Linea 57","recorrido":"B","sentido":"VUELTA","empresa":"TRANSPORTES ATLANTIDA SAC","walk_m":347,"source":"Asignacion exploratoria Galeano estudiante-recorrido cercano","access_id":"galeano_access_7","route_distance_m":347,"route_duration_s":257,"straight_distance_m":347,"routing_source":"Tramo exploratorio al recorrido cercano; pendiente de ruteo peatonal OSRM"}},{"type":"Feature","geometry":{"type":"LineString","coordinates":[[-58.58681545674238,-34.56095945278599],[-58.58771,-34.56075]]},"properties":{"school_id":"galeano","school_name":"Escuela Galeano","linea":"78","linea_label":"Linea 78","recorrido":"C","sentido":"IDA","empresa":"LOS CONSTITUYENTES SAT","walk_m":85,"source":"Asignacion exploratoria Galeano estudiante-recorrido cercano","access_id":"galeano_access_8","route_distance_m":85,"route_duration_s":63,"straight_distance_m":85,"routing_source":"Tramo exploratorio al recorrido cercano; pendiente de ruteo peatonal OSRM"}},{"type":"Feature","geometry":{"type":"LineString","coordinates":[[-58.594439811260244,-34.546804788788435],[-58.602469,-34.54402]]},"properties":{"school_id":"galeano","school_name":"Escuela Galeano","linea":"57","linea_label":"Linea 57","recorrido":"B","sentido":"VUELTA","empresa":"TRANSPORTES ATLANTIDA SAC","walk_m":798,"source":"Asignacion exploratoria Galeano estudiante-recorrido cercano","access_id":"galeano_access_9","route_distance_m":798,"route_duration_s":591,"straight_distance_m":798,"routing_source":"Tramo exploratorio al recorrido cercano; pendiente de ruteo peatonal OSRM"}},{"type":"Feature","geometry":{"type":"LineString","coordinates":[[-58.59491977633535,-34.543663601914346],[-58.600401,-34.540444]]},"properties":{"school_id":"galeano","school_name":"Escuela Galeano","linea":"57","linea_label":"Linea 57","recorrido":"B","sentido":"VUELTA","empresa":"TRANSPORTES ATLANTIDA SAC","walk_m":617,"source":"Asignacion exploratoria Galeano estudiante-recorrido cercano","access_id":"galeano_access_10","route_distance_m":617,"route_duration_s":457,"straight_distance_m":617,"routing_source":"Tramo exploratorio al recorrido cercano; pendiente de ruteo peatonal OSRM"}},{"type":"Feature","geometry":{"type":"LineString","coordinates":[[-58.584721274134026,-34.55279804687892],[-58.585532,-34.555143]]},"properties":{"school_id":"galeano","school_name":"Escuela Galeano","linea":"78","linea_label":"Linea 78","recorrido":"C","sentido":"IDA","empresa":"LOS CONSTITUYENTES SAT","walk_m":271,"source":"Asignacion exploratoria Galeano estudiante-recorrido cercano","access_id":"galeano_access_11","route_distance_m":271,"route_duration_s":201,"straight_distance_m":271,"routing_source":"Tramo exploratorio al recorrido cercano; pendiente de ruteo peatonal OSRM"}},{"type":"Feature","geometry":{"type":"LineString","coordinates":[[-58.58817969794261,-34.55955793155827],[-58.587288,-34.559754]]},"properties":{"school_id":"galeano","school_name":"Escuela Galeano","linea":"78","linea_label":"Linea 78","recorrido":"C","sentido":"IDA","empresa":"LOS CONSTITUYENTES SAT","walk_m":85,"source":"Asignacion exploratoria Galeano estudiante-recorrido cercano","access_id":"galeano_access_12","route_distance_m":85,"route_duration_s":63,"straight_distance_m":85,"routing_source":"Tramo exploratorio al recorrido cercano; pendiente de ruteo peatonal OSRM"}},{"type":"Feature","geometry":{"type":"LineString","coordinates":[[-58.622656670036335,-34.56172800185942],[-58.622746,-34.562795]]},"properties":{"school_id":"galeano","school_name":"Escuela Galeano","linea":"57","linea_label":"Linea 57","recorrido":"A","sentido":"IDA","empresa":"TRANSPORTES ATLANTIDA SAC","walk_m":119,"source":"Asignacion exploratoria Galeano estudiante-recorrido cercano","access_id":"galeano_access_13","route_distance_m":119,"route_duration_s":88,"straight_distance_m":119,"routing_source":"Tramo exploratorio al recorrido cercano; pendiente de ruteo peatonal OSRM"}},{"type":"Feature","geometry":{"type":"LineString","coordinates":[[-58.622610712713474,-34.56177720238224],[-58.622746,-34.562795]]},"properties":{"school_id":"galeano","school_name":"Escuela Galeano","linea":"57","linea_label":"Linea 57","recorrido":"A","sentido":"IDA","empresa":"TRANSPORTES ATLANTIDA SAC","walk_m":114,"source":"Asignacion exploratoria Galeano estudiante-recorrido cercano","access_id":"galeano_access_14","route_distance_m":114,"route_duration_s":84,"straight_distance_m":114,"routing_source":"Tramo exploratorio al recorrido cercano; pendiente de ruteo peatonal OSRM"}},{"type":"Feature","geometry":{"type":"LineString","coordinates":[[-58.58873029898061,-34.54717942931916],[-58.585532,-34.555143]]},"properties":{"school_id":"galeano","school_name":"Escuela Galeano","linea":"78","linea_label":"Linea 78","recorrido":"C","sentido":"IDA","empresa":"LOS CONSTITUYENTES SAT","walk_m":933,"source":"Asignacion exploratoria Galeano estudiante-recorrido cercano","access_id":"galeano_access_15","route_distance_m":933,"route_duration_s":691,"straight_distance_m":933,"routing_source":"Tramo exploratorio al recorrido cercano; pendiente de ruteo peatonal OSRM"}},{"type":"Feature","geometry":{"type":"LineString","coordinates":[[-58.58679883368375,-34.56097372422773],[-58.58771,-34.56075]]},"properties":{"school_id":"galeano","school_name":"Escuela Galeano","linea":"78","linea_label":"Linea 78","recorrido":"C","sentido":"IDA","empresa":"LOS CONSTITUYENTES SAT","walk_m":87,"source":"Asignacion exploratoria Galeano estudiante-recorrido cercano","access_id":"galeano_access_16","route_distance_m":87,"route_duration_s":64,"straight_distance_m":87,"routing_source":"Tramo exploratorio al recorrido cercano; pendiente de ruteo peatonal OSRM"}},{"type":"Feature","geometry":{"type":"LineString","coordinates":[[-58.593487071986566,-34.54753511831394],[-58.602469,-34.54402]]},"properties":{"school_id":"galeano","school_name":"Escuela Galeano","linea":"57","linea_label":"Linea 57","recorrido":"B","sentido":"VUELTA","empresa":"TRANSPORTES ATLANTIDA SAC","walk_m":911,"source":"Asignacion exploratoria Galeano estudiante-recorrido cercano","access_id":"galeano_access_17","route_distance_m":911,"route_duration_s":675,"straight_distance_m":911,"routing_source":"Tramo exploratorio al recorrido cercano; pendiente de ruteo peatonal OSRM"}},{"type":"Feature","geometry":{"type":"LineString","coordinates":[[-58.59460596647683,-34.54216075242686],[-58.600401,-34.540444]]},"properties":{"school_id":"galeano","school_name":"Escuela Galeano","linea":"57","linea_label":"Linea 57","recorrido":"B","sentido":"VUELTA","empresa":"TRANSPORTES ATLANTIDA SAC","walk_m":564,"source":"Asignacion exploratoria Galeano estudiante-recorrido cercano","access_id":"galeano_access_18","route_distance_m":564,"route_duration_s":418,"straight_distance_m":564,"routing_source":"Tramo exploratorio al recorrido cercano; pendiente de ruteo peatonal OSRM"}},{"type":"Feature","geometry":{"type":"LineString","coordinates":[[-58.58685660316108,-34.56095118006316],[-58.58771,-34.56075]]},"properties":{"school_id":"galeano","school_name":"Escuela Galeano","linea":"78","linea_label":"Linea 78","recorrido":"C","sentido":"IDA","empresa":"LOS CONSTITUYENTES SAT","walk_m":81,"source":"Asignacion exploratoria Galeano estudiante-recorrido cercano","access_id":"galeano_access_19","route_distance_m":81,"route_duration_s":60,"straight_distance_m":81,"routing_source":"Tramo exploratorio al recorrido cercano; pendiente de ruteo peatonal OSRM"}},{"type":"Feature","geometry":{"type":"LineString","coordinates":[[-58.58682169109342,-34.561033992474684],[-58.58771,-34.56075]]},"properties":{"school_id":"galeano","school_name":"Escuela Galeano","linea":"78","linea_label":"Linea 78","recorrido":"C","sentido":"IDA","empresa":"LOS CONSTITUYENTES SAT","walk_m":87,"source":"Asignacion exploratoria Galeano estudiante-recorrido cercano","access_id":"galeano_access_20","route_distance_m":87,"route_duration_s":65,"straight_distance_m":87,"routing_source":"Tramo exploratorio al recorrido cercano; pendiente de ruteo peatonal OSRM"}}]}