{"type":"FeatureCollection","features":[{"type":"Feature","properties":{"school_id":"walsh","school_name":"Escuela Walsh","color":"#ffffff","matricula_count":428},"geometry":{"type":"Point","coordinates":[-58.576337853837614,-34.575794364241574]}},{"type":"Feature","properties":{"school_id":"galeano","school_name":"Escuela Galeano","color":"#59d8ff","matricula_count":295},"geometry":{"type":"Point","coordinates":[-58.603157682709366,-34.55505548238594]}},{"type":"Feature","properties":{"school_id":"pizarnik","school_name":"Escuela Pizarnik","color":"#c8a7ff","matricula_count":299},"geometry":{"type":"Point","coordinates":[-58.53686037402286,-34.55904975447658]}}]}