{"type":"FeatureCollection","features":[{"type":"Feature","properties":{"school_id":"walsh","school_name":"Escuela Walsh","minutes":15,"profile":"public-transport-bus","source":"aproximacion_exploratoria_con_recorridos_AMBA","note":"Polígono exploratorio: combina cercanía a recorridos de colectivos AMBA y velocidad promedio supuesta; requiere GTFS/frecuencias para isócrona real."},"geometry":{"type":"Polygon","coordinates":[[[-58.57633785383762,-34.559764840925794],[-58.5753004322023,-34.55949228080603],[-58.574233518223025,-34.5593059196708],[-58.57314768174594,-34.559206608698254],[-58.57205263571147,-34.559191408973156],[-58.57095633723365,-34.559254192022635],[-58.56986436002651,-34.55938653132737],[-58.568779616021295,-34.55957878873819],[-58.567702464968306,-34.55982128071607],[-58.56663120726963,-34.56010540190524],[-58.56556291174669,-34.56042458846345],[-58.56449449103597,-34.56077502031141],[-58.563423906924854,-34.56115598835223],[-58.56235136943806,-34.561569887073404],[-58.56128038893752,-34.562021831357015],[-58.56021855058338,-34.56251893496392],[-58.55917790443059,-34.56306932317079],[-58.55817490001087,-34.56368097992877],[-58.557229838090684,-34.56436054787851],[-58.55636586015618,-34.565112205777204],[-58.55560754336284,-34.56593674170041],[-58.554979210519186,-34.566830922332535],[-58.55450309694226,-34.56778723047788],[-58.55419753540128,-34.56879400733974],[-58.55368159685986,-34.56973057476727],[-58.55320521308065,-34.57068827649732],[-58.55290654122769,-34.57169111508067],[-58.5527820347396,-34.57272007422724],[-58.552820589877626,-34.573756867514675],[-58.5530043903415,-34.57478526225352],[-58.5533102750265,-34.57579220199608],[-58.55371151932565,-34.57676862139667],[-58.55417988282042,-34.57770987604469],[-58.55468775180068,-34.578615746427694],[-58.55521019615518,-34.579490015821214],[-58.55572676765062,-34.58033966271617],[-58.55622288979772,-34.58117374542881],[-58.556690726219735,-34.58200208619826],[-58.557129461250426,-34.58283388148312],[-58.55754497900672,-34.583676372433516],[-58.55794898049656,-34.58453370393096],[-58.5583576274786,-34.58540608268839],[-58.55878984225131,-34.586289316418515],[-58.5592654206369,-34.58717477975542],[-58.559803128654636,-34.588049811960104],[-58.560418950692636,-34.58889851037182],[-58.56112463884699,-34.58970284603756],[-58.56192668142534,-34.59044399756739],[-58.56282576660361,-34.59110377893146],[-58.5638167690334,-34.5916660285692],[-58.56488923752637,-34.592117831586975],[-58.56602831559124,-34.592450463508285],[-58.567020844871,-34.59302069331643],[-58.56806120292711,-34.59354344779437],[-58.56916670801374,-34.59396252094034],[-58.57031984715011,-34.594282726201165],[-58.57150476999576,-34.594511875176224],[-58.57270809888241,-34.5946596451366],[-58.5739193501792,-34.594736341224625],[-58.57513094772675,-34.594751679481],[-58.57633785383762,-34.5947137128429],[-58.57753688457723,-34.59462800622015],[-58.57872580951364,-34.59449714033154],[-58.57990235847712,-34.59432058983136],[-58.5810632668627,-34.594094982788896],[-58.58220348576852,-34.59381470963103],[-58.58331566436755,-34.593472814086105],[-58.58438998132526,-34.59306207000082],[-58.58541436296157,-34.592576128979694],[-58.586375082251074,-34.59201061648657],[-58.587257689175175,-34.591364059070145],[-58.5880481839212,-34.59063854222525],[-58.58873431407183,-34.58984002540451],[-58.58930685849626,-34.588978275164536],[-58.58976075621692,-34.58806641594256],[-58.59009594875154,-34.587120136682145],[-58.59031782852332,-34.58615662660397],[-58.590437221681704,-34.585193341351754],[-58.59046987769034,-34.58424671873267],[-58.590435486056286,-34.58333096949839],[-58.59035628789509,-34.58245706241208],[-58.590255391963844,-34.58163200477963],[-58.59015493713773,-34.58085849141969],[-58.59007426273708,-34.58013495943977],[-58.59042207254728,-34.5795613517439],[-58.59096341362099,-34.5790201014564],[-58.59156085188252,-34.57845757189941],[-58.592203789358244,-34.577862362602396],[-58.59287487049135,-34.57722434329371],[-58.59355089096941,-34.57653591469171],[-58.59420422178405,-34.575793062631234],[-58.59480463811601,-34.57499609995115],[-58.59532140520981,-34.5741500195649],[-58.595725449163794,-34.573264418737516],[-58.59599143184389,-34.57235299527597],[-58.596099556799025,-34.57143265717373],[-58.59603695642094,-34.57052232428036],[-58.595798547474,-34.56964153020158],[-58.59538728906874,-34.568808951997376],[-58.59481382977292,-34.56804100245582],[-58.59409558393428,-34.567350614072666],[-58.5932553264791,-34.56674632590475],[-58.59231943592157,-34.56623175592091],[-58.59131594340288,-34.565805505098496],[-58.590272558804685,-34.56546149881461],[-58.58921484230079,-34.565189729973824],[-58.588164671595884,-34.56497733075059],[-58.58713912347486,-34.564809869405295],[-58.586149846349194,-34.56467274826288],[-58.5852029523846,-34.56455257054952],[-58.584299408222705,-34.5644383481297],[-58.58343585705753,-34.56432243880055],[-58.58280077415997,-34.56384038225847],[-58.58217182111062,-34.56327866672623],[-58.58150291930782,-34.56270344681711],[-58.5807847801469,-34.56212715843229],[-58.580010645925576,-34.56156465140319],[-58.579177030514174,-34.56103198757616],[-58.57828406333943,-34.56054513950332],[-58.5773354182786,-34.56011871652242],[-58.57633785383762,-34.559764840925794]]]}},{"type":"Feature","properties":{"school_id":"walsh","school_name":"Escuela Walsh","minutes":30,"profile":"public-transport-bus","source":"aproximacion_exploratoria_con_recorridos_AMBA","note":"Polígono exploratorio: combina cercanía a recorridos de colectivos AMBA y velocidad promedio supuesta; requiere GTFS/frecuencias para isócrona real."},"geometry":{"type":"Polygon","coordinates":[[[-58.57633785383762,-34.55014712693633],[-58.5746781743942,-34.54971102653373],[-58.57297131727188,-34.54941283560223],[-58.57123418917819,-34.54925391555258],[-58.56948232589755,-34.54922956396402],[-58.56772845449293,-34.54932997537832],[-58.56598148952065,-34.54954166761454],[-58.564246087758285,-34.54984921991667],[-58.56252282350369,-34.55023713883042],[-58.56080897686243,-34.55069165584907],[-58.55909985779887,-34.55120226872571],[-58.55739052632448,-34.551762865121205],[-58.555677720591945,-34.55237231027094],[-58.55396177505974,-34.55303443532283],[-58.55224830360933,-34.55375742445197],[-58.550549438624394,-34.554552660671014],[-58.54888445530931,-34.555433146268264],[-58.54727966742224,-34.55641165842145],[-58.54576755071039,-34.55749882927847],[-58.5443851268705,-34.55870134975497],[-58.54317171631346,-34.56002048640641],[-58.54216623490966,-34.56145107187782],[-58.54140426150863,-34.56298108437719],[-58.54091513404992,-34.56459187471224],[-58.54008942919758,-34.56609029208616],[-58.539326992805115,-34.56762252942284],[-58.538848864211076,-34.56922701666075],[-58.5386493799146,-34.570873328332034],[-58.538710785250274,-34.572532204630335],[-58.53900458458255,-34.57417766985532],[-58.53949372873649,-34.575788828893316],[-58.54013546444202,-34.57735117158499],[-58.540884610398436,-34.578857261079975],[-58.541696985447906,-34.58030674074263],[-58.542532700048,-34.581705659220745],[-58.54335903416515,-34.58306517862193],[-58.54415266179636,-34.584399790027554],[-58.54490104109125,-34.58572520805229],[-58.54560286397223,-34.58705614721716],[-58.5462675432029,-34.58840419452776],[-58.54691380017175,-34.58977598370613],[-58.54756749530935,-34.59117184787887],[-58.54825890779212,-34.592585081943724],[-58.54901971612694,-34.59400188772474],[-58.549879952393454,-34.59540200998724],[-58.55086519865467,-34.59676000568384],[-58.55199426506574,-34.59804702876119],[-58.55327753857918,-34.59923296423839],[-58.55471612396275,-34.60028871272493],[-58.55630182174517,-34.60118841317108],[-58.55801790820539,-34.60191139866921],[-58.55984060830708,-34.60244370680412],[-58.56142878474704,-34.60335615078329],[-58.56309351469947,-34.604192629630305],[-58.56486251483534,-34.60486321354688],[-58.56670775728141,-34.60537560153022],[-58.56860387420337,-34.60574229024875],[-58.570529454519814,-34.605978762070826],[-58.57246771853579,-34.60610150450509],[-58.57440653963526,-34.6061260629195],[-58.57633785383762,-34.6060653220037],[-58.5782565640054,-34.60592818577637],[-58.58015909907364,-34.60571878365139],[-58.58204182444573,-34.60543627542153],[-58.58389951408949,-34.60507526646099],[-58.5857240864761,-34.604626782111986],[-58.58750377625741,-34.60407969329667],[-58.589222864620005,-34.603422439523065],[-58.59086202864158,-34.602644865173836],[-58.59239930017191,-34.60173997327391],[-58.59381155499454,-34.600705408975706],[-58.595076390564294,-34.5995445119763],[-58.596174202036494,-34.598266820301205],[-58.5970902368198,-34.59688796306034],[-58.59781640081259,-34.59542894141289],[-58.59835260589719,-34.59391485893912],[-58.598707486870154,-34.592373218735545],[-58.59889837324284,-34.59083194922652],[-58.5989504718004,-34.58931734944769],[-58.598895292644656,-34.58785215449502],[-58.598768427136136,-34.586453911895106],[-58.59860685320969,-34.58513383073717],[-58.598445995237455,-34.583896220286164],[-58.59831679666045,-34.58273857783661],[-58.59887321646054,-34.58182076765331],[-58.599739294277256,-34.58095470636107],[-58.60069511882482,-34.58005458927169],[-58.60172372946874,-34.579102176162905],[-58.602797353429786,-34.57808126016229],[-58.60387886048154,-34.57697968510579],[-58.60492404208642,-34.57579103211918],[-58.60588453823532,-34.57451580646651],[-58.60671117533949,-34.57316200212678],[-58.60735743973443,-34.57174498015446],[-58.60778279743356,-34.57028666200961],[-58.6079555830968,-34.56881410440586],[-58.60785521863891,-34.5673575814855],[-58.607473580992604,-34.56594834753813],[-58.60681541371765,-34.56461628443158],[-58.60589776135908,-34.56338764941581],[-58.60474849084782,-34.56228312987906],[-58.603404042878374,-34.56131638285621],[-58.60190662087044,-34.56049319139333],[-58.60030106996907,-34.55981131167031],[-58.598631719631314,-34.55926101967959],[-58.59693945902507,-34.55882630051885],[-58.59525928548237,-34.55848656328917],[-58.59361851568404,-34.558218715951625],[-58.59203578220454,-34.557999401925684],[-58.59052086113576,-34.5578071867923],[-58.58907529723705,-34.557624490416956],[-58.58769371907997,-34.557439086381414],[-58.5866776345992,-34.55666782961825],[-58.58567135869924,-34.555769115033904],[-58.58460117817167,-34.55484879197085],[-58.583452234460836,-34.553926757567126],[-58.58221371799103,-34.553026770917405],[-58.58088005279526,-34.55217453003576],[-58.57945144652681,-34.551395589839764],[-58.57793377647563,-34.55071332399723],[-58.57633785383762,-34.55014712693633]]]}},{"type":"Feature","properties":{"school_id":"walsh","school_name":"Escuela Walsh","minutes":45,"profile":"public-transport-bus","source":"aproximacion_exploratoria_con_recorridos_AMBA","note":"Polígono exploratorio: combina cercanía a recorridos de colectivos AMBA y velocidad promedio supuesta; requiere GTFS/frecuencias para isócrona real."},"geometry":{"type":"Polygon","coordinates":[[[-58.57633785383762,-34.54052941294685],[-58.57405606285857,-34.5399297691055],[-58.5717094164115,-34.53951973854873],[-58.56932115428558,-34.53930119256445],[-58.56691263142378,-34.53926766510909],[-58.56450134160288,-34.539405673812574],[-58.56209953768543,-34.5396966810193],[-58.559713619563375,-34.5401194835779],[-58.55734437510663,-34.540652778274335],[-58.554988063721744,-34.54127763349739],[-58.55263823640397,-34.54197960852054],[-58.55028810038492,-34.54275029858525],[-58.54793316965307,-34.54358814310139],[-58.54557390191604,-34.54449840985265],[-58.5432180125534,-34.54549235257879],[-58.540882178269904,-34.54658562428916],[-58.538592895758434,-34.54779610566584],[-58.5363863388851,-34.5491413692525],[-58.534307154267964,-34.55063603964347],[-58.532406240300766,-34.5522893235882],[-58.530737658366064,-34.55410297034531],[-58.5293549169212,-34.55606988298165],[-58.52830694009529,-34.558173539399334],[-58.5276340751198,-34.56038830367365],[-58.526498451705436,-34.562448503069234],[-58.525449796068955,-34.56455521188878],[-58.524792020618456,-34.5667613068463],[-58.52451735315474,-34.5690249537476],[-58.52460139656974,-34.571305918259064],[-58.52500498372624,-34.57356847912596],[-58.52567718382647,-34.5757838989743],[-58.52655921951781,-34.57793221862904],[-58.527588971149704,-34.58000320445616],[-58.52870569070587,-34.58199635863529],[-58.52985452819377,-34.583919991741055],[-58.53099048963752,-34.585789446888185],[-58.532081496806846,-34.58762464625336],[-58.533110299642324,-34.589447196099506],[-58.53407509539578,-34.59127732914963],[-58.534988824108815,-34.59313097913818],[-58.53587722738131,-34.595017270061604],[-58.53677586552805,-34.59693666325014],[-58.53772637722842,-34.59887994270573],[-58.538772327570044,-34.60082813925101],[-58.53995501953394,-34.602753404618106],[-58.54130963814576,-34.60462075628194],[-58.54286205672821,-34.606390531293435],[-58.544626565131786,-34.60802132051345],[-58.54660468748812,-34.60947310988321],[-58.548785151023004,-34.61071033694766],[-58.551144958120524,-34.61170458047454],[-58.553651411710725,-34.61243663766751],[-58.55583533252744,-34.6136913530687],[-58.55812455222202,-34.61484161008352],[-58.5605571914886,-34.61576375497022],[-58.563094702228504,-34.616468370385654],[-58.56570219364008,-34.6169726366472],[-58.56835021611305,-34.617297840270055],[-58.57101568946791,-34.61746665058886],[-58.57368193305574,-34.6175004420755],[-58.57633785383762,-34.6174169311645],[-58.57897643933789,-34.617228361105845],[-58.581592776074956,-34.61694041020652],[-58.584181863278445,-34.61655192365777],[-58.58673651148767,-34.61605548448681],[-58.589245604078855,-34.61543875344634],[-58.591692958160195,-34.614686429371204],[-58.59405695392686,-34.61378261844715],[-58.596311015435184,-34.612713359198516],[-58.59842492972546,-34.6114690339253],[-58.60036689524251,-34.61004640839189],[-58.60210610457614,-34.6084500786786],[-58.60361559972517,-34.606693163561495],[-58.60487509755636,-34.604797156669285],[-58.605873473447964,-34.602790937427955],[-58.60661061374452,-34.60070902500697],[-58.60709840081272,-34.59858923663482],[-58.60736067328569,-34.59646997306063],[-58.60743210100689,-34.594387393454696],[-58.60735601984307,-34.592372755675484],[-58.60718137558209,-34.59045018414053],[-58.60695901827838,-34.588635087771216],[-58.6067376594284,-34.5869333884445],[-58.606559846988226,-34.58534164208365],[-58.607324819822544,-34.584079601019965],[-58.60851558342038,-34.58288868310636],[-58.60982973671294,-34.58165092614555],[-58.61124395349733,-34.58034125056263],[-58.61272004085673,-34.57893737405719],[-58.61420694015794,-34.577422585598896],[-58.615643861744275,-34.57578806444785],[-58.6169643101973,-34.574034511835166],[-58.618100674614745,-34.57217292679302],[-58.618989005007364,-34.57022443823674],[-58.619573576810446,-34.56821919500383],[-58.619810862532475,-34.566194405467904],[-58.61967258117576,-34.56419169984755],[-58.619147577419746,-34.56225405350319],[-58.61824238600401,-34.56042255203645],[-58.616980452570765,-34.55873329474922],[-58.61540009960698,-34.557214720468245],[-58.61355143417794,-34.5558856001151],[-58.611492482951824,-34.554753877537124],[-58.609284901564344,-34.553816460081485],[-58.60698963428276,-34.55305997090058],[-58.60466289393819,-34.55246238462553],[-58.60235279224634,-34.551995385502565],[-58.60009688115616,-34.55162722025336],[-58.59792077374538,-34.551325773167505],[-58.595837907504766,-34.551061572495335],[-58.59385040391293,-34.5508104467651],[-58.591950876515874,-34.55055558617275],[-58.59055382656881,-34.54949515445623],[-58.58917026455235,-34.548259463510554],[-58.58769885205961,-34.546994058877026],[-58.586119162990194,-34.54572629870298],[-58.584416337953186,-34.5444888508699],[-58.582582712522644,-34.543317048855215],[-58.58061857300487,-34.54224602906839],[-58.57853199941743,-34.54130792855383],[-58.57633785383762,-34.54052941294685]]]}},{"type":"Feature","properties":{"school_id":"walsh","school_name":"Escuela Walsh","minutes":60,"profile":"public-transport-bus","source":"aproximacion_exploratoria_con_recorridos_AMBA","note":"Polígono exploratorio: combina cercanía a recorridos de colectivos AMBA y velocidad promedio supuesta; requiere GTFS/frecuencias para isócrona real."},"geometry":{"type":"Polygon","coordinates":[[[-58.57633785383762,-34.53091169895739],[-58.573434097507594,-34.53014850852324],[-58.570447815460064,-34.52962662851818],[-58.56740857678989,-34.52934843975208],[-58.56434355191724,-34.52930571244127],[-58.56127499810115,-34.52948128737711],[-58.55821850397716,-34.529851571615914],[-58.555182210821684,-34.53038957982191],[-58.55216711910245,-34.53106819917648],[-58.54916846712504,-34.53186333500986],[-58.546178046803824,-34.53275660804069],[-58.54318721243621,-34.53373732093107],[-58.54019025331741,-34.53480348710731],[-58.53718774922072,-34.535961810963464],[-58.534189515003675,-34.53722661607484],[-58.53121676879133,-34.53861782619105],[-58.528303225105674,-34.54015820176842],[-58.52549491380298,-34.541870112853765],[-58.52284864826172,-34.543772179424764],[-58.52042920005683,-34.54587612773747],[-58.518305369254726,-34.548184193975196],[-58.51654525641828,-34.550687356086236],[-58.51521113269579,-34.553364595957206],[-58.51435435872369,-34.55618329459518],[-58.51290866460955,-34.55880520805332],[-58.51157362320343,-34.561486324190945],[-58.51073601086835,-34.564293985881314],[-58.510385954942315,-34.5671749506588],[-58.51049242435569,-34.57007800852311],[-58.51100558830322,-34.57295769012524],[-58.51186064081395,-34.57577741223951],[-58.51298278503722,-34.57851176247513],[-58.51429296550966,-34.58114770607177],[-58.51571386795008,-34.583684599962865],[-58.517175680900664,-34.58613301320389],[-58.51862113430349,-34.588512467306195],[-58.52000939498888,-34.590848313870815],[-58.5213185019533,-34.59316805008069],[-58.522546155518185,-34.59549742699949],[-58.523708821633626,-34.59785672596355],[-58.524839261940954,-34.60025756267755],[-58.525982737851216,-34.60270052846585],[-58.527192250172526,-34.60517389835468],[-58.52852325447142,-34.60765353397509],[-58.53002832947489,-34.61010399548989],[-58.53175226846401,-34.61248076180646],[-58.53372801304367,-34.61473335328563],[-58.53597376022202,-34.61680906606299],[-58.53849145627239,-34.61865697010348],[-58.54126675594213,-34.62023179962935],[-58.54427038636032,-34.62149737677116],[-58.54746072493436,-34.62242925590664],[-58.55024048736258,-34.62402630001063],[-58.55315431468512,-34.62549038902227],[-58.55625073723223,-34.62666414510909],[-58.55948068134276,-34.62756103269488],[-58.56279972776917,-34.62820291432419],[-58.56617038325102,-34.628616879707344],[-58.56956326269864,-34.62883177946394],[-58.57295712784951,-34.628874816945995],[-58.57633785383762,-34.6287685403253],[-58.579696510710676,-34.6285285322056],[-58.58302684078416,-34.628162019985375],[-58.58632247536464,-34.62766753451456],[-58.5895742595589,-34.62703563682201],[-58.59276803917736,-34.62625062356691],[-58.59588321075882,-34.62529302221642],[-58.598892249991316,-34.62414260665176],[-58.601761324127835,-34.62278161090387],[-58.60445197171254,-34.62119779826372],[-58.60692371070992,-34.61938705711755],[-58.60913732671325,-34.61735524211164],[-58.61105850783842,-34.615119054951585],[-58.61266144133358,-34.61270585575118],[-58.613931974666116,-34.61015240374832],[-58.61486997274667,-34.60750263465356],[-58.61549057071439,-34.604804680082545],[-58.61582412208899,-34.602107412651804],[-58.61591476551233,-34.599456850570974],[-58.615817667788214,-34.59689277287764],[-58.61559513331463,-34.594445879006635],[-58.615311887206886,-34.59213577575942],[-58.615029929711724,-34.58996999579012],[-58.61480341369299,-34.587944152092234],[-58.61577688257854,-34.586337851763],[-58.61729228096623,-34.584822031617655],[-58.61896470543169,-34.58324658245429],[-58.62076446129629,-34.58157958574534],[-58.62264293259122,-34.579792684936194],[-58.62453512978544,-34.57786461614735],[-58.62636368051589,-34.57578415961743],[-58.62804395373885,-34.57355221608672],[-58.62948990276217,-34.57118279362789],[-58.63062014471365,-34.56870279308741],[-58.6313637697275,-34.566150594402544],[-58.63166539489944,-34.563573560544235],[-58.631489043882816,-34.56102467958789],[-58.63082053667872,-34.55855864834883],[-58.62966820593208,-34.55622775508617],[-58.628061903495585,-34.5540779387423],[-58.62605041037884,-34.55214538612808],[-58.62369750061482,-34.55045397796138],[-58.62107702245918,-34.549013814616366],[-58.6182674385232,-34.5478209505743],[-58.615346303119026,-34.54685835269444],[-58.61238514741159,-34.54609798248388],[-58.60944519225906,-34.54550379755429],[-58.606574220253435,-34.545035382448994],[-58.603804821318654,-34.54465186210405],[-58.60115409181931,-34.54431572775408],[-58.59862472855628,-34.543996217251916],[-58.59620732964784,-34.54367193823702],[-58.594429350351675,-34.542322356826375],[-58.59266853895278,-34.54074971220217],[-58.590795941247904,-34.539139247573374],[-58.588785565995934,-34.53752578186904],[-58.58661850604693,-34.5359508912814],[-58.58428500989245,-34.53445954404739],[-58.581785442917486,-34.53309645719544],[-58.579130087182044,-34.53190253019388],[-58.57633785383762,-34.53091169895739]]]}},{"type":"Feature","properties":{"school_id":"galeano","school_name":"Escuela Galeano","minutes":15,"profile":"public-transport-bus","source":"aproximacion_exploratoria_con_recorridos_AMBA","note":"Polígono exploratorio: combina cercanía a recorridos de colectivos AMBA y velocidad promedio supuesta; requiere GTFS/frecuencias para isócrona real."},"geometry":{"type":"Polygon","coordinates":[[[-58.603157682709366,-34.53325325207174],[-58.6017186356372,-34.532434885556015],[-58.60028352968127,-34.53252790505518],[-58.59885629519059,-34.532682654469255],[-58.597440841008996,-34.53289870998353],[-58.59604104379513,-34.533175479879375],[-58.59466073742978,-34.53351220615087],[-58.593303702538755,-34.53390796657588],[-58.59197365616003,-34.53436167723596],[-58.59067424158293,-34.53487209547809],[-58.5894090183871,-34.535437823310566],[-58.588181452708056,-34.53605731122343],[-58.58699490775597,-34.536728862423516],[-58.58585263461343,-34.53745063747225],[-58.584757763337,-34.53822065931395],[-58.58371329438724,-34.53903681868075],[-58.58272209041009,-34.539896879859675],[-58.58178686839257,-34.540798486806054],[-58.580910192213864,-34.541739169586805],[-58.58009446561248,-34.54271635113603],[-58.57934192558871,-34.54372735430453],[-58.578654636260644,-34.54476940918414],[-58.578034483190585,-34.54583966068693],[-58.57748316819777,-34.54693517635858],[-58.57700220467171,-34.54805295440479],[-58.57659291339912,-34.54918993190864],[-58.57625641891653,-34.55034299321676],[-58.57599364639843,-34.551508978471084],[-58.57580531909004,-34.552684692263284],[-58.57569195629206,-34.55386691238787],[-58.57565387190334,-34.555052398670256],[-58.57569117352554,-34.556237901845556],[-58.57580376213314,-34.55742017246379],[-58.57599133230951,-34.55859596979718],[-58.57625337304921,-34.55976207072493],[-58.57658916912454,-34.56091527857136],[-58.576997803012915,-34.5620524318729],[-58.577478157380256,-34.563170413050116],[-58.57802891811387,-34.56426615696054],[-58.57864857789687,-34.56533665930924],[-58.57933544031455,-34.56637898489358],[-58.58062001650255,-34.567105713496034],[-58.58227180797234,-34.5675492457562],[-58.58391306396976,-34.567886675382816],[-58.585547448858655,-34.56811114595086],[-58.587176164399956,-34.56821444271256],[-58.5887969203142,-34.56818806974419],[-58.59040334334289,-34.56802445124617],[-58.59198486794095,-34.56771813228134],[-58.5935271032824,-34.56726685432728],[-58.59476460191312,-34.56702607693239],[-58.5959444489685,-34.566712889576266],[-58.59694781531139,-34.56654071743791],[-58.59744427235473,-34.567311683955054],[-58.59803329347328,-34.56804225670564],[-58.598706423589036,-34.568734756267105],[-58.59945675806164,-34.56939272994512],[-58.60027933549729,-34.57001984284176],[-58.60117114520316,-34.570618773801776],[-58.60213076445415,-34.57119023692013],[-58.603157682709366,-34.57173223635726],[-58.604251405361715,-34.57223963840514],[-58.605410454869826,-34.572704112440384],[-58.60663139959864,-34.57311445480127],[-58.60790803907564,-34.57345727046659],[-58.60923085878591,-34.57371795058918],[-58.61058683963151,-34.57388185311621],[-58.61195966959703,-34.57393557199321],[-58.61333036181059,-34.57386816999507],[-58.614678238502556,-34.57367225213665],[-58.61598219895018,-34.57334477075786],[-58.6172221556726,-34.572887478410536],[-58.618380500499704,-34.57230697817875],[-58.61944345317939,-34.57161435977841],[-58.620402151059594,-34.570824449921545],[-58.62125335875373,-34.56995474305903],[-58.6219997097889,-34.56902411003234],[-58.62264943497436,-34.56805140426827],[-58.62321558055345,-34.56705409574359],[-58.62371476845905,-34.56604706095105],[-58.62416559638381,-34.565041642662806],[-58.62458681242812,-34.56404506777391],[-58.62499542409498,-34.563060277357565],[-58.6254049117748,-34.56208618356459],[-58.62582371140819,-34.56111832696263],[-58.6262541100343,-34.56014986930937],[-58.626691663220896,-34.55917282432742],[-58.62712519805025,-34.558179405950845],[-58.62753741355696,-34.557163361992124],[-58.62790603708045,-34.556121162368164],[-58.628205444896196,-34.55505292482231],[-58.62840861342288,-34.55396298616089],[-58.628489237225686,-34.552860060965],[-58.628423834777024,-34.551756969256495],[-58.628193663923746,-34.550669955864684],[-58.627786286133784,-34.54961766326593],[-58.627196650214366,-34.548619852680744],[-58.6264276093042,-34.54769599203501],[-58.625489835465935,-34.54686384174603],[-58.62440114938883,-34.546138169022385],[-58.62318533358769,-34.54552970854176],[-58.621870541342695,-34.545044463285414],[-58.62048744646459,-34.544683406340255],[-58.61906729787367,-34.54444260586438],[-58.61764004638101,-34.544313754921774],[-58.616232698881504,-34.54428504946333],[-58.614868028821135,-34.54434232509324],[-58.6135637340327,-34.54447033955867],[-58.612332087663326,-34.544654075406704],[-58.61118007944727,-34.544879937129124],[-58.610357889874095,-34.54478301480335],[-58.609597764488036,-34.54464445707435],[-58.60899447818328,-34.54425707038788],[-58.60885374412298,-34.54283263634121],[-58.608553876010866,-34.54137525750881],[-58.60808494557569,-34.539907953761514],[-58.60744115619877,-34.53845515057294],[-58.606621253663874,-34.537041348948215],[-58.60562852372335,-34.535689799479016],[-58.604470391844764,-34.53442130359048],[-58.603157682709366,-34.53325325207174]]]}},{"type":"Feature","properties":{"school_id":"galeano","school_name":"Escuela Galeano","minutes":30,"profile":"public-transport-bus","source":"aproximacion_exploratoria_con_recorridos_AMBA","note":"Polígono exploratorio: combina cercanía a recorridos de colectivos AMBA y velocidad promedio supuesta; requiere GTFS/frecuencias para isócrona real."},"geometry":{"type":"Polygon","coordinates":[[[-58.603157682709366,-34.52017191388321],[-58.60085558267019,-34.51886251935922],[-58.5985597843105,-34.51901132634992],[-58.59627657212718,-34.51925888536009],[-58.59401219629791,-34.51960451872427],[-58.591772855636826,-34.52004728029918],[-58.58956468068798,-34.520585958043775],[-58.587393717002115,-34.521219077324616],[-58.58526590864178,-34.52194490493749],[-58.58318708195903,-34.52276145383481],[-58.581162929689526,-34.52366648854568],[-58.5791989954059,-34.524657531274485],[-58.57730065837233,-34.52573186866123],[-58.575473118841444,-34.52688655918568],[-58.573721383833174,-34.52811844119527],[-58.572050253434355,-34.52942414153516],[-58.57046430765644,-34.53080008475719],[-58.56896789388686,-34.53224250288292],[-58.5675651149687,-34.5337474456943],[-58.566259817941365,-34.53531079152431],[-58.565055583472905,-34.536928258518266],[-58.56395571601381,-34.538595416335426],[-58.56296323469896,-34.54030769825909],[-58.562080865023674,-34.54206041368249],[-58.561311031316755,-34.54384876093644],[-58.56065585003207,-34.545667840424095],[-58.56011712387763,-34.54751266802688],[-58.559696336799036,-34.54937818874535],[-58.55939464983185,-34.5512592905375],[-58.55921289783514,-34.55315081831722],[-58.5591515871161,-34.55504758807419],[-58.55921089395324,-34.556944401077004],[-58.559390664022985,-34.55883605812044],[-58.5596904127325,-34.56071737377795],[-58.56010932645868,-34.56258319062025],[-58.56064626469075,-34.564428393360984],[-58.56129976307198,-34.5662479228906],[-58.562068037332565,-34.56803679015976],[-58.56294898810427,-34.56979008987425],[-58.56394020660407,-34.57150301396329],[-58.56503898117237,-34.573170864784394],[-58.5670942817481,-34.574333863640206],[-58.569737270812816,-34.57504379603168],[-58.57236344206863,-34.57558394127104],[-58.57497865428859,-34.575943329986956],[-58.577584825538715,-34.576108818994605],[-58.58017828557368,-34.57606681477318],[-58.58274883006431,-34.57580519570803],[-58.58527954573635,-34.57531523351507],[-58.58774739793164,-34.574593314397816],[-58.58972759353617,-34.57420815788564],[-58.59161553796517,-34.573707130201484],[-58.59322107149331,-34.57343170750629],[-58.59401541770952,-34.574665277103854],[-58.594957891598206,-34.5758342184938],[-58.596034965100564,-34.57694224302489],[-58.5972355906294,-34.577995024856286],[-58.59855182983969,-34.578998426678616],[-58.599978865711996,-34.5799567332005],[-58.60151442217966,-34.58087108551173],[-58.603157682709366,-34.581738288740056],[-58.60490785598293,-34.582550127332944],[-58.606762577279824,-34.583293270602134],[-58.608716354145294,-34.583949791003114],[-58.610759262358535,-34.584498254957076],[-58.61287607329094,-34.58491528709091],[-58.61504594894562,-34.5851774594431],[-58.61724278081299,-34.58526332239607],[-58.619436179271155,-34.58515537736108],[-58.621593048705755,-34.58484179429922],[-58.62367961720158,-34.584317699799286],[-58.62566373549123,-34.58358590150521],[-58.627517223595746,-34.58265696831769],[-58.62921802926531,-34.58154864776234],[-58.63075197176359,-34.5802846661581],[-58.63211387720137,-34.57889301743279],[-58.633307964645944,-34.57740389669299],[-58.63434741068175,-34.57584747000291],[-58.635253097464236,-34.57425168875052],[-58.63605162813309,-34.57264035376001],[-58.636772766059686,-34.571031611193156],[-58.63744651364747,-34.56943702144925],[-58.63810008636511,-34.56786128763134],[-58.63875505424858,-34.56630266695453],[-58.639424914348844,-34.56475402282245],[-58.64011332401878,-34.56320441354289],[-58.64081316938899,-34.561641061774466],[-58.64150657086358,-34.56005151183558],[-58.642165844612414,-34.55842576357044],[-58.642755353527,-34.55675817336897],[-58.643234100926996,-34.55504893502333],[-58.64355885298263,-34.553304993252404],[-58.643687527697,-34.55154029706066],[-58.64358256390468,-34.549775363357064],[-58.64321398537999,-34.54803618731383],[-58.64256190261869,-34.54635259839646],[-58.641618245525734,-34.544756213809116],[-58.64038758927829,-34.543278179187304],[-58.63888701649755,-34.54194690609288],[-58.63714504394007,-34.54078601538279],[-58.635199723261394,-34.53981267495995],[-58.633096095490124,-34.53903648184824],[-58.63088323129935,-34.53845898577832],[-58.62861111932431,-34.53807388970182],[-58.62632767016716,-34.537867897897904],[-58.624076084233714,-34.53782212089199],[-58.62189278942082,-34.537913894225255],[-58.6198060943018,-34.538118830221656],[-58.61783562993054,-34.53841290192516],[-58.61599257589405,-34.53877435818463],[-58.61467716103524,-34.53861933142966],[-58.61346104019757,-34.53839767962769],[-58.61249582848861,-34.537777889906906],[-58.612270577984404,-34.535498801787284],[-58.61179074062761,-34.53316700867264],[-58.611040442588745,-34.53081934161841],[-58.610010420330084,-34.528494879715375],[-58.608698676799754,-34.526232821963234],[-58.60711047662513,-34.524070365856524],[-58.60525770503227,-34.52204078957358],[-58.603157682709366,-34.52017191388321]]]}},{"type":"Feature","properties":{"school_id":"galeano","school_name":"Escuela Galeano","minutes":45,"profile":"public-transport-bus","source":"aproximacion_exploratoria_con_recorridos_AMBA","note":"Polígono exploratorio: combina cercanía a recorridos de colectivos AMBA y velocidad promedio supuesta; requiere GTFS/frecuencias para isócrona real."},"geometry":{"type":"Polygon","coordinates":[[[-58.603157682709366,-34.50709057569468],[-58.59999281087402,-34.50529014709448],[-58.596836598208,-34.50549472343909],[-58.59369768031601,-34.5058350620362],[-58.59058464573629,-34.50631023169722],[-58.58750601256411,-34.50691893230804],[-58.584470205262775,-34.507659498367445],[-58.581485531724255,-34.50852990352045],[-58.57856016064042,-34.509527766074356],[-58.575702099245376,-34.51065035548279],[-58.572919171488586,-34.511894599780604],[-58.57021899669719,-34.51325709394953],[-58.5676089687849,-34.514734109192446],[-58.56509623606336,-34.51632160309147],[-58.5626876817105,-34.5180152306226],[-58.5603899049488,-34.51981035599751],[-58.55820920298452,-34.521702065300715],[-58.55615155375691,-34.5236851798884],[-58.554222599545014,-34.52575427051262],[-58.55242763147651,-34.52790367213328],[-58.5507715749819,-34.530127499377805],[-58.549258976233894,-34.532419662606976],[-58.54789398961013,-34.5347738845436],[-58.546680366214176,-34.53718371741906],[-58.54562144348758,-34.539642560591574],[-58.544720135942235,-34.54214367858816],[-58.543978927040015,-34.54468021952172],[-58.543399862243355,-34.547245233833166],[-58.54298454325721,-34.549831693307354],[-58.54273412348001,-34.55243251031161],[-58.542649304677724,-34.55504055720386],[-58.54273033489189,-34.557648685857735],[-58.542977007589435,-34.56024974725108],[-58.543388662058106,-34.56283661106424],[-58.543964185048594,-34.565402185234525],[-58.544702013660675,-34.56793943541292],[-58.545600139467005,-34.570441404269665],[-58.546656113865495,-34.572901230595505],[-58.54786705464668,-34.575312168145885],[-58.54922965376037,-34.57766760417594],[-58.550740186261024,-34.57996107761527],[-58.5535661950382,-34.58156052158363],[-58.55720047361633,-34.58253706477648],[-58.56081168130839,-34.58328011909845],[-58.564407868136364,-34.583774602910474],[-58.56799166490312,-34.58400244489672],[-58.571558017043195,-34.58394495390449],[-58.575092883812616,-34.583585462250156],[-58.57857299789767,-34.58291196801213],[-58.58196667379617,-34.5819195019979],[-58.584689714796404,-34.58139003189642],[-58.5872858985299,-34.58070121797975],[-58.58949370983372,-34.580322584293974],[-58.590585956414905,-34.582018774355234],[-58.591881913142934,-34.5836261031341],[-58.59336297902956,-34.58514967156864],[-58.59501396342034,-34.58659727952324],[-58.59682395093415,-34.5879769861716],[-58.59878631829294,-34.58929468100301],[-58.600897936309934,-34.59055193100438],[-58.603157682709366,-34.591744341122855],[-58.60556446950244,-34.59286061274522],[-58.60811504429827,-34.593882413848846],[-58.610801852441654,-34.594785091740626],[-58.613611243360914,-34.595539173124216],[-58.616522270254,-34.59611251518639],[-58.61950627063651,-34.59647290354906],[-58.622527332530346,-34.596590845084265],[-58.62554365558177,-34.59644228056992],[-58.62850971793302,-34.59601094636902],[-58.63137906839747,-34.59529014545649],[-58.63410748894087,-34.59428374324319],[-58.63665622259265,-34.593006277425246],[-58.638994942222105,-34.591482156326656],[-58.64110414864465,-34.58974400856079],[-58.6429767315243,-34.58783032963873],[-58.64461849954698,-34.585782640252404],[-58.64604758055032,-34.58364241953857],[-58.64729269873599,-34.581448099863415],[-58.648390444493394,-34.57923240520724],[-58.649381752175266,-34.577020283414036],[-58.65030788257305,-34.57482762641079],[-58.6512062617202,-34.57266089736863],[-58.65210655035646,-34.57051769689665],[-58.65302730630207,-34.568388210106015],[-58.65397355579086,-34.56625739147695],[-58.654935513433486,-34.564107673131915],[-58.655888590761826,-34.56192193129272],[-58.65679471937016,-34.55968642034438],[-58.65760489706796,-34.557393386542365],[-58.658262755183664,-34.55504310377925],[-58.65870885256998,-34.552645129056216],[-58.6588853356963,-34.55021865005396],[-58.658740570720674,-34.54779188421984],[-58.658233355758234,-34.54540057964792],[-58.65733635943781,-34.543085753914966],[-58.656038501613324,-34.54089087964268],[-58.654346087105125,-34.53885877788843],[-58.65228261457069,-34.537028507527715],[-58.64988729956173,-34.53543253805887],[-58.64721246258797,-34.534094464926525],[-58.6443200292551,-34.533027473391535],[-58.6412774615276,-34.53223368442697],[-58.63815348052883,-34.53170443120692],[-58.63501394863455,-34.531421425762595],[-58.63191825179783,-34.53135869095052],[-58.628916465160415,-34.53148506118208],[-58.626047502073085,-34.531767003305596],[-58.62333834701552,-34.53217148158874],[-58.62080436644069,-34.53266859048385],[-58.6189957926197,-34.53245549600821],[-58.61732373614691,-34.532150780543304],[-58.61599663381446,-34.53129860951292],[-58.61568680992757,-34.52816487209044],[-58.615026967106346,-34.524958674456634],[-58.613995294505706,-34.521730658297535],[-58.61257906994506,-34.51853455507068],[-58.61077556079334,-34.51542425981501],[-58.60859201610681,-34.51245091434088],[-58.60604478421686,-34.50966027050665],[-58.603157682709366,-34.50709057569468]]]}},{"type":"Feature","properties":{"school_id":"galeano","school_name":"Escuela Galeano","minutes":60,"profile":"public-transport-bus","source":"aproximacion_exploratoria_con_recorridos_AMBA","note":"Polígono exploratorio: combina cercanía a recorridos de colectivos AMBA y velocidad promedio supuesta; requiere GTFS/frecuencias para isócrona real."},"geometry":{"type":"Polygon","coordinates":[[[-58.603157682709366,-34.49400923750617],[-58.59913032001468,-34.49171776876682],[-58.595113970910916,-34.491978096342805],[-58.59111961907575,-34.49241118454223],[-58.58715818843949,-34.49301584898052],[-58.58324051350859,-34.49379043602555],[-58.579377309925704,-34.49473282728971],[-58.57557914534374,-34.495840445384985],[-58.57185641069135,-34.497110260925844],[-58.568219291906104,-34.49853880076148],[-58.56467774221031,-34.500122157415554],[-58.56124145500352,-34.50185599970846],[-58.55791983744409,-34.503735584533935],[-58.55472198479057,-34.50575576975876],[-58.551656655571655,-34.50791102821131],[-58.54873224765213,-34.51019546272176],[-58.545956775259064,-34.5126028221739],[-58.5433378470311,-34.515126518525776],[-58.540882645150774,-34.51775964475377],[-58.53859790561691,-34.52049499367209],[-58.53648989971201,-34.5233250775775],[-58.53456441671578,-34.52624214866632],[-58.53282674791352,-34.52923822016931],[-58.53128167194435,-34.53230508814717],[-58.52993344153115,-34.53543435388839],[-58.52878577163031,-34.538617446848754],[-58.52784182903604,-34.54184564807053],[-58.527104223469934,-34.54511011401811],[-58.526575000182696,-34.5484019007653],[-58.526255634091115,-34.551711988468696],[-58.526147025469,-34.55503130606023],[-58.52624949720688,-34.558350756092],[-58.52656279365097,-34.56166123966503],[-58.52708608102756,-34.56495368137407],[-58.52781794945474,-34.56821905419982],[-58.52875641653892,-34.57144840428021],[-58.52989893254921,-34.574632875492554],[-58.531242387158386,-34.57776373377875],[-58.53278311773473,-34.5808323911464],[-58.534516919164396,-34.583830429279125],[-58.53643905518006,-34.5867496226909],[-58.54003575581478,-34.58878568666395],[-58.54466141572937,-34.590029051400734],[-58.54925778098047,-34.59097520835064],[-58.55383508967574,-34.59160496428313],[-58.55839668178311,-34.59189532005509],[-58.56293611405781,-34.59182248684491],[-58.56743550399103,-34.59136525064416],[-58.571865223912226,-34.59050833560136],[-58.57618493045539,-34.58924541700489],[-58.579650965334984,-34.5885716988734],[-58.58295553036568,-34.58769515284541],[-58.58576573008125,-34.587213347753014],[-58.58715588820479,-34.58937217566588],[-58.588805357837224,-34.59141791058964],[-58.59069046511377,-34.593357041869005],[-58.59279187619363,-34.59519949392468],[-58.595095698575776,-34.59695552130728],[-58.59759350279262,-34.59863261720265],[-58.6002813067596,-34.600232773396264],[-58.603157682709366,-34.60175039350564],[-58.60622124602337,-34.60317109463975],[-58.60946785614892,-34.6044715421708],[-58.61288789484786,-34.60562035699018],[-58.61646398259215,-34.606580024923005],[-58.62016945034148,-34.60730963480105],[-58.623967805528125,-34.60776818532152],[-58.62781332572263,-34.60791813989933],[-58.631652791848005,-34.607728879410665],[-58.63542824739503,-34.60717970807835],[-58.63908055381864,-34.606262107403616],[-58.642553417331875,-34.60498100324239],[-58.645797498787566,-34.603354905068386],[-58.64877419329236,-34.60141488499572],[-58.65145868285415,-34.599202476621855],[-58.65384192275331,-34.596766679148544],[-58.65593131538153,-34.59416034017371],[-58.65774994531629,-34.59143625234078],[-58.65933438494756,-34.58864332855981],[-58.66073121796358,-34.58582321479011],[-58.66199255500531,-34.58300765884859],[-58.663170919339656,-34.58021688221201],[-58.664313950164605,-34.577459106156596],[-58.66545939998201,-34.57473127301472],[-58.66663088703962,-34.57202088847663],[-58.667834805019254,-34.56930880281791],[-58.66905869492901,-34.56657265815344],[-58.67027125723607,-34.56379066412854],[-58.671424037250794,-34.56094533217887],[-58.67245466707029,-34.558026801818265],[-58.67329140700091,-34.555035431090715],[-58.67385861151316,-34.551983393648115],[-58.674082660574896,-34.54889512009771],[-58.6738978546306,-34.545806532072966],[-58.673251774548646,-34.54276313316453],[-58.67210965619201,-34.53981713017838],[-58.67045741820764,-34.53702385058374],[-58.66830310265421,-34.53443778856934],[-58.665676629692605,-34.53210864649219],[-58.66262791638727,-34.530077737485584],[-58.659223551807315,-34.52837507885442],[-58.65554234295847,-34.52701743829414],[-58.65167013752354,-34.52600750262279],[-58.64769438188808,-34.52533423066989],[-58.64369888218723,-34.52497433875928],[-58.63975920196258,-34.52489475983786],[-58.63593905640021,-34.52505582612243],[-58.63228795767029,-34.52541485893426],[-58.6288402392018,-34.525929814492045],[-58.62561545132992,-34.52656263409753],[-58.6233137848537,-34.52629150859653],[-58.62118585254705,-34.52590375986781],[-58.61949689436917,-34.524819229245665],[-58.619102440215656,-34.520830847293496],[-58.6182625557619,-34.51675025490385],[-58.61694950168133,-34.51264190383858],[-58.61514710541602,-34.50857417667173],[-58.61285190600051,-34.50461566252691],[-58.61007314246255,-34.50083144494486],[-58.606831629576206,-34.497279746393545],[-58.603157682709366,-34.49400923750617]]]}},{"type":"Feature","properties":{"school_id":"pizarnik","school_name":"Escuela Pizarnik","minutes":15,"profile":"public-transport-bus","source":"aproximacion_exploratoria_con_recorridos_AMBA","note":"Polígono exploratorio: combina cercanía a recorridos de colectivos AMBA y velocidad promedio supuesta; requiere GTFS/frecuencias para isócrona real."},"geometry":{"type":"Polygon","coordinates":[[[-58.536860374022865,-34.536398122815264],[-58.53542125791182,-34.53642915764541],[-58.53398608310562,-34.53652217714079],[-58.53255878014134,-34.53667692654864],[-58.531143258049894,-34.53689298205429],[-58.52974339367548,-34.5371697519392],[-58.5283630210824,-34.53750647819758],[-58.52700592107745,-34.53790223860746],[-58.525675810876585,-34.53835594925051],[-58.52437633394362,-34.538866367473936],[-58.52311105002871,-34.53943209528621],[-58.52188342543345,-34.540051583177615],[-58.52069682352922,-34.540723134355225],[-58.51955449555446,-34.5414449093807],[-58.51845957171587,-34.54221493119862],[-58.517415052617984,-34.54303109054137],[-58.51642380104416,-34.54389115169624],[-58.51548853411192,-34.54479275861883],[-58.51461181582363,-34.54573344137632],[-58.51379605003339,-34.54671062290306],[-58.513043473849166,-34.5477216260501],[-58.51235615148838,-34.5487636809095],[-58.51173596860428,-34.54983393239357],[-58.51118462709822,-34.55092944804818],[-58.510703640432766,-34.552047226079225],[-58.51048074392791,-34.55322538518772],[-58.50996417113592,-34.55433837836384],[-58.50969503357685,-34.55550325011281],[-58.50950669716924,-34.55667896389876],[-58.50939332887029,-34.557861184019565],[-58.509449445877024,-34.559046691390705],[-58.509611941071995,-34.56022275358886],[-58.509843447435124,-34.56138523760283],[-58.5101214128823,-34.56253442315666],[-58.51042702815708,-34.56367378629996],[-58.51074671741983,-34.56480900857148],[-58.5110731458607,-34.56594674727577],[-58.51117961529223,-34.567164684739566],[-58.51173040242977,-34.56826042866701],[-58.51235009192949,-34.56933093103443],[-58.51303698729566,-34.570373256638966],[-58.51378920755334,-34.57138454742657],[-58.51460469238463,-34.57236203033787],[-58.51548120775985,-34.57330302492188],[-58.51641635204807,-34.57420495069653],[-58.517407562590606,-34.57506533423556],[-58.51845212271953,-34.57588181596248],[-58.51954716920192,-34.57665215663247],[-58.52068970008955,-34.57737424348451],[-58.521876582952544,-34.57804609604672],[-58.523104563474256,-34.578665871578764],[-58.52437027438366,-34.57923187013622],[-58.52567024470093,-34.579742539243064],[-58.52700090927032,-34.58019647815902],[-58.52835861855423,-34.58059244173028],[-58.529739648661305,-34.58092934381265],[-58.531140211580876,-34.5812062602578],[-58.532556465595256,-34.58142243145418],[-58.53398452584112,-34.58157726441571],[-58.53542047499066,-34.581670334412316],[-58.536860374022865,-34.581701386137894],[-58.53830027305507,-34.581670334412316],[-58.53973622220461,-34.58157726441571],[-58.54116428245047,-34.58142243145418],[-58.54258053646485,-34.5812062602578],[-58.54398109938442,-34.58092934381265],[-58.54536212949149,-34.58059244173028],[-58.546719838775395,-34.58019647815902],[-58.54805050334478,-34.579742539243064],[-58.54935047366207,-34.57923187013622],[-58.55061618457147,-34.578665871578764],[-58.55184416509318,-34.57804609604672],[-58.55303104795617,-34.57737424348451],[-58.554173578843795,-34.57665215663247],[-58.555268625326185,-34.57588181596248],[-58.55631318545511,-34.57506533423556],[-58.557304395997654,-34.57420495069653],[-58.55803213486609,-34.5731647912309],[-58.558067132483046,-34.57173480144387],[-58.557983101817875,-34.5703431413475],[-58.557801678968,-34.56900378336165],[-58.55754496424219,-34.56772668173339],[-58.557233755722464,-34.5665175879436],[-58.55703584753132,-34.56542564140287],[-58.55719727558852,-34.56448956266461],[-58.55793199769882,-34.56369750526896],[-58.5591835906968,-34.56295520195572],[-58.56043509054245,-34.56212237254677],[-58.561658856274214,-34.56119369299993],[-58.562822968062754,-34.56016753723126],[-58.56389296479907,-34.55904677536321],[-58.56432741917544,-34.557861184019565],[-58.56421405087647,-34.55667896389876],[-58.564025714468876,-34.55550325011281],[-58.563762929278894,-34.55433726486712],[-58.5634264185871,-34.553184203569955],[-58.56301710761296,-34.552047226079225],[-58.56253612094751,-34.55092944804818],[-58.561984779441445,-34.54983393239357],[-58.56136459655734,-34.5487636809095],[-58.560677274196564,-34.5477216260501],[-58.559924698012324,-34.54671062290306],[-58.559108932222095,-34.54573344137632],[-58.5582322139338,-34.54479275861883],[-58.55729694700156,-34.54389115169624],[-58.55630569542773,-34.54303109054137],[-58.55526117632984,-34.54221493119862],[-58.554166252491264,-34.5414449093807],[-58.5530239245165,-34.540723134355225],[-58.551837322612265,-34.540051583177615],[-58.55060969801701,-34.53943209528621],[-58.5493444141021,-34.538866367473936],[-58.54804493716913,-34.53835594925051],[-58.54671482696827,-34.53790223860746],[-58.545357726963324,-34.53750647819758],[-58.543977354370234,-34.5371697519392],[-58.542577489995836,-34.53689298205429],[-58.54116196790437,-34.53667692654864],[-58.539734664940106,-34.53652217714079],[-58.5382994901339,-34.53642915764541],[-58.536860374022865,-34.536398122815264]]]}},{"type":"Feature","properties":{"school_id":"pizarnik","school_name":"Escuela Pizarnik","minutes":30,"profile":"public-transport-bus","source":"aproximacion_exploratoria_con_recorridos_AMBA","note":"Polígono exploratorio: combina cercanía a recorridos de colectivos AMBA y velocidad promedio supuesta; requiere GTFS/frecuencias para isócrona real."},"geometry":{"type":"Polygon","coordinates":[[[-58.536860374022865,-34.52280714381848],[-58.534558163595484,-34.52285679144664],[-58.532262255148574,-34.523005598427694],[-58.529978933479086,-34.52325315742192],[-58.527714449063275,-34.52359879076402],[-58.52547500101137,-34.524041552310955],[-58.52326672016032,-34.524580230022],[-58.521095652349814,-34.52521334926407],[-58.5189677419265,-34.52593917683338],[-58.51688881552105,-34.526755725682804],[-58.514864566141426,-34.527660760342],[-58.51290053762556,-34.5286518030159],[-58.511002109495166,-34.529726140345105],[-58.50917448225197,-34.53088083081003],[-58.507422663155914,-34.532112712758746],[-58.50575145252405,-34.533418413037076],[-58.50416543058764,-34.53479435619755],[-58.50266894494296,-34.53623677426239],[-58.50126609863038,-34.53774171701422],[-58.49996073887438,-34.53930506278665],[-58.49875644651556,-34.54092252972566],[-58.49765652616381,-34.5425896874911],[-58.4966639970999,-34.54430196936683],[-58.495781584951004,-34.546054684746586],[-58.49501171416348,-34.547843031961705],[-58.494654739283845,-34.549728040621446],[-58.49382791223806,-34.55150872192247],[-58.49339694171607,-34.5533724596868],[-58.493095240118485,-34.55525356146295],[-58.4929134792469,-34.55714508923297],[-58.493002890669125,-34.55904191297712],[-58.49326251310559,-34.56092364715515],[-58.49363256388725,-34.562783670648685],[-58.49407696135937,-34.564622425923964],[-58.49456561037235,-34.56644547046679],[-58.4950767879582,-34.56826189176611],[-58.49559875636497,-34.57008233992263],[-58.49576875472941,-34.57203106122322],[-58.49664974769483,-34.57378436098128],[-58.497641013694604,-34.57549728511821],[-58.49873984093994,-34.57716513599102],[-58.499943222126404,-34.57878333928974],[-58.50124786262714,-34.58034745660654],[-58.50265018948185,-34.58185319763416],[-58.504146361157346,-34.583296431960164],[-58.5057322780532,-34.58467320042404],[-58.50740359372405,-34.58597972600583],[-58.5091557267878,-34.58721242421584],[-58.51098387348753,-34.58836791295678],[-58.51288302087204,-34.58944302183064],[-58.51484796055934,-34.590434800864614],[-58.51687330304473,-34.591340528631584],[-58.518953492514,-34.592157719742644],[-58.521082822120796,-34.5928841316907],[-58.5232554496856,-34.59351777102602],[-58.52546541377272,-34.594056898846596],[-58.52770665010059,-34.59450003558783],[-58.529973008239544,-34.59484596509826],[-58.5322582685504,-34.59509373798998],[-58.534556159316736,-34.59524267425417],[-58.536860374022865,-34.59529236513468],[-58.53916458872898,-34.59524267425417],[-58.54146247949532,-34.59509373798998],[-58.54374773980618,-34.59484596509826],[-58.546014097945125,-34.59450003558783],[-58.54825533427301,-34.594056898846596],[-58.55046529836013,-34.59351777102602],[-58.55263792592493,-34.5928841316907],[-58.55476725553172,-34.592157719742644],[-58.556847445001,-34.591340528631584],[-58.558872787486386,-34.590434800864614],[-58.560837727173684,-34.58944302183064],[-58.56273687455819,-34.58836791295678],[-58.56456502125791,-34.58721242421584],[-58.566317154321666,-34.58597972600583],[-58.567988469992514,-34.58467320042404],[-58.56957438688838,-34.583296431960164],[-58.57073864194871,-34.5816320582892],[-58.570794293467735,-34.57934406889649],[-58.57065949251015,-34.577117426739164],[-58.57036886831893,-34.57497448390531],[-58.56995779016254,-34.57293116319595],[-58.569459540888,-34.570996663209364],[-58.56914261633019,-34.5692495802087],[-58.56940069328521,-34.56775182867228],[-58.57057610206799,-34.5664844177923],[-58.572578526643575,-34.565296519943274],[-58.57458075608897,-34.56396376811073],[-58.57653855874372,-34.56247764920159],[-58.57840085882272,-34.56083556877205],[-58.58011251765379,-34.559042127946725],[-58.58080726879882,-34.55714508923297],[-58.58062550792724,-34.55525356146295],[-58.58032380632965,-34.5533724596868],[-58.57990299890682,-34.55150693899049],[-58.57936424675158,-34.549662111415735],[-58.578709033882234,-34.547843031961705],[-58.577939163094726,-34.546054684746586],[-58.57705675094583,-34.54430196936683],[-58.576064221881914,-34.5425896874911],[-58.574964301530166,-34.54092252972566],[-58.573760009171345,-34.53930506278665],[-58.57245464941534,-34.53774171701422],[-58.571051803102755,-34.53623677426239],[-58.569555317458075,-34.53479435619755],[-58.567969295521664,-34.533418413037076],[-58.56629808488981,-34.532112712758746],[-58.56454626579375,-34.53088083081003],[-58.56271863855055,-34.529726140345105],[-58.56082021042017,-34.5286518030159],[-58.5588561819043,-34.527660760342],[-58.55683193252467,-34.526755725682804],[-58.55475300611922,-34.52593917683338],[-58.552625095695916,-34.52521334926407],[-58.550454027885394,-34.524580230022],[-58.54824574703434,-34.524041552310955],[-58.54600629898245,-34.52359879076402],[-58.54374181456664,-34.52325315742192],[-58.54145849289715,-34.523005598427694],[-58.53916258445023,-34.52285679144664],[-58.536860374022865,-34.52280714381848]]]}},{"type":"Feature","properties":{"school_id":"pizarnik","school_name":"Escuela Pizarnik","minutes":45,"profile":"public-transport-bus","source":"aproximacion_exploratoria_con_recorridos_AMBA","note":"Polígono exploratorio: combina cercanía a recorridos de colectivos AMBA y velocidad promedio supuesta; requiere GTFS/frecuencias para isócrona real."},"geometry":{"type":"Polygon","coordinates":[[[-58.536860374022865,-34.509216164821694],[-58.53369535050546,-34.50928441917901],[-58.530538986570086,-34.50948899550542],[-58.52739991823302,-34.509829334072386],[-58.5242867344419,-34.510304503691685],[-58.52120795369812,-34.51091320424963],[-58.518172000866706,-34.51165377024562],[-58.515187184236005,-34.51252417532534],[-58.51226167288766,-34.51352203779688],[-58.50940347443808,-34.51464462711482],[-58.506620413210435,-34.51588887131496],[-58.503920108896054,-34.51725136538008],[-58.50130995576224,-34.51872838051425],[-58.49879710246277,-34.52031587430074],[-58.496388432505256,-34.5220095017168],[-58.49409054542859,-34.523804626975334],[-58.49190973874121,-34.52569633616218],[-58.48985199066955,-34.52767945063474],[-58.48792294376404,-34.529748541146375],[-58.48612788940725,-34.5318979426582],[-58.48447175326726,-34.53412176979884],[-58.4829590817365,-34.536413932930195],[-58.4815940293937,-34.538768154776164],[-58.48038034752455,-34.54117798756912],[-58.479321373733015,-34.54363683066818],[-58.47883006529978,-34.546228654346365],[-58.47769275123932,-34.54867694285153],[-58.47709968506403,-34.55123950375124],[-58.47668434586261,-34.55382596319512],[-58.47643391378171,-34.556426780181006],[-58.476556337786825,-34.55903492914272],[-58.476912810024935,-34.56162236118087],[-58.47742113560657,-34.56417996084718],[-58.478031704571016,-34.566708329531714],[-58.47870313562506,-34.56921510301144],[-58.479405557456616,-34.57171277249511],[-58.48012282783076,-34.57421597968889],[-58.48035609039169,-34.576895500743895],[-58.48156708911691,-34.57930643837663],[-58.48292975347863,-34.581661874497236],[-58.48444035835445,-34.583955348034294],[-58.48609477180833,-34.5861805673546],[-58.48788846632206,-34.58833142756712],[-58.489816531126294,-34.59040202731863],[-58.491873685598684,-34.59238668503473],[-58.494054293692514,-34.594279954560676],[-58.49635237935719,-34.59607664015847],[-58.49876164290865,-34.59777181081855],[-58.50127547830455,-34.59936081384572],[-58.50388699127728,-34.60083928768163],[-58.50658901827447,-34.602203173927734],[-58.50937414615479,-34.60344872853501],[-58.51223473258429,-34.604572532129126],[-58.51516292707657,-34.605571499442036],[-58.51815069261816,-34.60644288782336],[-58.521189827818496,-34.60718430480796],[-58.52427198952254,-34.60779371471785],[-58.52738871582263,-34.608269444280616],[-58.53053144940491,-34.608610187247685],[-58.53369156116442,-34.60881500800014],[-58.536860374022865,-34.60888334413146],[-58.5400291868813,-34.60881500800014],[-58.54318929864081,-34.608610187247685],[-58.54633203222309,-34.608269444280616],[-58.54944875852319,-34.60779371471785],[-58.55253092022723,-34.60718430480796],[-58.55557005542756,-34.60644288782336],[-58.558557820969156,-34.605571499442036],[-58.56148601546144,-34.604572532129126],[-58.56434660189094,-34.60344872853501],[-58.56713172977125,-34.602203173927734],[-58.56983375676844,-34.60083928768163],[-58.572445269741166,-34.59936081384572],[-58.574959105137076,-34.59777181081855],[-58.57736836868853,-34.59607664015847],[-58.579666454353216,-34.594279954560676],[-58.58184706244703,-34.59238668503473],[-58.583447738117,-34.59009800826501],[-58.583523784720256,-34.58695201504888],[-58.58333794927591,-34.58389040141638],[-58.58293786279081,-34.58094389628131],[-58.58237217007301,-34.57813438799905],[-58.58168664316764,-34.57547451945455],[-58.58125049854366,-34.57307232365907],[-58.581605068348736,-34.57101288020373],[-58.58322105375265,-34.5692700265789],[-58.58597421660374,-34.56763637479877],[-58.5887270477698,-34.565803531990575],[-58.59141872030712,-34.563759800045],[-58.59397899944145,-34.56150162162956],[-58.596332068277874,-34.55903533556956],[-58.597286834264004,-34.556426780181006],[-58.597036402183114,-34.55382596319512],[-58.59662106298169,-34.55123950375124],[-58.59604197011653,-34.548674489481705],[-58.59530072537241,-34.546137948601164],[-58.59439937431271,-34.54363683066818],[-58.593340400521164,-34.54117798756912],[-58.59212671865202,-34.538768154776164],[-58.59076166630923,-34.536413932930195],[-58.589248994778465,-34.53412176979884],[-58.58759285863847,-34.5318979426582],[-58.58579780428168,-34.529748541146375],[-58.583868757376166,-34.52767945063474],[-58.581811009304516,-34.52569633616218],[-58.57963020261713,-34.523804626975334],[-58.57733231554047,-34.5220095017168],[-58.574923645582956,-34.52031587430074],[-58.572410792283485,-34.51872838051425],[-58.56980063914967,-34.51725136538008],[-58.56710033483529,-34.51588887131496],[-58.56431727360764,-34.51464462711482],[-58.56145907515806,-34.51352203779688],[-58.55853356380971,-34.51252417532534],[-58.55554874717901,-34.51165377024562],[-58.55251279434761,-34.51091320424963],[-58.549434013603815,-34.510304503691685],[-58.5463208298127,-34.509829334072386],[-58.54318176147564,-34.50948899550542],[-58.540025397540255,-34.50928441917901],[-58.536860374022865,-34.509216164821694]]]}},{"type":"Feature","properties":{"school_id":"pizarnik","school_name":"Escuela Pizarnik","minutes":60,"profile":"public-transport-bus","source":"aproximacion_exploratoria_con_recorridos_AMBA","note":"Polígono exploratorio: combina cercanía a recorridos de colectivos AMBA y velocidad promedio supuesta; requiere GTFS/frecuencias para isócrona real."},"geometry":{"type":"Polygon","coordinates":[[[-58.536860374022865,-34.495625185824906],[-58.532832818407655,-34.49571204084759],[-58.52881627690721,-34.49597236839408],[-58.52482173372164,-34.4964054565447],[-58.52086011330091,-34.49701012091541],[-58.51694225066709,-34.497784707874835],[-58.51307886197284,-34.4987270990363],[-58.5092805153743,-34.499834717012895],[-58.50555760229515,-34.50110453242039],[-58.501920309158514,-34.50253307210946],[-58.49837858966143,-34.50411642860534],[-58.49494213766618,-34.50585027073017],[-58.49162036078053,-34.50772985537952],[-58.48842235469791,-34.509750040422105],[-58.48535687836632,-34.511905298688276],[-58.48243233005291,-34.51418973301026],[-58.479656724369335,-34.51659709227392],[-58.47703767031981,-34.51912078843934],[-58.4745823504325,-34.52175391448495],[-58.47229750103096,-34.524489263226975],[-58.47018939370058,-34.52731934696408],[-58.46826381800132,-34.530236417894464],[-58.46652606547525,-34.533232489250565],[-58.4649809149941,-34.53629935709475],[-58.4636326194885,-34.53942862271696],[-58.46300672246618,-34.542727226801105],[-58.46155868877188,-34.54584304152005],[-58.46080326435959,-34.54910438258972],[-58.46027401521848,-34.55239616928778],[-58.459954633339436,-34.55570625696135],[-58.460109788102216,-34.559025739888455],[-58.46056283267512,-34.56231889557256],[-58.461209163381824,-34.56557410801457],[-58.461985643224196,-34.56879213371103],[-58.4628396045183,-34.57198268358494],[-58.46373302639436,-34.57516165033407],[-58.464645360594574,-34.57834766607876],[-58.46494162245858,-34.58175800272291],[-58.4664824266897,-34.58482666022394],[-58.46821631108026,-34.58782469850329],[-58.4701385391387,-34.59074389207336],[-58.472243856000496,-34.59357623091059],[-58.47452650267876,-34.596313942505866],[-58.476980231721804,-34.598949513269986],[-58.47959832423588,-34.60147570923437],[-58.48237360822789,-34.603885595989134],[-58.48529847821829,-34.606172557802665],[-58.488364916071376,-34.60833031586909],[-58.491564512985576,-34.61035294563226],[-58.494888492583584,-34.61223489313764],[-58.49832773503883,-34.613970990365964],[-58.50187280217077,-34.615556469505336],[-58.50551396343987,-34.616986976121716],[-58.50924122276904,-34.61825858119022],[-58.51304434611675,-34.619367791953536],[-58.51691288972421,-34.62031156157648],[-58.52083622895689,-34.62108729756934],[-58.524803587659164,-34.62169286895636],[-58.528804067939014,-34.62212661216864],[-58.53282668029824,-34.622387335645136],[-58.536860374022865,-34.62247432312825],[-58.54089406774747,-34.622387335645136],[-58.5449166801067,-34.62212661216864],[-58.54891716038656,-34.62169286895636],[-58.55288451908884,-34.62108729756934],[-58.55680785832152,-34.62031156157648],[-58.56067640192897,-34.619367791953536],[-58.56447952527668,-34.61825858119022],[-58.568206784605856,-34.616986976121716],[-58.57184794587495,-34.615556469505336],[-58.57539301300689,-34.613970990365964],[-58.57883225546213,-34.61223489313764],[-58.58215623506015,-34.61035294563226],[-58.58535583197434,-34.60833031586909],[-58.58842226982743,-34.606172557802665],[-58.59134713981784,-34.603885595989134],[-58.594122423809836,-34.60147570923437],[-58.59615942431439,-34.59856264047335],[-58.59625560692467,-34.59455863928355],[-58.596018472574634,-34.59066206483385],[-58.59550866265579,-34.58691202001731],[-58.594788104094775,-34.58333635574108],[-58.59391506256495,-34.579951156343924],[-58.59335949408493,-34.576893871473324],[-58.59381040061428,-34.57427271701577],[-58.595866852501196,-34.5720543314057],[-58.5993706602142,-34.569974766311965],[-58.60287396510056,-34.56764166400195],[-58.60629934035447,-34.565040145388004],[-58.609557389187934,-34.56216569572287],[-58.61255161583485,-34.55902639823264],[-58.61376611470629,-34.55570625696135],[-58.61344673282725,-34.55239616928778],[-58.61291748368614,-34.54910438258972],[-58.612179842275395,-34.54583991671007],[-58.61123585394864,-34.54261171557427],[-58.61008812855723,-34.53942862271696],[-58.608739833051615,-34.53629935709475],[-58.60719468257048,-34.533232489250565],[-58.60545693004441,-34.530236417894464],[-58.60353135434514,-34.52731934696408],[-58.60142324701476,-34.524489263226975],[-58.59913839761322,-34.52175391448495],[-58.596683077725906,-34.51912078843934],[-58.59406402367638,-34.51659709227392],[-58.59128841799281,-34.51418973301026],[-58.58836386967941,-34.511905298688276],[-58.58529839334781,-34.509750040422105],[-58.5821003872652,-34.50772985537952],[-58.578778610379544,-34.50585027073017],[-58.575342158384295,-34.50411642860534],[-58.57180043888721,-34.50253307210946],[-58.56816314575057,-34.50110453242039],[-58.56444023267142,-34.499834717012895],[-58.56064188607288,-34.4987270990363],[-58.55677849737863,-34.497784707874835],[-58.55286063474481,-34.49701012091541],[-58.54889901432408,-34.4964054565447],[-58.544904471138516,-34.49597236839408],[-58.54088792963807,-34.49571204084759],[-58.536860374022865,-34.495625185824906]]]}}]}