{"type":"FeatureCollection","features":[{"type":"Feature","properties":{"school_id":"walsh","school_name":"Escuela Walsh","minutes":20,"profile":"foot-walking","source":"aproximacion_morfologica_exploratoria","note":"Polígono exploratorio irregular por distancia caminable estimada; reemplazar por isócrona de red vial OpenRouteService."},"geometry":{"type":"Polygon","coordinates":[[[-58.57633785383762,-34.56081770399271],[-58.57542648965442,-34.561473494078],[-58.57458796269478,-34.56208361680188],[-58.57379385359496,-34.56256701271772],[-58.57300198375842,-34.562870215493305],[-58.572167398311215,-34.56297700081839],[-58.57125425919229,-34.56290996923888],[-58.57024535851506,-34.562723949016544],[-58.5691466155296,-34.562493029910776],[-58.56798532324193,-34.56229447628547],[-58.56680267471961,-34.562193369674226],[-58.56564273150958,-34.56223146684246],[-58.56454103576648,-34.56242254735102],[-58.56351621211873,-34.56275479729308],[-58.562567097516315,-34.56319898891055],[-58.5616763843534,-34.56371982957612],[-58.56081988199391,-34.56428721175397],[-58.55997881302142,-34.56488433840121],[-58.55915154108709,-34.5655107295799],[-58.55845909396093,-34.56623206766701],[-58.55787577022647,-34.567015607591664],[-58.55734303376388,-34.56782321074107],[-58.55686234581941,-34.56865266419953],[-58.55671941993689,-34.569591641556116],[-58.55697732482424,-34.5706129685703],[-58.55753211004938,-34.57164373567761],[-58.55824706705069,-34.572626767911345],[-58.55906336679311,-34.573540320901],[-58.559911173869004,-34.57437166940026],[-58.56067552565504,-34.57511750836118],[-58.56126205335961,-34.575793437477465],[-58.561614729537176,-34.57642879769587],[-58.56172557991414,-34.57705802530015],[-58.56163419048716,-34.57771094285807],[-58.56141724745612,-34.57840468964634],[-58.56117068596975,-34.57913951740823],[-58.560988712289536,-34.57989957413722],[-58.56094459090645,-34.580658377410224],[-58.561077511340365,-34.5813873378693],[-58.561388233536235,-34.58206481082358],[-58.56184398076902,-34.58268298281015],[-58.56239077898674,-34.583250497193816],[-58.56296970477107,-34.58378993129642],[-58.563532725790346,-34.584330726217814],[-58.56405416597906,-34.58489952448596],[-58.56453517561184,-34.58551070450199],[-58.565000550585296,-34.586159965805074],[-58.56548929165675,-34.586823075180284],[-58.56604188335035,-34.587460512841574],[-58.566687998988456,-34.58802712054736],[-58.56743803839598,-34.58848439196827],[-58.568280691550385,-34.58881216686777],[-58.56918695073853,-34.58901645464911],[-58.570119163404286,-34.589130960259915],[-58.571042331879944,-34.58921142016398],[-58.571934296206884,-34.58932369466631],[-58.572791823830585,-34.58952823036207],[-58.573630850120836,-34.58986456190212],[-58.57448081344056,-34.59033967534517],[-58.57537472721678,-34.59092324398715],[-58.57633785383762,-34.591551159036946],[-58.57737825248429,-34.59213680092207],[-58.57848195465629,-34.5925876257849],[-58.57961422434277,-34.592823346601286],[-58.580726648256956,-34.59279159613248],[-58.58176815505237,-34.592477568365844],[-58.582696943945436,-34.591905591032464],[-58.58349002987331,-34.59113251566944],[-58.5841477663476,-34.59023473685166],[-58.58469211141708,-34.58929208995808],[-58.585159167646744,-34.58837247818678],[-58.58558816072314,-34.58752071522472],[-58.58601006098076,-34.5867538574525],[-58.586439196096016,-34.586063571726676],[-58.5868703942925,-34.58542429772111],[-58.58728264301556,-34.58480457778734],[-58.587648366394475,-34.584178285713485],[-58.58794573531397,-34.58353272928158],[-58.58817040459859,-34.582871633387],[-58.58834302907791,-34.582212529161744],[-58.58850988990816,-34.58157965688147],[-58.58873573167991,-34.5809947077109],[-58.58909001582722,-34.58046826227492],[-58.589629679093505,-34.57999450576371],[-58.59038263434895,-34.57955080627604],[-58.591336333592544,-34.57910232466078],[-58.59251541992851,-34.57862450142189],[-58.593792403756886,-34.57806930710589],[-58.59500714940625,-34.57740855854205],[-58.59604263281877,-34.57664305948019],[-58.59680270735044,-34.575792656485945],[-58.597229863515935,-34.57489105690917],[-58.59731494837527,-34.57397716566712],[-58.5970966778567,-34.573085361088914],[-58.59665118219526,-34.57223741247786],[-58.59607416247377,-34.57143826442317],[-58.59545992393067,-34.57067680908037],[-58.59488217692776,-34.56993134628417],[-58.59438091827841,-34.56917809074841],[-58.59395808918309,-34.5684002036399],[-58.59358247598889,-34.567594655584074],[-58.593202050946786,-34.566774826221526],[-58.59276021489694,-34.565967954343265],[-58.59221162700229,-34.565208041398115],[-58.59153365609405,-34.564526164807795],[-58.59073083649162,-34.56394099067609],[-58.58983167465827,-34.56345233985825],[-58.58887919836437,-34.56303991666517],[-58.58791822731674,-34.5626679385159],[-58.5869830698518,-34.56229476740655],[-58.586089049545016,-34.56188518313731],[-58.585230052793975,-34.5614220598314],[-58.58438251859158,-34.560914172031865],[-58.58351446304744,-34.560397704189896],[-58.58259674654579,-34.559930572359434],[-58.581613222604716,-34.55958050489324],[-58.58056679502004,-34.55940949631923],[-58.57947962943648,-34.55945830323409],[-58.57838746379037,-34.55973480386086],[-58.577329659179014,-34.560209231537456],[-58.57633785383762,-34.56081770399576]]]}},{"type":"Feature","properties":{"school_id":"walsh","school_name":"Escuela Walsh","minutes":15,"profile":"foot-walking","source":"aproximacion_morfologica_exploratoria","note":"Polígono exploratorio irregular por distancia caminable estimada; reemplazar por isócrona de red vial OpenRouteService."},"geometry":{"type":"Polygon","coordinates":[[[-58.57633785383762,-34.56422561908151],[-58.57561509726659,-34.56443761599607],[-58.574928523811266,-34.5647523376487],[-58.57428864942334,-34.56514000285058],[-58.57369425849729,-34.56555263071184],[-58.573129281098986,-34.56593358812941],[-58.57256395366228,-34.56622979815248],[-58.571960399663105,-34.56640372503442],[-58.57128147208738,-34.56644227343632],[-58.57050067738483,-34.56636047180452],[-58.56961054953549,-34.566199065978985],[-58.568627108502284,-34.56601660937787],[-58.56758896880633,-34.565877932164426],[-58.566551025151554,-34.56584168259932],[-58.56563949933737,-34.56600961549793],[-58.56503225504198,-34.56648403970999],[-58.5644559882075,-34.56698398144449],[-58.563912278397716,-34.567508070843374],[-58.56340261605314,-34.568054871856695],[-58.562928398404026,-34.56862288617376],[-58.56267950646978,-34.56930023946861],[-58.562578091569094,-34.570020542771665],[-58.562508643767146,-34.57072361539649],[-58.56246610642381,-34.571408981313816],[-58.56246503168049,-34.57208200179209],[-58.56253426084787,-34.57274808580366],[-58.56264634318511,-34.573397324555316],[-58.562852367413676,-34.57403494349277],[-58.56319297197511,-34.574656081752536],[-58.56365056870908,-34.57524623119516],[-58.56418205644432,-34.57579376171619],[-58.56472529063421,-34.576294908752274],[-58.56521099730239,-34.576756770033285],[-58.565577395249015,-34.577197139581344],[-58.56578402705099,-34.57764093660015],[-58.56582141225196,-34.57811401726839],[-58.56571410256395,-34.578635991174735],[-58.56551629815728,-34.5792140556819],[-58.56530097749122,-34.5798396868514],[-58.56514504903099,-34.58048931816544],[-58.56511396254203,-34.58112908191417],[-58.565249293846364,-34.58172256790838],[-58.565562031878514,-34.582239679638256],[-58.56603286167373,-34.58266428792845],[-58.566619024254074,-34.582998615480506],[-58.567265781028624,-34.58326308624282],[-58.567919503111895,-34.58349153926184],[-58.56853918197055,-34.58372293183117],[-58.5691037463511,-34.58399161245872],[-58.569613788974465,-34.584318667759256],[-58.5700878147023,-34.58470661383559],[-58.57055451461906,-34.58513886119454],[-58.5710434870062,-34.5855841451824],[-58.57157704413625,-34.586004803395504],[-58.57216523578799,-34.586366743661074],[-58.572805155158385,-34.58664846123661],[-58.57348428648175,-34.58684666926667],[-58.57418647952477,-34.58697695948579],[-58.57489842151268,-34.58706919681131],[-58.575614413859235,-34.58715874013238],[-58.57633785383762,-34.587275710365454],[-58.57707888875482,-34.5874350967906],[-58.57784893730639,-34.58763034786832],[-58.57865380039371,-34.587832261550716],[-58.57948760928918,-34.5879936791061],[-58.58032972184346,-34.5880590277791],[-58.58114590412609,-34.58797652293877],[-58.581893933712934,-34.58771014519974],[-58.58253246529219,-34.58724852979874],[-58.58303097663873,-34.586608638404634],[-58.583378161824356,-34.58583333970549],[-58.583586404667685,-34.58498348571457],[-58.5836908977595,-34.58412636687804],[-58.5837433344857,-34.583323239648],[-58.583801532699844,-34.58261875209119],[-58.58391746167002,-34.58203453010854],[-58.584126628993076,-34.581568089788206],[-58.58444149577443,-34.58119690442216],[-58.584850585742934,-34.58088622472884],[-58.585323490155595,-34.58059843772902],[-58.58582042672059,-34.580301545149155],[-58.58630379745779,-34.57997477251551],[-58.58674863691578,-34.57961024334201],[-58.58714910742503,-34.579210800732504],[-58.58751922554176,-34.57878511195942],[-58.58788753314082,-34.5783418669445],[-58.588347620482246,-34.577895600421144],[-58.58889910012908,-34.57743180042707],[-58.589514893178574,-34.57693398585603],[-58.590175859395565,-34.57639070730356],[-58.59083754707378,-34.5757935069549],[-58.59143667845258,-34.57514189535354],[-58.59190307731421,-34.574446334988686],[-58.592130916676105,-34.57373372317874],[-58.591978233454135,-34.573055991011614],[-58.591782685273564,-34.57238576701783],[-58.5915448090881,-34.571724888031056],[-58.59096942401945,-34.57116871396079],[-58.59027851947529,-34.570682739196656],[-58.58957251839233,-34.57024092542284],[-58.588918023888134,-34.56981297186497],[-58.58835804304699,-34.5693660017868],[-58.5879052783711,-34.56887340308037],[-58.58754241189115,-34.56832246457541],[-58.587228961722104,-34.56771874195356],[-58.58691273840066,-34.56708588801238],[-58.58654292201067,-34.56646084790062],[-58.586081557958025,-34.56588554491739],[-58.58551085800979,-34.56539713794229],[-58.58483491166466,-34.56501935465203],[-58.58407592035161,-34.564757170910035],[-58.58326645895059,-34.5645962648456],[-58.582440184700694,-34.564507437213585],[-58.58162363114558,-34.56445487908505],[-58.58083121658529,-34.564406130519735],[-58.58006453187558,-34.564341088973705],[-58.57931566670271,-34.56425763202001],[-58.578573160273066,-34.56417227176109],[-58.577828448332546,-34.56411554488758],[-58.577080615430354,-34.564123230850605],[-58.57633785383762,-34.56422561908402]]]}},{"type":"Feature","properties":{"school_id":"walsh","school_name":"Escuela Walsh","minutes":10,"profile":"foot-walking","source":"aproximacion_morfologica_exploratoria","note":"Polígono exploratorio irregular por distancia caminable estimada; reemplazar por isócrona de red vial OpenRouteService."},"geometry":{"type":"Polygon","coordinates":[[[-58.57633785383762,-34.56859160162038],[-58.57588234588492,-34.56863728296784],[-58.575427348587716,-34.56866094069274],[-58.57497047226534,-34.56868528893423],[-58.5745147123058,-34.56873148304779],[-58.57406609227907,-34.568812902265385],[-58.573629815149,-34.56893135041705],[-58.5732062758235,-34.56907664587023],[-58.572788400510206,-34.56922967264353],[-58.572361443109024,-34.56936805548562],[-58.57190567155988,-34.56947293807397],[-58.57140150898118,-34.56953506051182],[-58.570835900733925,-34.569558519125096],[-58.570208191152446,-34.569561195172305],[-58.569533765429966,-34.569571698157866],[-58.56884417300995,-34.569623558897284],[-58.56841633029731,-34.569920903626716],[-58.568053861689165,-34.57027030853473],[-58.56771409440588,-34.57063485425576],[-58.56739795985103,-34.571013541787714],[-58.56710632470068,-34.571405333360396],[-58.56683998852601,-34.57180915527784],[-58.56686393502978,-34.57232080261942],[-58.567096943876216,-34.57287318975243],[-58.56736673313766,-34.57339391260308],[-58.56763037961191,-34.57387294171408],[-58.56781794190443,-34.57430293752912],[-58.567935041185756,-34.5746982512762],[-58.56801084306958,-34.575073453035614],[-58.56806623181967,-34.5754371523277],[-58.56812825316165,-34.575794089418935],[-58.56822140499038,-34.57614432960837],[-58.56836005868977,-34.57648449997176],[-58.56854397533818,-34.57681050364048],[-58.568758052777575,-34.57712068019661],[-58.56897632527255,-34.57741823394887],[-58.56916912611439,-34.57771196836137],[-58.569311502709574,-34.57801488381411],[-58.56939065349607,-34.578340868452685],[-58.569410415773106,-34.578700342836925],[-58.56939160129963,-34.579096121317626],[-58.569368049428306,-34.579520800559024],[-58.5693793653262,-34.57995665019086],[-58.569462150083616,-34.580378341534875],[-58.56964189689544,-34.5807580749753],[-58.56992753482839,-34.58107196562954],[-58.57030990720946,-34.58130611783959],[-58.5707644627947,-34.581460791231144],[-58.57125738091933,-34.581551459107835],[-58.57175352038129,-34.58160629421516],[-58.57222418538523,-34.58166050474202],[-58.572652831385746,-34.58174875611638],[-58.573037439858496,-34.58189743685981],[-58.57338920019912,-34.582118616210664],[-58.573728100290424,-34.582407164246966],[-58.57407678811469,-34.58274175035967],[-58.57445443020357,-34.5830894907444],[-58.574872175925066,-34.583413119580314],[-58.5753312890671,-34.58367894109304],[-58.5758241956605,-34.58386363957693],[-58.57633785383762,-34.583958329142675],[-58.57685821547014,-34.58396893664522],[-58.57737429536092,-34.58391294731349],[-58.577880556284036,-34.583813462484855],[-58.57837689394025,-34.58369218654722],[-58.5788662926799,-34.58356320567135],[-58.57935098832574,-34.583429183947416],[-58.579828491835706,-34.58328094810893],[-58.58028893976091,-34.583100532744005],[-58.580714902036526,-34.58286684872412],[-58.58108407994558,-34.582562453848006],[-58.58137445867558,-34.582179621858124],[-58.58157068495604,-34.58172409294257],[-58.58166995277547,-34.58121549251174],[-58.581685652104284,-34.5806842642512],[-58.58164749679547,-34.58016585297082],[-58.58159769334001,-34.57969356231757],[-58.58158372815552,-34.57929182772672],[-58.581649269758884,-34.57897151141653],[-58.5818252539281,-34.57872828777015],[-58.582123280367945,-34.578544392390015],[-58.58253296527543,-34.5783931685548],[-58.583023975454296,-34.578245179687656],[-58.583552342626064,-34.57807433330688],[-58.58406960715355,-34.577862553810604],[-58.58453263930172,-34.57760200912946],[-58.58495219089461,-34.57730166400656],[-58.58529957011882,-34.57696271754688],[-58.585558806336564,-34.576591994104824],[-58.58574975890437,-34.576200137151474],[-58.585898580306434,-34.57579399151511],[-58.58602901460057,-34.57537579281341],[-58.58615482691193,-34.57494439854234],[-58.58627532798047,-34.57449799557594],[-58.58637512916258,-34.57403725247767],[-58.58642814890814,-34.57356773843311],[-58.58640478059455,-34.57310064732405],[-58.58628031101447,-34.572651384525074],[-58.586042358964704,-34.57223624663668],[-58.58569536349636,-34.57186805523795],[-58.58526091927086,-34.57155200780581],[-58.58477382931104,-34.571283056240674],[-58.58427484300441,-34.57104578780916],[-58.583801886073545,-34.57081714417348],[-58.583381956239855,-34.57057153880578],[-58.58302566541645,-34.570287232260334],[-58.582725714716545,-34.56995239584063],[-58.582459579947646,-34.569569266568024],[-58.582195628605746,-34.56915519457891],[-58.581901058445105,-34.56874011834161],[-58.58154965155784,-34.56836089095637],[-58.58112746766819,-34.56805369329406],[-58.5806352064054,-34.56784629236341],[-58.580086877299685,-34.56775199248526],[-58.57950537909753,-34.567766749904706],[-58.57891635052373,-34.5678701664168],[-58.57834201766494,-34.56803013263695],[-58.57779664637553,-34.56820999551447],[-58.57728466070454,-34.56837650736125],[-58.57680167615352,-34.56850663366491],[-58.57633785383762,-34.56859160162165]]]}},{"type":"Feature","properties":{"school_id":"walsh","school_name":"Escuela Walsh","minutes":5,"profile":"foot-walking","source":"aproximacion_morfologica_exploratoria","note":"Polígono exploratorio irregular por distancia caminable estimada; reemplazar por isócrona de red vial OpenRouteService."},"geometry":{"type":"Polygon","coordinates":[[[-58.57633785383762,-34.572164588494466],[-58.57611589748265,-34.57230707175592],[-58.575906855561385,-34.572417828449666],[-58.57570151150542,-34.57248614636131],[-58.575490172433994,-34.572510584750624],[-58.57526535375472,-34.57249856293201],[-58.575023715362796,-34.57246407685521],[-58.57476671039505,-34.572424164657185],[-58.57449978963269,-34.57239501830552],[-58.57423043277981,-34.5723886842347],[-58.57396562969822,-34.572411105032224],[-58.57370960840715,-34.572461881261304],[-58.573462549353216,-34.57253567743808],[-58.57322074878713,-34.57262477838147],[-58.57297827164589,-34.57272202835386],[-58.57272968261031,-34.57282332269834],[-58.57247309058785,-34.572928980208154],[-58.57221259055702,-34.57304365611138],[-58.572025840325146,-34.573214685058716],[-58.57186777832215,-34.57340403448496],[-58.57172196742954,-34.57359993567363],[-58.57158880735972,-34.57380185171758],[-58.571468663161056,-34.574009229220756],[-58.57143456075826,-34.574244480402776],[-58.57155978538461,-34.57451596938293],[-58.57174733474342,-34.57478149194722],[-58.571951437786495,-34.575026594423306],[-58.57215100367608,-34.5752482821411],[-58.572329038398294,-34.57544737307293],[-58.572464119947945,-34.57562714599542],[-58.5725451755636,-34.57579430558719],[-58.572572995395134,-34.57595676472981],[-58.57255917667329,-34.57612131268275],[-58.572522806365335,-34.576291822169814],[-58.57248572003728,-34.5764684756583],[-58.57246749231598,-34.57664818510306],[-58.57248134273286,-34.57682602761134],[-58.5725318771113,-34.57699722192661],[-58.57261510015746,-34.57715901220043],[-58.57272055614471,-34.57731185214981],[-58.572834930143934,-34.577459488336146],[-58.57294610429077,-34.57760786914644],[-58.5730465936228,-34.57776316394851],[-58.573135494857304,-34.57792946250706],[-58.57321850725104,-34.57810685411761],[-58.573306110513464,-34.578290517075004],[-58.573410470274034,-34.57847119456449],[-58.57354196021844,-34.578637057613115],[-58.57370626214857,-34.578776559512626],[-58.5739028181839,-34.57888157825145],[-58.57412501972333,-34.578950012256534],[-58.57436203498697,-34.57898708328475],[-58.5746017330955,-34.57900489368379],[-58.57483387661694,-34.579020213309896],[-58.57505270053175,-34.57905092579744],[-58.57525818341639,-34.57911192664542],[-58.57545569047642,-34.57921143953771],[-58.57565412224436,-34.57934865240856],[-58.575863111440164,-34.579513281959514],[-58.576090062216274,-34.57968722435606],[-58.57633785383762,-34.579847952255804],[-58.576603830355005,-34.579972898636235],[-58.576880327623265,-34.5800438318175],[-58.57715655415788,-34.580050233094745],[-58.57742126503941,-34.57999093634383],[-58.57766545381972,-34.57987371464986],[-58.57788429560899,-34.57971299446866],[-58.57807780215288,-34.57952631834421],[-58.578250031940456,-34.57933045336313],[-58.57840712662586,-34.57913808832557],[-58.578554796950066,-34.57895587170006],[-58.57869605510106,-34.578784169461954],[-58.578829933125284,-34.57861846684206],[-58.57895165023542,-34.57845192017259],[-58.579054269341206,-34.578278291252566],[-58.57913143134707,-34.57809443398515],[-58.57918040228178,-34.57790166157174],[-58.57920451705693,-34.577705654247055],[-58.57921420514937,-34.57751497949972],[-58.57922612027677,-34.577338677097295],[-58.579260385457005,-34.57718360894724],[-58.57933647974908,-34.57705232543778],[-58.57946869562338,-34.57694204590489],[-58.579662274149115,-34.57684503716304],[-58.57991122334002,-34.5767502888044],[-58.58019845973208,-34.57664603313917],[-58.58051855688443,-34.57652596814577],[-58.58083326474958,-34.576380524138465],[-58.58110301879201,-34.57620664852958],[-58.58130588329639,-34.576008640064984],[-58.58143033915324,-34.57579425849458],[-58.58147680114487,-34.57557250361658],[-58.58145656542524,-34.57535128007779],[-58.581388495333194,-34.575135600963655],[-58.58129428334246,-34.57492681040362],[-58.58119344452945,-34.574722999383745],[-58.581099225274976,-34.57452043714123],[-58.58101634720463,-34.57431554298487],[-58.58094102182105,-34.57410676501485],[-58.58086309257148,-34.57389575889072],[-58.58076963669561,-34.573687465489115],[-58.580649021337095,-34.573489014163336],[-58.580494338547716,-34.573307736200576],[-58.580305352698545,-34.57314885865991],[-58.58008851958724,-34.57301357810295],[-58.579855162323554,-34.57289814483652],[-58.579618374502694,-34.572794333739004],[-58.57938953973009,-34.572691302259194],[-58.579175428599186,-34.57257843999137],[-58.578976647207604,-34.572448506352906],[-58.57878782169091,-34.572300221735375],[-58.578599420584226,-34.57213956602305],[-58.57840067301912,-34.5719793318189],[-58.57818275487387,-34.571836907721774],[-58.577941361023,-34.57173072144684],[-58.57767796972277,-34.57167613523657],[-58.5773994788921,-34.571681760018784],[-58.577116348177604,-34.57174708976956],[-58.57683978925787,-34.571862064747236],[-58.576578798492925,-34.57200872131426],[-58.57633785383762,-34.57216458849523]]]}},{"type":"Feature","properties":{"school_id":"galeano","school_name":"Escuela Galeano","minutes":20,"profile":"foot-walking","source":"aproximacion_morfologica_exploratoria","note":"Polígono exploratorio irregular por distancia caminable estimada; reemplazar por isócrona de red vial OpenRouteService."},"geometry":{"type":"Polygon","coordinates":[[[-58.603157682709366,-34.54021328574853],[-58.60217207999319,-34.53956397406119],[-58.6011152196624,-34.53904794205953],[-58.60001935993142,-34.53873331013942],[-58.598925562262814,-34.53865420616692],[-58.597872280653284,-34.53880672960133],[-58.59688518581216,-34.53915323887924],[-58.59597112291119,-34.53963362635735],[-58.59511790925265,-34.5401806319035],[-58.594299993406885,-34.5407353969585],[-58.59348829149388,-34.54125957185186],[-58.59266127181138,-34.541741308967055],[-58.591813935632196,-34.542194120962385],[-58.59096187452737,-34.54264941999603],[-58.59013894233853,-34.543145105742504],[-58.58938889881463,-34.543713447389266],[-58.58875316166118,-34.544371503630806],[-58.58825804382158,-34.54511647570198],[-58.58790518978911,-34.545926943952495],[-58.58766823451885,-34.54676930107773],[-58.58749714489215,-34.54760730810965],[-58.58726006196117,-34.548382706921046],[-58.586919154573735,-34.54909960311472],[-58.58648079153821,-34.549781726418324],[-58.585941332891274,-34.55044696042062],[-58.58533583340715,-34.551121111374044],[-58.584734266754545,-34.55182881351813],[-58.58422886308948,-34.55258482584422],[-58.58391516814839,-34.553388270788446],[-58.58387108631338,-34.554221508073496],[-58.58413879862094,-34.555054007838855],[-58.58471387253177,-34.55585016126875],[-58.585544231918995,-34.556578843718405],[-58.58653933633168,-34.55722203881554],[-58.58758750418689,-34.557780083900234],[-58.588577407095386,-34.55827203759931],[-58.589418835003,-34.55873103682257],[-58.5900581069183,-34.559195920343086],[-58.59048489569807,-34.55970145272206],[-58.59072938106176,-34.560269885610005],[-58.590850991091344,-34.56090622411212],[-58.590921946418206,-34.56159851992743],[-58.59100990285024,-34.562323076639295],[-58.59116395073927,-34.56305302495274],[-58.59140711907658,-34.56376770975432],[-58.59173667067595,-34.5644600220448],[-58.592131369756416,-34.56513931186842],[-58.59256311274818,-34.56582871505165],[-58.593009297419954,-34.56655730353624],[-58.59346230717338,-34.56734899972506],[-58.59393347184022,-34.56821125379837],[-58.594450536503054,-34.56912676078306],[-58.59504955194014,-34.57005088591632],[-58.595763674514565,-34.57091610362622],[-58.59661220503961,-34.571642974572455],[-58.597639800802234,-34.57201192873704],[-58.59872510659407,-34.57222652275113],[-58.599832221654346,-34.57234387257266],[-58.60099329403527,-34.57201184195254],[-58.60211390927749,-34.57145501012857],[-58.603157682709366,-34.57075632250628],[-58.604109594890886,-34.57001196722041],[-58.60497752754628,-34.56931306504344],[-58.605787655023235,-34.56872877107208],[-58.60657508461753,-34.56829455193428],[-58.607372461479045,-34.568008139919954],[-58.60819980859002,-34.567833809846874],[-58.60905850266333,-34.567713642570205],[-58.60993109322681,-34.56758282564021],[-58.610786985815224,-34.56738519243859],[-58.61159230294296,-34.56708531237523],[-58.612320991359326,-34.566674465039206],[-58.61296382083768,-34.56616947821181],[-58.6135324532579,-34.56560524667083],[-58.61405711996768,-34.56502330052336],[-58.61457826574322,-34.5644596688485],[-58.615134298461825,-34.563935282783284],[-58.61574882387774,-34.56345131261629],[-58.61642108127564,-34.56299038852956],[-58.617122604322276,-34.56252301715807],[-58.617801566355276,-34.56201711938089],[-58.61846385027476,-34.56147704678226],[-58.6190291072667,-34.560873816233666],[-58.619413771123874,-34.56019334175332],[-58.61961094852932,-34.55945700471671],[-58.61965266107254,-34.558694293027834],[-58.619606081631694,-34.55793369812928],[-58.619560883133936,-34.557194005052274],[-58.6196103102202,-34.5564785254013],[-58.61983023816525,-34.55577396517928],[-58.620261110587876,-34.55505428989551],[-58.62089707181443,-34.55428852357503],[-58.62168496008671,-34.5534502956449],[-58.62253350773064,-34.55252644403638],[-58.62333068023786,-34.55152223569022],[-58.62374537592382,-34.55051025515471],[-58.62342823754686,-34.54962909635085],[-58.6230555498535,-34.54876281450755],[-58.622628335856234,-34.54791378354169],[-58.62214776788479,-34.54708433002482],[-58.62161516435792,-34.546276726812415],[-58.62103198615645,-34.54549318682081],[-58.62039983260758,-34.54473585696921],[-58.61972043709161,-34.544006812302804],[-58.61899566228343,-34.543308050313364],[-58.618105207279385,-34.54274224431402],[-58.61710551536816,-34.542294929500414],[-58.61606780045194,-34.54192264355752],[-58.61497414418967,-34.541658055771705],[-58.6138218824599,-34.541528435289045],[-58.612627540186494,-34.54154431273969],[-58.611424276900706,-34.54169118441638],[-58.61025375714221,-34.54192692688069],[-58.60915493246211,-34.54218622652896],[-58.60815306235185,-34.542391547919614],[-58.60725219354819,-34.542468424358084],[-58.60643330764323,-34.542361613461786],[-58.60565872931922,-34.54204825840609],[-58.60488161921605,-34.541544760230586],[-58.604057950652646,-34.54090547750851],[-58.603157682709366,-34.540213285748294]]]}},{"type":"Feature","properties":{"school_id":"galeano","school_name":"Escuela Galeano","minutes":15,"profile":"foot-walking","source":"aproximacion_morfologica_exploratoria","note":"Polígono exploratorio irregular por distancia caminable estimada; reemplazar por isócrona de red vial OpenRouteService."},"geometry":{"type":"Polygon","coordinates":[[[-58.603157682709366,-34.544492347172806],[-58.60246584678976,-34.544181946583286],[-58.60172233031092,-34.543806740107556],[-58.600919683283294,-34.543416484891324],[-58.60006575765925,-34.54307360144813],[-58.599184370255976,-34.54284106058649],[-58.598311439157015,-34.542769685993896],[-58.597487339802186,-34.54288783284882],[-58.59674736043698,-34.54319584615031],[-58.596112780472204,-34.54366655414974],[-58.59558505380663,-34.544251603741536],[-58.59514484322112,-34.54489206126264],[-58.594756404998016,-34.54553072894078],[-58.59437639384841,-34.54612330028457],[-58.59396493408464,-34.546645864917004],[-58.593496123917326,-34.547097259201024],[-58.59296520498876,-34.54749607754535],[-58.5923904399298,-34.54787346602267],[-58.59180909571889,-34.54826378285779],[-58.59126847772376,-34.54869559636023],[-58.590814287865385,-34.54918522428914],[-58.590427128428296,-34.54971228282415],[-58.59013444824504,-34.550279129483684],[-58.58995825950126,-34.55088165311961],[-58.58986859700589,-34.551498479453244],[-58.58982498534982,-34.552112420528836],[-58.589788451552614,-34.55271430155383],[-58.58973332773322,-34.55330360441167],[-58.589655646718136,-34.553885960779255],[-58.58957575773606,-34.554468502128806],[-58.58953425228313,-34.5550547257943],[-58.589582019590445,-34.55564068082676],[-58.589766801033576,-34.55621387554249],[-58.59011957980347,-34.55675547743077],[-58.590644270272485,-34.55724535512918],[-58.59131341955923,-34.55766859683868],[-58.59207118681226,-34.558021598216],[-58.59284308782085,-34.558315811329244],[-58.59355033314593,-34.558577800366535],[-58.59412546567318,-34.558845218408536],[-58.59452569826795,-34.559159441852266],[-58.594740933608634,-34.559556565064625],[-58.59479475944214,-34.56005899378749],[-58.5947384132155,-34.56066982053532],[-58.59463936682296,-34.561371516591656],[-58.59456738165481,-34.562129393415816],[-58.59458133874299,-34.56289905298988],[-58.59471976863964,-34.56363599055923],[-58.59499691739375,-34.56430492193771],[-58.595404694220335,-34.56488644927425],[-58.59591935400074,-34.56537935533845],[-58.59651066190905,-34.5657979585048],[-58.59715084174569,-34.566165272384254],[-58.597820912396,-34.56650384873846],[-58.59851295256865,-34.56682683453039],[-58.599228119209805,-34.567131761752734],[-58.599971509637044,-34.567398903670785],[-58.60074584771353,-34.56759484307933],[-58.6015462495167,-34.56768051227624],[-58.602357920479456,-34.567621742355335],[-58.603157682709366,-34.56739962474109],[-58.60391901129223,-34.56701794084137],[-58.604619129094246,-34.56650557940795],[-58.60524600160564,-34.565913074264195],[-58.60580299780729,-34.56530385216251],[-58.60630957150465,-34.564742111084215],[-58.60679741244514,-34.564280113389984],[-58.60730281404171,-34.563947854584484],[-58.60785713866486,-34.5637475115766],[-58.6084779056033,-34.5636539257673],[-58.609162985029315,-34.56362092753094],[-58.609889644683804,-34.563591925166165],[-58.61061894813025,-34.563512208222654],[-58.61130457353445,-34.563340088390504],[-58.61190389729914,-34.56305438866288],[-58.612388507804646,-34.56265677760854],[-58.6127513802644,-34.56216876436114],[-58.613008755190805,-34.561624476667156],[-58.613196118862994,-34.56106130708123],[-58.61335923200332,-34.56051089809438],[-58.613542481697955,-34.559992669999104],[-58.61382979659271,-34.5595331776572],[-58.614216743348436,-34.55910994609566],[-58.61465787430405,-34.55869049333015],[-58.615120763122746,-34.55825607061059],[-58.615562633462986,-34.55779226488256],[-58.615942389353755,-34.557292816753886],[-58.616232433301455,-34.55676025374994],[-58.61642707463206,-34.55620337265261],[-58.61654515560918,-34.55563257894391],[-58.61662598638701,-34.55505474292646],[-58.61671940945864,-34.55446937617343],[-58.6168723639279,-34.5538675296879],[-58.61711528628109,-34.55323398361937],[-58.61745181163895,-34.55255227738199],[-58.61785448680423,-34.55181121391134],[-58.61826775905117,-34.55101093090052],[-58.6180813652314,-34.5503362840784],[-58.61776098592013,-34.549699497996684],[-58.61740058769399,-34.54907739373013],[-58.61700115906336,-34.54847167607511],[-58.6165637954261,-34.54788400488595],[-58.61608969605865,-34.54731599052944],[-58.61558016082358,-34.54676918947531],[-58.615036586602415,-34.546245100034675],[-58.61434396637622,-34.545841135152955],[-58.61331222467501,-34.545765868800295],[-58.61234862123383,-34.54570654924164],[-58.611470892749395,-34.54563058791116],[-58.6106746562065,-34.54552110095813],[-58.60994007398797,-34.54537918965482],[-58.60924099772573,-34.545221282630415],[-58.60855389391928,-34.545072284454825],[-58.607864157379694,-34.54495640954088],[-58.60716835401757,-34.544888232223],[-58.60647221904479,-34.544866471407275],[-58.605785500463504,-34.54487234306619],[-58.60511562727942,-34.544873125855105],[-58.6044624566654,-34.54483019939482],[-58.603815950963245,-34.54470959287845],[-58.603157682709366,-34.54449234717265]]]}},{"type":"Feature","properties":{"school_id":"galeano","school_name":"Escuela Galeano","minutes":10,"profile":"foot-walking","source":"aproximacion_morfologica_exploratoria","note":"Polígono exploratorio irregular por distancia caminable estimada; reemplazar por isócrona de red vial OpenRouteService."},"geometry":{"type":"Polygon","coordinates":[[[-58.603157682709366,-34.54757076745765],[-58.60267909386922,-34.547533839108524],[-58.60219517308783,-34.54751270901176],[-58.60170261650121,-34.54748860248828],[-58.60119500719282,-34.54745009760869],[-58.60066642219903,-34.547397493942476],[-58.60011560963928,-34.547343916250675],[-58.59954926625792,-34.547312839487404],[-58.598983144495335,-34.547332656968564],[-58.59844031540971,-34.54742968275066],[-58.597946746347965,-34.547621384500545],[-58.59752518590372,-34.54791158264083],[-58.59718894245902,-34.54828884524486],[-58.59693731610175,-34.548728491153376],[-58.59675412876328,-34.549197700273915],[-58.59661005954773,-34.549662456447095],[-58.59646851603759,-34.550094611475295],[-58.59629381419035,-34.5504773653591],[-58.596059759247986,-34.55080789686066],[-58.59575651111388,-34.551096627286874],[-58.5953939525124,-34.55136345773599],[-58.59496578336901,-34.55161745287102],[-58.59452400084435,-34.55188924118111],[-58.594137065491196,-34.55220324488082],[-58.59384659044813,-34.55256342590788],[-58.59368032104075,-34.552963618323986],[-58.593646704860376,-34.553390110753654],[-58.593733938556994,-34.55382584542334],[-58.59391365409983,-34.554254945578094],[-58.594148259241855,-34.5546662842209],[-58.59440005005079,-34.55505516973336],[-58.594639797172,-34.55542283465108],[-58.59485267785963,-34.55577409207953],[-58.59504013716102,-34.556114073249326],[-58.59521732859833,-34.55644522197308],[-58.595406930569766,-34.55676562289819],[-58.59563106351691,-34.55706930993566],[-58.59590350647537,-34.55734856413255],[-58.59622431101924,-34.55759755223722],[-58.596578266421865,-34.55781617264482],[-58.59693765342723,-34.55801281253712],[-58.597268601806114,-34.55820493845301],[-58.59753943046127,-34.55841699473171],[-58.59772883870183,-34.558675826633376],[-58.597831860450924,-34.55900457556976],[-58.59786207134408,-34.55941650724648],[-58.59784949497645,-34.55991037719882],[-58.59783473636555,-34.56046865605328],[-58.597860797231014,-34.561059286769115],[-58.59796456385939,-34.56164078713514],[-58.59816997540933,-34.56216966260424],[-58.59848438789735,-34.562608480125974],[-58.59889878929943,-34.56293273983237],[-58.599391529571406,-34.5631349337275],[-58.599934369973866,-34.56322484382883],[-58.60049915061961,-34.56322604333385],[-58.60106334450006,-34.563169493329255],[-58.60161319991187,-34.56308583690029],[-58.60214393506122,-34.562998299340116],[-58.60265731661605,-34.562917927353816],[-58.603157682709366,-34.562842285836524],[-58.603647859610966,-34.56275783550917],[-58.60412636865982,-34.562645268701935],[-58.60458685103954,-34.562486327280915],[-58.60501989563106,-34.56227025935349],[-58.60541665977089,-34.56199818286471],[-58.6057730595945,-34.561684183195105],[-58.6060930595783,-34.56135283124331],[-58.60638978988263,-34.561033744048316],[-58.60668381762528,-34.5607545792323],[-58.60699873116809,-34.56053425973653],[-58.60735503045908,-34.56037816475286],[-58.60776391036888,-34.56027651630679],[-58.60822269738857,-34.5602063738504],[-58.608713384841984,-34.56013673566242],[-58.60920497350007,-34.560035472284675],[-58.609659347951855,-34.55987638056268],[-58.61003946066662,-34.55964465344068],[-58.610317915466474,-34.559339499896765],[-58.610483833360654,-34.55897339828639],[-58.61054621890653,-34.55856832373177],[-58.6105676626513,-34.5581646348981],[-58.610578917491,-34.55777640305008],[-58.61060348319649,-34.557409129996714],[-58.61068134292604,-34.55706851833992],[-58.61083871363774,-34.55675024197565],[-58.61108262670583,-34.556442525401124],[-58.61139998595176,-34.556130338217656],[-58.611761265194694,-34.5557999164948],[-58.612127859331146,-34.555442324054205],[-58.612461206180086,-34.55505512954132],[-58.612731380436806,-34.55464188598882],[-58.61292303181338,-34.554209777789694],[-58.61303725109826,-34.5537663488999],[-58.61308901499595,-34.55331648816109],[-58.61310100643661,-34.55286074855561],[-58.613095535646316,-34.55239564652047],[-58.61308676050293,-34.551915950260614],[-58.612893427083804,-34.551485019303186],[-58.61265318010573,-34.551070273707076],[-58.61238691036612,-34.55066645177387],[-58.61209534795494,-34.55027466018446],[-58.61177929224374,-34.54989597263497],[-58.61143960969233,-34.54953142689582],[-58.61107723147191,-34.549182021969244],[-58.61069315091141,-34.548848715353316],[-58.610288420774125,-34.5485324204195],[-58.60958725399811,-34.548515678241756],[-58.60884341212897,-34.54860972017447],[-58.60814453393413,-34.54873055369598],[-58.60751714971317,-34.548836225385905],[-58.60697132726823,-34.54889070645306],[-58.60650087567254,-34.54887075733732],[-58.606087061901874,-34.54876997990111],[-58.60570464506016,-34.548599109954296],[-58.60532852780434,-34.54838251393147],[-58.6049392940561,-34.54815178237947],[-58.604526335668325,-34.54793802211592],[-58.60408803228452,-34.54776475565],[-58.60362931623778,-34.54764316058917],[-58.603157682709366,-34.54757076745755]]]}},{"type":"Feature","properties":{"school_id":"galeano","school_name":"Escuela Galeano","minutes":5,"profile":"foot-walking","source":"aproximacion_morfologica_exploratoria","note":"Polígono exploratorio irregular por distancia caminable estimada; reemplazar por isócrona de red vial OpenRouteService."},"geometry":{"type":"Polygon","coordinates":[[[-58.603157682709366,-34.551245603907574],[-58.602907354957104,-34.551121427502686],[-58.60264574435297,-34.551043813152965],[-58.60238129114004,-34.55101813384038],[-58.60212164894985,-34.55104101967866],[-58.60187154130023,-34.551102141591535],[-58.601631732194456,-34.55118743062878],[-58.60139939451374,-34.551282885619436],[-58.601169736437065,-34.55137801176124],[-58.60093836215367,-34.551468064904995],[-58.60070360956086,-34.55155461178031],[-58.60046809393087,-34.55164436479891],[-58.60023890085008,-34.55174669366893],[-58.600026257791896,-34.55187054075159],[-58.599840965509266,-34.55202159210626],[-58.599691260996536,-34.55220045446925],[-58.599579999867586,-34.55240229285938],[-58.5995030198902,-34.552617977147484],[-58.59944927646833,-34.552836379144054],[-58.59940288986743,-34.553047162613964],[-58.59934672911713,-34.553243294221524],[-58.59924931376642,-34.55341529641455],[-58.59910874859254,-34.55357071727267],[-58.59893869801767,-34.5537215845424],[-58.598752075417295,-34.553876455443195],[-58.59856992844732,-34.55404296777915],[-58.598417478673696,-34.5542255734738],[-58.598318975738,-34.55442420910598],[-58.59829253295578,-34.55463424711434],[-58.59834614398573,-34.55484771147292],[-58.59847581723146,-34.555055393029384],[-58.59866626880439,-34.55524925846618],[-58.598894008831266,-34.5554244783921],[-58.599132090817385,-34.55558052129163],[-58.59935541060079,-34.55572103499239],[-58.59954533463915,-34.55585258734025],[-58.599692630791914,-34.555982663607985],[-58.59979811583091,-34.55611752749903],[-58.59987100770868,-34.55626058588364],[-58.59992553001524,-34.55641174453638],[-58.59997672003736,-34.556567945577356],[-58.60003654171149,-34.55672472057952],[-58.600111269107586,-34.55687827804349],[-58.60020072781976,-34.55702746178007],[-58.60029946560954,-34.557174923575154],[-58.600399408251185,-34.557327053294316],[-58.60049317683151,-34.55749255221926],[-58.600577095083295,-34.55767992944412],[-58.60065303253667,-34.557894538069164],[-58.60072857323386,-34.55813595151909],[-58.600815472837006,-34.55839645329659],[-58.60092683908583,-34.55866117407477],[-58.601073814603524,-34.55891001372841],[-58.60126266675459,-34.5591210320135],[-58.60151091707555,-34.559229357252995],[-58.60177842315089,-34.55929461724637],[-58.60204971025827,-34.559348257495294],[-58.60234065677334,-34.559303707098046],[-58.60263024079506,-34.559188234305125],[-58.60290413378941,-34.55903978014463],[-58.603157682709366,-34.558881363097],[-58.603391735279494,-34.55873342575801],[-58.60361133627825,-34.5586100932517],[-58.60382340077057,-34.558516996734895],[-58.60403408790268,-34.558451101012025],[-58.60424666317253,-34.558402485712136],[-58.60446047471896,-34.558357561753326],[-58.60467132732759,-34.558302875782665],[-58.60487311429975,-34.55822854518661],[-58.60506018329277,-34.55813049845237],[-58.60522967863795,-34.55801103117148],[-58.60538308896486,-34.55787763639926],[-58.60552644335027,-34.55774051168527],[-58.605668985366364,-34.55760946978654],[-58.60582060631756,-34.557491105068],[-58.60598870956431,-34.55738696585307],[-58.60617539393993,-34.55729318741504],[-58.60637581810354,-34.5572016339179],[-58.606578336641206,-34.55710219083311],[-58.606766547647574,-34.55698555023988],[-58.606922876592904,-34.55684571704284],[-58.60705028356869,-34.55668886306181],[-58.60713624733925,-34.55651426083168],[-58.60717194975205,-34.55632448111407],[-58.60716948940513,-34.556128953837046],[-58.607149152072054,-34.55593623763404],[-58.60713545472212,-34.555751751526415],[-58.607152004120856,-34.55557644336551],[-58.60721633697896,-34.555406738612575],[-58.60733594127756,-34.555235753158776],[-58.60750639531418,-34.55505540529382],[-58.60771206511468,-34.55485882074679],[-58.6079291947812,-34.55464235633057],[-58.608130659298496,-34.55440668900106],[-58.60829126622182,-34.55415669211745],[-58.60830481688339,-34.553919499546176],[-58.60822556929141,-34.55369919994068],[-58.60813243165338,-34.55348261803708],[-58.60802565934698,-34.55327034744],[-58.607905545113134,-34.55306296993317],[-58.60777241825264,-34.55286105388528],[-58.60762664372276,-34.55266515269241],[-58.60746862113619,-34.5524758032618],[-58.60729878366517,-34.55229352454059],[-58.60711759685362,-34.552118816094016],[-58.60692555734092,-34.55195215673665],[-58.60672319150031,-34.551794003220486],[-58.60645338203614,-34.551703449919124],[-58.60614433302649,-34.55166975268857],[-58.60581852429658,-34.55168082571317],[-58.60548901052622,-34.55172972292716],[-58.60517025590077,-34.551802276144734],[-58.60487481140225,-34.551879013975814],[-58.60461039886908,-34.55193854971769],[-58.60437818403213,-34.55196172804241],[-58.60417268818235,-34.55193559146517],[-58.60398333952764,-34.55185622824329],[-58.603797224804914,-34.55172979971585],[-58.60360228935702,-34.551571462457936],[-58.60339013290038,-34.55140239674718],[-58.603157682709366,-34.55124560390752]]]}},{"type":"Feature","properties":{"school_id":"pizarnik","school_name":"Escuela Pizarnik","minutes":20,"profile":"foot-walking","source":"aproximacion_morfologica_exploratoria","note":"Polígono exploratorio irregular por distancia caminable estimada; reemplazar por isócrona de red vial OpenRouteService."},"geometry":{"type":"Polygon","coordinates":[[[-58.536860374022865,-34.54249849256172],[-58.53578964976697,-34.54222085940635],[-58.53468829170485,-34.54202694790483],[-58.53357837002076,-34.54198097139086],[-58.53249760584868,-34.54214286870464],[-58.531492386995815,-34.54254785305285],[-58.530574587497526,-34.54311457668638],[-58.529806812597315,-34.54391408587041],[-58.529204127658275,-34.544885302288556],[-58.52875286045046,-34.54594331112613],[-58.52841063158357,-34.54699486401864],[-58.5281134227874,-34.547955574108],[-58.52778832782911,-34.54876490771335],[-58.527369044074135,-34.549395682424795],[-58.526810310789905,-34.549856176626065],[-58.52609763816649,-34.55018477262369],[-58.525249789694826,-34.550438826826024],[-58.52431330395127,-34.5506807406796],[-58.5233503974922,-34.55096468848914],[-58.52242333412004,-34.55132705069182],[-58.52157930651732,-34.55178244501424],[-58.5208397842495,-34.55232567520379],[-58.520197143427374,-34.55293835813431],[-58.519619491876995,-34.55359785716984],[-58.51906243053373,-34.55428572732697],[-58.51848461782269,-34.554993249533],[-58.51786292943224,-34.55572266160523],[-58.517203027634956,-34.55648406975691],[-58.516542283406366,-34.55728934602137],[-58.51594395060497,-34.55814520811047],[-58.51554423821016,-34.55904790210271],[-58.515573216114745,-34.55996665090603],[-58.51566054256058,-34.56088289158913],[-58.5158059801027,-34.56179411267593],[-58.51601868480559,-34.56269614592175],[-58.51669963572287,-34.563496677634404],[-58.51746166216592,-34.56423870120741],[-58.51821001000536,-34.56494382386037],[-58.51886540052328,-34.56564602949678],[-58.51938069144936,-34.56638260991891],[-58.5197501695881,-34.56718319196886],[-58.52000940455387,-34.56805976228598],[-58.520225892732526,-34.56900048277678],[-58.52048292035711,-34.569969206313544],[-58.52101716039635,-34.570795140701996],[-58.52178533988085,-34.571461899153974],[-58.52259485747198,-34.57209463424412],[-58.523443494238165,-34.572691610893735],[-58.52432892382329,-34.573251192044204],[-58.525509236243835,-34.573441609716916],[-58.52677663396785,-34.57343046713362],[-58.528024998017166,-34.57332753400184],[-58.5292158228051,-34.57318728212386],[-58.530332504563546,-34.573052115898456],[-58.53137794877385,-34.57294307496499],[-58.53236736790524,-34.57285663682847],[-58.5333189708169,-34.57276846705369],[-58.53424564979251,-34.57264312820562],[-58.535150258642595,-34.57244715694111],[-58.53602581927174,-34.572161975650246],[-58.536860374022865,-34.57179307678826],[-58.53764469410791,-34.57137282393282],[-58.53838010101395,-34.57095582909354],[-58.53908353802236,-34.570607779511214],[-58.53978778383725,-34.57039030681289],[-58.54053776358295,-34.570350622726956],[-58.54141397466759,-34.57058963243494],[-58.542423204224924,-34.57098241355313],[-58.543575220041426,-34.57146820466257],[-58.544850995485525,-34.571962668126446],[-58.5462027623928,-34.57237340172587],[-58.547561107831164,-34.57261713988846],[-58.54884775765963,-34.572634748468644],[-58.549991101992134,-34.572400722860614],[-58.5509406655226,-34.57192529493188],[-58.55167686429903,-34.57124907192741],[-58.552213510555866,-34.57043190183482],[-58.55259235221839,-34.56953893970906],[-58.55287099079263,-34.5686273714084],[-58.55310726557386,-34.567736842939986],[-58.55334415261298,-34.56688548686623],[-58.553599133923534,-34.56607186420925],[-58.553860852158486,-34.565281581440885],[-58.554093963074955,-34.56449620971748],[-58.5542509239788,-34.563701711918235],[-58.554287582182,-34.56289395559429],[-58.55417835381642,-34.56207992087655],[-58.55392680641048,-34.56127458879874],[-58.5535685892036,-34.56049481683176],[-58.553165612324,-34.5597523988997],[-58.552792658668096,-34.55904871964947],[-58.55251962853006,-34.5583728957694],[-58.552393838917105,-34.557704207247546],[-58.55242690091101,-34.557018277799806],[-58.552589640882346,-34.55629525820273],[-58.55281657584023,-34.55552755364136],[-58.5530190934968,-34.55472463396875],[-58.553104323198596,-34.55391319196227],[-58.55299526534162,-34.55313218006319],[-58.55264743237359,-34.552423714644185],[-58.55205811868945,-34.551822079964545],[-58.55126623198066,-34.55134373400572],[-58.55034291764267,-34.550981108856405],[-58.54937540619278,-34.55070211404026],[-58.54844806209499,-34.55045581054724],[-58.547625137382504,-34.55018310235572],[-58.54693913002593,-34.549829925020326],[-58.546387101060354,-34.54935967283529],[-58.545935239119835,-34.548761711464316],[-58.54552992213936,-34.5480537639302],[-58.545112036668506,-34.5472775027383],[-58.54463073914175,-34.54648843150065],[-58.54405329134085,-34.54574263569726],[-58.54336890970088,-34.54508382343843],[-58.542586346062905,-34.54453403020667],[-58.541726663280045,-34.544090425530705],[-58.54081390545104,-34.543729068432604],[-58.539866766521754,-34.54341462230844],[-58.538893848599905,-34.543113438575205],[-58.537893846214956,-34.54280647575214],[-58.536860374022865,-34.54249849256123]]]}},{"type":"Feature","properties":{"school_id":"pizarnik","school_name":"Escuela Pizarnik","minutes":15,"profile":"foot-walking","source":"aproximacion_morfologica_exploratoria","note":"Polígono exploratorio irregular por distancia caminable estimada; reemplazar por isócrona de red vial OpenRouteService."},"geometry":{"type":"Polygon","coordinates":[[[-58.536860374022865,-34.54627440410304],[-58.53605659211136,-34.54641711038893],[-58.53527466518983,-34.546623100349244],[-58.53451667238393,-34.54686154284285],[-58.53378103699032,-34.547117234768294],[-58.53306700465571,-34.547389138553164],[-58.532354451878405,-34.54762738578589],[-58.531678775146204,-34.547931555659325],[-58.53106339602142,-34.54832553234023],[-58.5305331466177,-34.54882168565877],[-58.53010639396302,-34.549414463416575],[-58.52978711839119,-34.550078680179894],[-58.52955943449754,-34.550773038041704],[-58.52938657062576,-34.55144805126505],[-58.52921523695645,-34.55205641032623],[-58.528984889193175,-34.552563203318165],[-58.528640014314206,-34.55295346661059],[-58.52814260845124,-34.55323523742332],[-58.52748176383587,-34.55343743571003],[-58.526677829784504,-34.553603203615715],[-58.5257798472578,-34.55378043779547],[-58.52485657637694,-34.554011881130116],[-58.52398303037404,-34.55432714530656],[-58.52322558382379,-34.5547384320864],[-58.52262913022118,-34.555240686819],[-58.52220930544031,-34.555815740264606],[-58.521951573116745,-34.556438991901985],[-58.52181728762888,-34.55708662200756],[-58.52175513421772,-34.55774132811963],[-58.5217150307281,-34.55839514107451],[-58.521660997962,-34.55904881266678],[-58.52157981342575,-34.55970830646972],[-58.521483375805865,-34.560379767652634],[-58.52140433727283,-34.56106475906643],[-58.521386287053694,-34.56175741756822],[-58.521471148865054,-34.56244455093437],[-58.5216871350462,-34.56310874920374],[-58.52204041224443,-34.56373360249063],[-58.5225126337364,-34.56430938996068],[-58.52306494773193,-34.564837352055676],[-58.523647404597256,-34.56533096795314],[-58.524211296820404,-34.56581346113807],[-58.52472123007635,-34.566311834221274],[-58.52516382445365,-34.56684879093475],[-58.52555084426909,-34.567434636384064],[-58.525916008348915,-34.56806143449571],[-58.526306354986005,-34.56870126661951],[-58.52679812688344,-34.56928128441078],[-58.52746218765417,-34.5697009527095],[-58.528152018090125,-34.570091424064145],[-58.528881247741325,-34.57042949586747],[-58.52980645364354,-34.57044918546646],[-58.53078334434889,-34.57028880099981],[-58.53176237761855,-34.5699854533829],[-58.53269911530894,-34.569595479908955],[-58.53356281567682,-34.56918352290386],[-58.53434095890971,-34.568809957530014],[-58.5350389151043,-34.56851959254603],[-58.535675310806006,-34.56833424994507],[-58.536274777925414,-34.568250861043374],[-58.536860374022865,-34.56824534227314],[-58.53744789380775,-34.5682810833859],[-58.53804358734939,-34.56831975841984],[-58.5386456775602,-34.56833164050851],[-58.53924886010658,-34.56830279675272],[-58.539851259738896,-34.56824119124412],[-58.54048420286423,-34.56823364941985],[-58.54114121288497,-34.568232778658086],[-58.54184174550209,-34.56826270358693],[-58.54260663907389,-34.56833622624275],[-58.543450250315075,-34.56844842417456],[-58.544372545382785,-34.56857494458113],[-58.54535363609477,-34.568675529541224],[-58.54635277792972,-34.568701943686236],[-58.54731275971773,-34.56860833927242],[-58.548166227739166,-34.56835903672191],[-58.54874236467981,-34.567858986038836],[-58.54928592357018,-34.56733478888502],[-58.5496223494937,-34.5666843682047],[-58.54969090249095,-34.565910469150936],[-58.549603544572655,-34.56510767449612],[-58.54942606938005,-34.5643215385194],[-58.54923071808536,-34.56358464966656],[-58.54908129913123,-34.56291234474397],[-58.54902035917297,-34.562302854263535],[-58.54906142188166,-34.561741434162755],[-58.54918808985809,-34.56120703645752],[-58.5493601239011,-34.56067950593899],[-58.54952489749247,-34.56014529886225],[-58.54963130956548,-34.559600279603096],[-58.54964266191343,-34.55904908839277],[-58.54954531613724,-34.558501612693114],[-58.54935105842688,-34.5579679388046],[-58.54909273063995,-34.557453571258414],[-58.54881441234454,-34.556956573733515],[-58.548558817172236,-34.556467651218206],[-58.54835524628134,-34.55597324644887],[-58.54821125295815,-34.555460741961156],[-58.54811017214414,-34.55492413207916],[-58.54801512286856,-34.55436827704978],[-58.54787840566469,-34.553810161873365],[-58.54765382865444,-34.55327638361019],[-58.54730876146221,-34.55279716924821],[-58.546832817451424,-34.55239828284924],[-58.54624096442952,-34.55209291344807],[-58.54557031714811,-34.55187582258512],[-58.54487148654703,-34.551721594987875],[-58.544196728289066,-34.551587869224456],[-58.54358789763596,-34.55142316680769],[-58.54306719377318,-34.55117771457527],[-58.54263288814923,-34.550814793578986],[-58.542260901930376,-34.55031988847369],[-58.54191158788421,-34.54970534223601],[-58.541539782195166,-34.549009249957805],[-58.541105454224066,-34.548288701818414],[-58.540582273994886,-34.547608862972375],[-58.539962115347464,-34.547030404665776],[-58.53925470491737,-34.54659821001012],[-58.53848297308931,-34.54633395986424],[-58.53767578995979,-34.54623423594335],[-58.536860374022865,-34.54627440410275]]]}},{"type":"Feature","properties":{"school_id":"pizarnik","school_name":"Escuela Pizarnik","minutes":10,"profile":"foot-walking","source":"aproximacion_morfologica_exploratoria","note":"Polígono exploratorio irregular por distancia caminable estimada; reemplazar por isócrona de red vial OpenRouteService."},"geometry":{"type":"Polygon","coordinates":[[[-58.536860374022865,-34.55027238772663],[-58.53630263260682,-34.55028441553449],[-58.53574641943856,-34.550320466001125],[-58.53521959505866,-34.55051740920286],[-58.5347505573545,-34.550874531618874],[-58.534334720566356,-34.55128640660721],[-58.533947937588096,-34.55166719852436],[-58.53359054805726,-34.55203403374021],[-58.53324854212505,-34.552368338908245],[-58.53291123294625,-34.552666235198174],[-58.53257485331503,-34.55293629249838],[-58.532243582954735,-34.5531945019873],[-58.53192762638596,-34.55345796890973],[-58.531638851709616,-34.55373907000406],[-58.53138526942237,-34.554041602693175],[-58.53116605450125,-34.554359846578464],[-58.53096876269831,-34.554680632625406],[-58.53076986086945,-34.55498769548988],[-58.53053881177616,-34.55526698680946],[-58.53024495687659,-34.555511405008325],[-58.52986559647705,-34.555723599772485],[-58.52939321251686,-34.5559160715922],[-58.52883985448744,-34.55610854826328],[-58.52823731463853,-34.55632337012432],[-58.527632714308595,-34.55658015054491],[-58.52708026134011,-34.55689115634445],[-58.526630927698456,-34.557258632345224],[-58.526333698261624,-34.557676220056514],[-58.526260808919766,-34.55813181179364],[-58.526216971287354,-34.55858992077373],[-58.52629277814669,-34.559049299211786],[-58.526492026162245,-34.55949681178557],[-58.526719588535656,-34.559927089588484],[-58.52693133146252,-34.560344439385524],[-58.52709738089717,-34.560758335488686],[-58.52720745171689,-34.56117940549092],[-58.52727142338816,-34.561615160025426],[-58.527315242735305,-34.5620667583659],[-58.527373360918716,-34.562527793254326],[-58.52747970792233,-34.56298548342065],[-58.52765948056503,-34.563423948337416],[-58.52792371311913,-34.56382860952234],[-58.5282678065276,-34.564190397886584],[-58.528674129594265,-34.56450845709721],[-58.52911775480382,-34.56479042511882],[-58.52957362458869,-34.565050049361865],[-58.53002315220223,-34.565302663398036],[-58.53045850692574,-34.56555971061303],[-58.530883534928705,-34.565823853978245],[-58.5313112247945,-34.56608615105147],[-58.53175857721236,-34.56632629936865],[-58.532240426410546,-34.56651618241889],[-58.53276400748371,-34.566626068143854],[-58.53332581231172,-34.566632061943],[-58.53391160649683,-34.566522998615774],[-58.534499582126195,-34.56630499417678],[-58.535065746267136,-34.566002374521695],[-58.5355900330037,-34.56565453884652],[-58.53606144212171,-34.565309294738874],[-58.536480795180196,-34.56501407274718],[-58.536860374022865,-34.564806968635686],[-58.537220576387725,-34.564709631106766],[-58.53758454478091,-34.56472358989363],[-58.53797227026248,-34.564830807314884],[-58.53839579254751,-34.56499823787704],[-58.53885760310008,-34.56518777001329],[-58.539367850390086,-34.56540469706959],[-58.53989894883117,-34.56556816518578],[-58.54043423272033,-34.565659763623074],[-58.54096034239178,-34.565675904904154],[-58.54147083217884,-34.565625581930114],[-58.54196720855764,-34.56552534288947],[-58.54245701832919,-34.56539298591984],[-58.54294949744639,-34.56524171801872],[-58.54345006008313,-34.56507630523874],[-58.543955331722394,-34.56489213454461],[-58.544450377561496,-34.56467728246121],[-58.5449092460725,-34.56441686568643],[-58.54529906782455,-34.564098351325384],[-58.54558695244633,-34.563716282265716],[-58.54574808231319,-34.56327507598681],[-58.5457729475767,-34.56278911751262],[-58.54567174264519,-34.56228012877178],[-58.545474550275465,-34.56177254649221],[-58.54522693549808,-34.561288175367395],[-58.54498170994025,-34.560841561193214],[-58.54478861628463,-34.56043730799294],[-58.544684263407134,-34.56007001112031],[-58.54468465655913,-34.55972675170261],[-58.54478209850523,-34.559391398931815],[-58.544947220847035,-34.55904948787045],[-58.54513568984223,-34.558692311069926],[-58.54529802081148,-34.5583191140794],[-58.545390207633865,-34.55793684355536],[-58.54538271011642,-34.557557603020555],[-58.54526578027752,-34.55719462581431],[-58.54505003393512,-34.55685799301023],[-58.544762348871124,-34.55655138814655],[-58.54443829715753,-34.55627087196691],[-58.54411311504796,-34.55600606532224],[-58.54381348621186,-34.555743414440066],[-58.5435521068466,-34.555470582650216],[-58.5433262080594,-34.55518064801156],[-58.543120148412015,-34.5548747969672],[-58.54291113913827,-34.55456259650515],[-58.542676398095026,-34.554259600635255],[-58.54239973717935,-34.55398281949693],[-58.5420758336909,-34.55374523669642],[-58.54171113766485,-34.553550914110474],[-58.54132132464943,-34.553392163146434],[-58.54092615348407,-34.55324978743071],[-58.54054327639005,-34.55309662684697],[-58.54018279497859,-34.552903754687016],[-58.539844104281904,-34.55264792984308],[-58.53951589684693,-34.5523184885056],[-58.53917930163021,-34.55192189645137],[-58.53881325792422,-34.551482679091826],[-58.53840061278139,-34.55104028729435],[-58.53793324582685,-34.550642435933526],[-58.53741481290308,-34.550336322889905],[-58.536860374022865,-34.55027238772663]]]}},{"type":"Feature","properties":{"school_id":"pizarnik","school_name":"Escuela Pizarnik","minutes":5,"profile":"foot-walking","source":"aproximacion_morfologica_exploratoria","note":"Polígono exploratorio irregular por distancia caminable estimada; reemplazar por isócrona de red vial OpenRouteService."},"geometry":{"type":"Polygon","coordinates":[[[-58.536860374022865,-34.55482819428112],[-58.53658559347376,-34.554731596167436],[-58.53630336751034,-34.55468511150348],[-58.53602677287254,-34.55471510024363],[-58.535756762012205,-34.5547736285485],[-58.53551893567052,-34.5549266311953],[-58.535309270367755,-34.55511812893527],[-58.535138201106435,-34.55535482802546],[-58.53500284526686,-34.55561371709005],[-58.53489366842571,-34.55587084633009],[-58.534796478398654,-34.55610565794584],[-58.534695609319485,-34.55630441252486],[-58.53457749870544,-34.556461994549],[-58.53443373458537,-34.55658178998431],[-58.53426277226692,-34.55667379887756],[-58.534069863153896,-34.55675155632166],[-58.53386521236588,-34.5568286846758],[-58.53366086129641,-34.55691593123396],[-58.53346714545572,-34.557019359399625],[-58.5332897082596,-34.55714001507663],[-58.53312791784072,-34.557274980671565],[-58.53297516694287,-34.55741936744428],[-58.5328210295315,-34.557568577259936],[-58.53265473517856,-34.55772014026048],[-58.5324690411645,-34.557874604378185],[-58.53226343774545,-34.55803526190962],[-58.53204575833008,-34.558206856535534],[-58.53183165387571,-34.558393718864906],[-58.53164193316948,-34.55859794449231],[-58.53153865794595,-34.558819953079784],[-58.53153133999552,-34.55904963870321],[-58.531538628556774,-34.55927932496086],[-58.531560503772994,-34.55950838229605],[-58.53160676789745,-34.55973489694061],[-58.53177420851926,-34.559939968979904],[-58.53195647487348,-34.560131773112545],[-58.53212904337275,-34.56031567714802],[-58.53227312839754,-34.56049980091755],[-58.53237938918678,-34.56069265834183],[-58.53244946901263,-34.560900518576496],[-58.53249506750808,-34.56112520688893],[-58.532534839390436,-34.56136297221281],[-58.53258991958574,-34.56160477805189],[-58.53271879923295,-34.56181157248835],[-58.532899990140905,-34.56198629290306],[-58.533092037334484,-34.56215296436114],[-58.53329441443199,-34.56231112997801],[-58.53350656672558,-34.56246035618299],[-58.53379758181105,-34.5625212718188],[-58.53409544453077,-34.562555902823526],[-58.53438854316248,-34.56257544068085],[-58.534670315491326,-34.56258935879689],[-58.53493933844205,-34.562602937971654],[-58.53519808545723,-34.56261586465968],[-58.535450735803984,-34.562622464302365],[-58.53570079682302,-34.56261355752587],[-58.53594930893734,-34.56257948700325],[-58.536194188853294,-34.56251353120114],[-58.53643089542321,-34.56241478804292],[-58.536654184401485,-34.56228971605108],[-58.536860374022865,-34.562151840337805],[-58.537049372139485,-34.56201958691968],[-58.5372257671781,-34.56191268570712],[-58.5373985457001,-34.56184795791695],[-58.53757939572523,-34.56183548026703],[-58.53778038588169,-34.56187731191153],[-58.53801922782288,-34.561986878066904],[-58.53829239670726,-34.56212189450485],[-58.53859568384008,-34.56225943068048],[-58.53891821848796,-34.5623756821613],[-58.539244467476955,-34.56245030274627],[-58.53955742526077,-34.562469832137054],[-58.53984219720128,-34.562429502299935],[-58.54008905293114,-34.56233311550118],[-58.540295149208205,-34.56219115697032],[-58.540464464609975,-34.5620177156065],[-58.540605962847046,-34.561827035641755],[-58.540730480922434,-34.56163055344463],[-58.54084719261627,-34.56143508749341],[-58.54096062805696,-34.56124250316252],[-58.54106909646947,-34.561050764639596],[-58.54116499210147,-34.560855924657986],[-58.54123695679996,-34.560654383074976],[-58.54127336009726,-34.56044472084477],[-58.54126617655538,-34.56022858538653],[-58.54121419567927,-34.56001041267522],[-58.54112463609447,-34.55979612955554],[-58.5410126233497,-34.559591284451294],[-58.540898533121876,-34.559399220506705],[-58.54080375980136,-34.55921988729458],[-58.54074589912841,-34.55904969292897],[-58.54073451893805,-34.55888248482854],[-58.54076858211337,-34.55871140512285],[-58.54083620424547,-34.55853109445761],[-58.54091686908916,-34.55833959488336],[-58.540985627942455,-34.55813936601712],[-58.54101832504791,-34.557937063712046],[-58.5409966419597,-34.55774207341208],[-58.54091180167835,-34.557564146235734],[-58.54076610451293,-34.55741075451069],[-58.54057199675207,-34.557284887453],[-58.54034896553251,-34.557183913926266],[-58.540119059982864,-34.557099868893765],[-58.539902135096575,-34.557021143695884],[-58.539711932088814,-34.55693517866303],[-58.539553851057306,-34.55683147426855],[-58.53942481270031,-34.55670413344452],[-58.539315069432945,-34.55655325508851],[-58.5392113526282,-34.55638479274387],[-58.53910045148223,-34.556208897378106],[-58.538972278164046,-34.55603717207941],[-58.538821683354016,-34.555879569024796],[-58.53864867930577,-34.555741771547694],[-58.53845719064974,-34.55562379216179],[-58.538252857410846,-34.55552020609394],[-58.538040651170235,-34.55542200806675],[-58.53782307407469,-34.555319640102994],[-58.53759949604633,-34.555206406553644],[-58.537366814642766,-34.5550813593919],[-58.53712120386998,-34.55495084135128],[-58.536860374022865,-34.55482819428106]]]}}]}