{"type":"FeatureCollection","features":[{"type":"Feature","properties":{"CODIGO":"06371","NOMBRE":"General San Martín","CODPROV":"06","PROV":"Buenos Aires","SUPERFICIE":56.498,"LATITUD_CE":-34.552848,"LONGITUD_C":-58.564062},"geometry":{"type":"MultiPolygon","coordinates":[[[[-58.592709901632645,-34.567139729442985],[-58.59331684869505,-34.56666896158256],[-58.59645217984959,-34.5641908832626],[-58.59685905784138,-34.563892140417884],[-58.59709809902205,-34.56370898875312],[-58.597164612707516,-34.56366361258139],[-58.59812403754567,-34.56286379095694],[-58.59814374376605,-34.562856004800715],[-58.59818435080177,-34.56282702377592],[-58.59838516827467,-34.56264603242911],[-58.59883892321887,-34.56227823842531],[-58.59891592790628,-34.56220653764888],[-58.60018156730276,-34.56120067266215],[-58.60134307747518,-34.560296298926225],[-58.60148778066662,-34.56016580801565],[-58.60221683752894,-34.55960356522754],[-58.60679659581291,-34.5561166825437],[-58.60690528955606,-34.55602443615078],[-58.60774598275449,-34.555397050845805],[-58.608670247524785,-34.554684868936604],[-58.60957209213747,-34.55398030192904],[-58.6105183323877,-34.55326494748693],[-58.6114460457701,-34.552543963213296],[-58.612814029903575,-34.55154417342317],[-58.61334106731786,-34.55114482386563],[-58.61664847618339,-34.548519322282154],[-58.61708849033558,-34.54818207082093],[-58.61741709298156,-34.547325738309354],[-58.61659000705776,-34.54688447954641],[-58.61551219715835,-34.54593363926624],[-58.61380215350166,-34.54473312246276],[-58.61327117723389,-34.54410762979295],[-58.61247536031678,-34.54291776911621],[-58.61106577269565,-34.54029296267039],[-58.60978660477462,-34.538004135926435],[-58.60868890232212,-34.53630156077387],[-58.60809931680576,-34.53554216250413],[-58.60637902764546,-34.53424656734003],[-58.60617157258716,-34.53404519500653],[-58.605470185317685,-34.53341379554107],[-58.60507701336739,-34.532216959180055],[-58.60471282886928,-34.52980854708303],[-58.6045741059537,-34.52929229468118],[-58.604307003586385,-34.52799078861485],[-58.60412147369518,-34.526626842204145],[-58.603367536915144,-34.5241138085518],[-58.60298766329419,-34.52316494270303],[-58.60242521788135,-34.52225438937899],[-58.60174325567417,-34.521466876055634],[-58.601258409996404,-34.52069136676729],[-58.601549393757786,-34.51827343141746],[-58.602549334182406,-34.51377308545257],[-58.60287115448673,-34.51222882688847],[-58.602248816689325,-34.509274430947904],[-58.60207146790846,-34.50833790151297],[-58.60164760484576,-34.50681564357223],[-58.60134141604929,-34.505435366621576],[-58.60079391839716,-34.50280009764152],[-58.59978916135119,-34.50115707671532],[-58.599313473886056,-34.500310227085315],[-58.59839467897138,-34.4985555956366],[-58.59839830032085,-34.4977514233972],[-58.598500682902355,-34.496935292161716],[-58.598784073784955,-34.49606727328442],[-58.59929942893423,-34.49527629558112],[-58.6003077019001,-34.49431311245609],[-58.60078754330287,-34.493524457879],[-58.60094299885951,-34.492751999207925],[-58.6008487019938,-34.49191939419184],[-58.600700663206894,-34.490989146593556],[-58.600163640278396,-34.490161038778005],[-58.59487480993973,-34.494800004399764],[-58.59311761274586,-34.496310665939],[-58.590756190041816,-34.49832820091528],[-58.589358131531384,-34.49961354046816],[-58.58714984672993,-34.50155495146838],[-58.586414126496095,-34.50219760704754],[-58.58504747915928,-34.503372460397344],[-58.58444093717043,-34.50387469164331],[-58.583730353406466,-34.50447841850852],[-58.58166239700391,-34.50621257777043],[-58.577626017333436,-34.509718310328445],[-58.57662526626411,-34.510591858389],[-58.57634918450657,-34.51082663642805],[-58.574939671313174,-34.51205266143315],[-58.57459360563146,-34.51234157560858],[-58.57156029522314,-34.51494222826158],[-58.569501023007426,-34.51669465053971],[-58.567528150572116,-34.518420862802735],[-58.56544501487912,-34.52022566857014],[-58.56326360074079,-34.522096313970934],[-58.56242392157708,-34.52280433237927],[-58.56166692051612,-34.52346797693331],[-58.56112038315063,-34.5239333033113],[-58.55903816621965,-34.52572455507552],[-58.55865328991086,-34.52605148128957],[-58.55640886774145,-34.527985526681114],[-58.55476105784772,-34.52934945548791],[-58.553790926672384,-34.53014826702959],[-58.55127265167563,-34.53234851037263],[-58.55066708833836,-34.53289554051907],[-58.54630781633099,-34.53664087347714],[-58.54465234927559,-34.53811651248402],[-58.54198964301116,-34.5404379768369],[-58.53778740286193,-34.544179113833806],[-58.53739512891007,-34.54380000823499],[-58.536826884833474,-34.54320337900409],[-58.53670079975143,-34.543065314010995],[-58.53345659372488,-34.53961248720152],[-58.52976454850988,-34.53730936082737],[-58.52886288814677,-34.53906480035585],[-58.527880423465106,-34.54096354640528],[-58.5275098239377,-34.541673192755574],[-58.52903137259891,-34.54238693969731],[-58.52664486128322,-34.54501260831776],[-58.5256997062654,-34.54755171412081],[-58.525319644229164,-34.54851690228107],[-58.52465365546519,-34.55033623695312],[-58.524603500498785,-34.550440994466726],[-58.52429434158828,-34.55088928927152],[-58.52363045254777,-34.551899902286536],[-58.52318286849965,-34.552528398593154],[-58.52284806684897,-34.553020045110614],[-58.522730968062255,-34.55317460123134],[-58.52214638564017,-34.55390699375465],[-58.52155426536374,-34.55469284121406],[-58.521114175067986,-34.555267866776596],[-58.5202944253431,-34.556349738436786],[-58.5197897262105,-34.55706906458686],[-58.519150492673454,-34.557955346072156],[-58.51858164222881,-34.55869318023815],[-58.51776262506533,-34.55976608849825],[-58.51742569134315,-34.560190181382275],[-58.51662215907884,-34.561241566796866],[-58.514243154320354,-34.56437516380888],[-58.51312226499248,-34.56584282129442],[-58.51137495206169,-34.56750997519871],[-58.51083001482273,-34.568011082344825],[-58.50995963449121,-34.56913917186961],[-58.509580411376355,-34.56969992748388],[-58.51145105858602,-34.57398536501638],[-58.51420489805229,-34.579835104091615],[-58.514925991262274,-34.58135796268478],[-58.51679383698841,-34.5853780651773],[-58.51871074998703,-34.589428139122695],[-58.51990493949649,-34.59197323017957],[-58.52070018267822,-34.59363994238125],[-58.52134531802289,-34.594982848359976],[-58.521668580333504,-34.59567681139465],[-58.521822677754855,-34.59607725145783],[-58.521982465703395,-34.5965050037064],[-58.52228893797876,-34.59735520675726],[-58.52298009216473,-34.59734387912975],[-58.52337752823275,-34.59730546078283],[-58.52398394466587,-34.597239475885466],[-58.52779956553109,-34.596656689925254],[-58.53203690399206,-34.59603682507103],[-58.53632375893187,-34.59537940866345],[-58.53852871599468,-34.5950611652489],[-58.5421738756664,-34.59449887902968],[-58.544307748664764,-34.5941851439391],[-58.54575174661622,-34.59395930638567],[-58.54887031529045,-34.59348129327094],[-58.551349140389355,-34.59310772447113],[-58.55268992923657,-34.59291141430551],[-58.555692556789324,-34.59245306387695],[-58.557166641684056,-34.59222443620707],[-58.562270204774926,-34.59145437851243],[-58.563006213813566,-34.59069960474352],[-58.56367865785828,-34.59001732379029],[-58.56521405302253,-34.58883068892849],[-58.5681141899838,-34.58654126944804],[-58.56983998531142,-34.58516850187796],[-58.570618705555404,-34.584542113646954],[-58.57303714882524,-34.58262301189337],[-58.57363961903028,-34.58217455308633],[-58.57424288232204,-34.581717151814246],[-58.57598548648854,-34.580336323613494],[-58.577981467128005,-34.578764247439274],[-58.579459220386326,-34.57760982870393],[-58.58095203865792,-34.57643833479648],[-58.583563487123236,-34.57436002281801],[-58.58460971233873,-34.573534172843445],[-58.58511890983284,-34.573124887670346],[-58.5861152776882,-34.5723094582516],[-58.58671149317361,-34.571838073218785],[-58.587688737453995,-34.571084374136205],[-58.5890311796845,-34.570042890011464],[-58.59032336558736,-34.569016296198555],[-58.590546137163166,-34.568863623104725],[-58.592709901632645,-34.567139729442985]]]]}}]}