{"type":"FeatureCollection","features":[{"type":"Feature","properties":{"fid":275,"renabap_id":299,"nombre_bar":"La Favela","provincia":"Buenos Aires","departamen":"Tres de Febrero","localidad":"El Libertador","cantidad_f":44,"cantidad_v":40,"decada_de_":"Década 2000","anio_de_cr":null,"energia_el":"Conexión irregular a la red","efluentes_":"Desagüe sólo a pozo negro/ciego u hoyo","agua_corri":"Conexión irregular a la red de agua","cocina":"Gas en garrafa","calefaccio":"Energía eléctrica","situacion_":"Ninguna seguridad en la tenencia","clasificac":"Villa","superficie":5571},"geometry":{"type":"MultiPolygon","coordinates":[[[[-58.6124,-34.552],[-58.6123,-34.5519],[-58.6115,-34.5526],[-58.6119,-34.5529],[-58.6127,-34.5522],[-58.6124,-34.552]]]]}},{"type":"Feature","properties":{"fid":585,"renabap_id":625,"nombre_bar":"Costa Esperanza","provincia":"Buenos Aires","departamen":"General San Martín","localidad":"Loma Hermosa","cantidad_f":2640,"cantidad_v":2400,"decada_de_":"Década 1990","anio_de_cr":null,"energia_el":"Conexión irregular a la red","efluentes_":"Desagüe sólo a pozo negro/ciego u hoyo","agua_corri":"Conexión irregular a la red de agua","cocina":"Gas en garrafa","calefaccio":"Gas en garrafa","situacion_":"Ninguna seguridad en la tenencia","clasificac":"Villa","superficie":493710},"geometry":{"type":"MultiPolygon","coordinates":[[[[-58.6003,-34.5564],[-58.6006,-34.556],[-58.6054,-34.5524],[-58.604,-34.5511],[-58.604,-34.5511],[-58.6037,-34.5509],[-58.6036,-34.5508],[-58.6035,-34.5509],[-58.6007,-34.5484],[-58.6006,-34.5483],[-58.5998,-34.5489],[-58.5944,-34.5531],[-58.5942,-34.5533],[-58.5932,-34.554],[-58.5935,-34.5542],[-58.5994,-34.556],[-58.5995,-34.5561],[-58.5997,-34.5562],[-58.6003,-34.5564]]]]}},{"type":"Feature","properties":{"fid":1061,"renabap_id":1173,"nombre_bar":"Costa del Lago","provincia":"Buenos Aires","departamen":"General San Martín","localidad":"Loma Hermosa","cantidad_f":638,"cantidad_v":580,"decada_de_":"Década 1990","anio_de_cr":null,"energia_el":"Conexión irregular a la red","efluentes_":"Desagüe a cámara séptica y pozo ciego","agua_corri":"Conexión irregular a la red de agua","cocina":"Gas en garrafa","calefaccio":"Energía eléctrica","situacion_":"Ninguna seguridad en la tenencia","clasificac":"Villa","superficie":113718},"geometry":{"type":"MultiPolygon","coordinates":[[[[-58.6009,-34.5449],[-58.599,-34.5454],[-58.5975,-34.5456],[-58.5967,-34.5462],[-58.5997,-34.549],[-58.6005,-34.5483],[-58.6011,-34.5473],[-58.6018,-34.5472],[-58.6017,-34.5465],[-58.6014,-34.5461],[-58.6011,-34.5462],[-58.601,-34.5458],[-58.6011,-34.5455],[-58.601,-34.5451],[-58.6009,-34.5449]]]]}},{"type":"Feature","properties":{"fid":4192,"renabap_id":4549,"nombre_bar":"Ocho de Mayo","provincia":"Buenos Aires","departamen":"General San Martín","localidad":"Loma Hermosa","cantidad_f":770,"cantidad_v":700,"decada_de_":"Década 1990","anio_de_cr":null,"energia_el":"Conexión irregular a la red","efluentes_":"Desagüe a cámara séptica y pozo ciego","agua_corri":"Bomba de agua de pozo domiciliaria","cocina":"Gas en garrafa","calefaccio":"Energía eléctrica","situacion_":"Ninguna seguridad en la tenencia","clasificac":"Asentamiento","superficie":175675},"geometry":{"type":"MultiPolygon","coordinates":[[[[-58.6008,-34.5449],[-58.6012,-34.5447],[-58.601,-34.5445],[-58.6007,-34.5446],[-58.6008,-34.5445],[-58.6007,-34.5443],[-58.6002,-34.5443],[-58.6001,-34.5443],[-58.6,-34.5443],[-58.5996,-34.5439],[-58.6005,-34.5432],[-58.5996,-34.5422],[-58.5986,-34.5429],[-58.5975,-34.5412],[-58.594,-34.5437],[-58.5961,-34.5457],[-58.5969,-34.545],[-58.5975,-34.5456],[-58.599,-34.5454],[-58.6001,-34.5451],[-58.6008,-34.5449]]]]}},{"type":"Feature","properties":{"fid":91,"renabap_id":103,"nombre_bar":"Plazoleta 9 de Julio","provincia":"Buenos Aires","departamen":"General San Martín","localidad":"Loma Hermosa","cantidad_f":121,"cantidad_v":110,"decada_de_":"Década 1990","anio_de_cr":null,"energia_el":"Conexión irregular a la red","efluentes_":"Desagüe sólo a pozo negro/ciego u hoyo","agua_corri":"Conexión irregular a la red de agua","cocina":"Gas en garrafa","calefaccio":"Energía eléctrica","situacion_":"Ninguna seguridad en la tenencia","clasificac":"Asentamiento","superficie":14367},"geometry":{"type":"MultiPolygon","coordinates":[[[[-58.5961,-34.5369],[-58.5936,-34.5389],[-58.5939,-34.5392],[-58.5965,-34.5372],[-58.5961,-34.5369]]]]}},{"type":"Feature","properties":{"fid":590,"renabap_id":630,"nombre_bar":"Eucaliptus","provincia":"Buenos Aires","departamen":"General San Martín","localidad":"José León Suárez","cantidad_f":880,"cantidad_v":800,"decada_de_":"Década 2000","anio_de_cr":null,"energia_el":"Conexión irregular a la red","efluentes_":"Desagüe sólo a pozo negro/ciego u hoyo","agua_corri":"Conexión irregular a la red de agua","cocina":"Gas en garrafa","calefaccio":"Energía eléctrica","situacion_":"Ninguna seguridad en la tenencia","clasificac":"Villa","superficie":159743},"geometry":{"type":"MultiPolygon","coordinates":[[[[-58.5902,-34.5361],[-58.591,-34.5355],[-58.5919,-34.5347],[-58.5928,-34.534],[-58.5929,-34.5339],[-58.5937,-34.5332],[-58.593,-34.5326],[-58.5939,-34.5319],[-58.5924,-34.5305],[-58.5917,-34.5311],[-58.5907,-34.532],[-58.5905,-34.532],[-58.5899,-34.5326],[-58.5892,-34.5332],[-58.5879,-34.5342],[-58.5891,-34.5353],[-58.5894,-34.5356],[-58.5896,-34.5355],[-58.5902,-34.5361]]]]}},{"type":"Feature","properties":{"fid":858,"renabap_id":945,"nombre_bar":"Nueve de Julio","provincia":"Buenos Aires","departamen":"General San Martín","localidad":"Loma Hermosa","cantidad_f":1210,"cantidad_v":1100,"decada_de_":"Década 1980","anio_de_cr":null,"energia_el":"Conexión irregular a la red","efluentes_":"Desagüe a cámara séptica y pozo ciego","agua_corri":"Conexión formal a la red de agua con factura","cocina":"Gas en garrafa","calefaccio":"Energía eléctrica","situacion_":"Ninguna seguridad en la tenencia","clasificac":"Asentamiento","superficie":83445},"geometry":{"type":"MultiPolygon","coordinates":[[[[-58.5991,-34.5396],[-58.5989,-34.5392],[-58.5988,-34.5391],[-58.5986,-34.5388],[-58.5984,-34.539],[-58.5983,-34.5389],[-58.5979,-34.5385],[-58.5978,-34.5385],[-58.5966,-34.5394],[-58.5971,-34.5398],[-58.5971,-34.54],[-58.5959,-34.5409],[-58.5956,-34.5409],[-58.5952,-34.5405],[-58.5951,-34.5405],[-58.594,-34.5414],[-58.5944,-34.5418],[-58.5944,-34.542],[-58.5932,-34.5429],[-58.5927,-34.5432],[-58.5932,-34.5437],[-58.5935,-34.5434],[-58.5936,-34.5434],[-58.5944,-34.5429],[-58.5945,-34.543],[-58.5953,-34.5425],[-58.5953,-34.5423],[-58.5964,-34.5415],[-58.5965,-34.5415],[-58.5965,-34.5414],[-58.5975,-34.5407],[-58.5975,-34.5407],[-58.5977,-34.5406],[-58.5978,-34.5405],[-58.5989,-34.5396],[-58.5991,-34.5396],[-58.5991,-34.5396]]]]}},{"type":"Feature","properties":{"fid":600,"renabap_id":644,"nombre_bar":"Trece de Julio","provincia":"Buenos Aires","departamen":"General San Martín","localidad":"José León Suárez","cantidad_f":222,"cantidad_v":202,"decada_de_":"Década 2000","anio_de_cr":null,"energia_el":"Conexión irregular a la red","efluentes_":"Red cloacal conectada a la red pluvial","agua_corri":"Conexión irregular a la red de agua","cocina":"Gas en garrafa","calefaccio":"Leña o carbón","situacion_":"Ninguna seguridad en la tenencia","clasificac":"Villa","superficie":53715},"geometry":{"type":"MultiPolygon","coordinates":[[[[-58.5789,-34.5325],[-58.5786,-34.5328],[-58.5782,-34.5332],[-58.5782,-34.5333],[-58.5787,-34.5329],[-58.5787,-34.5329],[-58.5789,-34.5327],[-58.579,-34.5328],[-58.5807,-34.5313],[-58.5827,-34.5297],[-58.5832,-34.5293],[-58.584,-34.5287],[-58.5844,-34.5283],[-58.5842,-34.5281],[-58.5842,-34.5281],[-58.5838,-34.528],[-58.5836,-34.5282],[-58.5837,-34.5282],[-58.5832,-34.5287],[-58.5831,-34.5286],[-58.5829,-34.5284],[-58.583,-34.5283],[-58.5829,-34.5282],[-58.5829,-34.5281],[-58.5824,-34.5278],[-58.5823,-34.528],[-58.5822,-34.5283],[-58.5819,-34.5287],[-58.5816,-34.5292],[-58.5814,-34.5295],[-58.5812,-34.5299],[-58.5808,-34.5303],[-58.5804,-34.5309],[-58.58,-34.5313],[-58.5796,-34.5318],[-58.5791,-34.5323],[-58.5789,-34.5325]]]]}},{"type":"Feature","properties":{"fid":782,"renabap_id":861,"nombre_bar":"Barrio Nuevo","provincia":"Buenos Aires","departamen":"General San Martín","localidad":"José León Suárez","cantidad_f":462,"cantidad_v":420,"decada_de_":"Década 2010","anio_de_cr":2012,"energia_el":"Conexión irregular a la red","efluentes_":"Desagüe a cámara séptica y pozo ciego","agua_corri":"Conexión irregular a la red de agua","cocina":"Gas en garrafa","calefaccio":"Otro / vacío","situacion_":"Ninguna seguridad en la tenencia","clasificac":"Asentamiento","superficie":189233},"geometry":{"type":"MultiPolygon","coordinates":[[[[-58.5845,-34.514],[-58.5779,-34.5192],[-58.5782,-34.5195],[-58.5821,-34.5185],[-58.5824,-34.5183],[-58.5833,-34.5188],[-58.5838,-34.5184],[-58.5838,-34.5183],[-58.5846,-34.5177],[-58.586,-34.5166],[-58.586,-34.5165],[-58.5868,-34.5159],[-58.5845,-34.514]]]]}},{"type":"Feature","properties":{"fid":1415,"renabap_id":1561,"nombre_bar":"La Carcova","provincia":"Buenos Aires","departamen":"General San Martín","localidad":"José León Suárez","cantidad_f":4400,"cantidad_v":4000,"decada_de_":"Década 1960","anio_de_cr":null,"energia_el":"Conexión irregular a la red","efluentes_":"Desagüe sólo a pozo negro/ciego u hoyo","agua_corri":"Conexión formal a la red de agua con factura","cocina":"Gas en garrafa","calefaccio":"Energía eléctrica","situacion_":"Ninguna seguridad en la tenencia","clasificac":"Villa","superficie":399956.99999999994},"geometry":{"type":"MultiPolygon","coordinates":[[[[-58.5865,-34.5201],[-58.5867,-34.5197],[-58.586,-34.5195],[-58.5867,-34.518],[-58.5864,-34.5179],[-58.5864,-34.518],[-58.5859,-34.5178],[-58.5861,-34.5175],[-58.5854,-34.5174],[-58.5853,-34.5176],[-58.5849,-34.5175],[-58.5833,-34.5188],[-58.5833,-34.519],[-58.5829,-34.5191],[-58.5821,-34.519],[-58.5814,-34.519],[-58.5814,-34.5192],[-58.5817,-34.5195],[-58.5813,-34.5198],[-58.5815,-34.52],[-58.5814,-34.5201],[-58.5815,-34.5202],[-58.5786,-34.5225],[-58.5778,-34.5219],[-58.5777,-34.522],[-58.5783,-34.5225],[-58.5768,-34.5236],[-58.5779,-34.5244],[-58.5783,-34.5241],[-58.5799,-34.5255],[-58.5803,-34.5252],[-58.581,-34.5258],[-58.5822,-34.5249],[-58.5823,-34.5249],[-58.5824,-34.5251],[-58.5822,-34.5253],[-58.5823,-34.5255],[-58.5827,-34.5256],[-58.5834,-34.5246],[-58.5838,-34.5238],[-58.584,-34.5233],[-58.5843,-34.5232],[-58.5844,-34.523],[-58.5851,-34.5215],[-58.5855,-34.5216],[-58.5859,-34.5206],[-58.5862,-34.5207],[-58.5864,-34.5204],[-58.5874,-34.5208],[-58.5881,-34.5216],[-58.5884,-34.5214],[-58.5879,-34.5208],[-58.5876,-34.5205],[-58.5865,-34.5201]]]]}},{"type":"Feature","properties":{"fid":2678,"renabap_id":2934,"nombre_bar":"Barrio Independencia","provincia":"Buenos Aires","departamen":"General San Martín","localidad":"José León Suárez","cantidad_f":3850,"cantidad_v":3500,"decada_de_":"Década 1940","anio_de_cr":null,"energia_el":"Conexión irregular a la red","efluentes_":"Desagüe a cámara séptica y pozo ciego","agua_corri":"Conexión formal a la red de agua con factura","cocina":"Gas en garrafa","calefaccio":"Gas en garrafa","situacion_":"Ninguna seguridad en la tenencia","clasificac":"Asentamiento","superficie":464160},"geometry":{"type":"MultiPolygon","coordinates":[[[[-58.5899,-34.5325],[-58.5905,-34.532],[-58.5853,-34.5276],[-58.5807,-34.5313],[-58.579,-34.5328],[-58.5805,-34.534],[-58.5826,-34.5323],[-58.584,-34.5346],[-58.5847,-34.5365],[-58.5855,-34.5361],[-58.5861,-34.5356],[-58.5879,-34.5342],[-58.5899,-34.5325]]]]}},{"type":"Feature","properties":{"fid":46,"renabap_id":52,"nombre_bar":"Dieciocho de julio","provincia":"Buenos Aires","departamen":"General San Martín","localidad":"Bíllinghurst","cantidad_f":198,"cantidad_v":180,"decada_de_":"Década 1970","anio_de_cr":null,"energia_el":"Conexión irregular a la red","efluentes_":"Desagüe sólo a pozo negro/ciego u hoyo","agua_corri":"Conexión irregular a la red de agua","cocina":"Gas en garrafa","calefaccio":"Energía eléctrica","situacion_":"Ninguna seguridad en la tenencia","clasificac":"Villa","superficie":15497},"geometry":{"type":"MultiPolygon","coordinates":[[[[-58.5767,-34.5646],[-58.5766,-34.5641],[-58.5761,-34.5643],[-58.576,-34.5638],[-58.5755,-34.5639],[-58.5756,-34.5644],[-58.5754,-34.5644],[-58.5754,-34.5645],[-58.5749,-34.565],[-58.575,-34.5651],[-58.5751,-34.5651],[-58.5754,-34.5649],[-58.5761,-34.5647],[-58.5762,-34.5648],[-58.5762,-34.5647],[-58.5763,-34.5647],[-58.5767,-34.5646],[-58.5767,-34.5646]]],[[[-58.5756,-34.5652],[-58.5757,-34.5653],[-58.576,-34.5655],[-58.5761,-34.5653],[-58.5764,-34.5651],[-58.5766,-34.5649],[-58.5767,-34.5648],[-58.5769,-34.5648],[-58.5768,-34.5646],[-58.5756,-34.5649],[-58.5754,-34.565],[-58.5756,-34.5652]]]]}},{"type":"Feature","properties":{"fid":359,"renabap_id":388,"nombre_bar":"La Rana","provincia":"Buenos Aires","departamen":"General San Martín","localidad":"San Andrés","cantidad_f":605,"cantidad_v":550,"decada_de_":"Década 1960","anio_de_cr":null,"energia_el":"Conexión irregular a la red","efluentes_":"Desagüe a cámara séptica y pozo ciego","agua_corri":"Conexión irregular a la red de agua","cocina":"Gas en garrafa","calefaccio":"Energía eléctrica","situacion_":"Ninguna seguridad en la tenencia","clasificac":"Villa","superficie":113818},"geometry":{"type":"MultiPolygon","coordinates":[[[[-58.5388,-34.5512],[-58.5391,-34.5514],[-58.5402,-34.5505],[-58.5413,-34.5496],[-58.5407,-34.5492],[-58.5418,-34.5484],[-58.5406,-34.5471],[-58.5375,-34.5497],[-58.5373,-34.5498],[-58.5366,-34.5493],[-58.5359,-34.5498],[-58.537,-34.5507],[-58.538,-34.5513],[-58.5385,-34.5515],[-58.5388,-34.5512]]]]}},{"type":"Feature","properties":{"fid":1100,"renabap_id":1213,"nombre_bar":"Martín Fierro","provincia":"Buenos Aires","departamen":"General San Martín","localidad":"Bíllinghurst","cantidad_f":352,"cantidad_v":320,"decada_de_":"Década 1970","anio_de_cr":null,"energia_el":"Conexión irregular a la red","efluentes_":"Desagüe sólo a pozo negro/ciego u hoyo","agua_corri":"Conexión irregular a la red de agua","cocina":"Gas en garrafa","calefaccio":"Energía eléctrica","situacion_":"Ninguna seguridad en la tenencia","clasificac":"Villa","superficie":31995},"geometry":{"type":"MultiPolygon","coordinates":[[[[-58.5794,-34.5648],[-58.5792,-34.5646],[-58.5789,-34.5644],[-58.5789,-34.5644],[-58.5786,-34.5641],[-58.5783,-34.5644],[-58.5782,-34.5643],[-58.5774,-34.565],[-58.5775,-34.5651],[-58.5765,-34.5659],[-58.5773,-34.5666],[-58.5781,-34.566],[-58.5791,-34.5651],[-58.5792,-34.5651],[-58.5794,-34.5648]]]]}},{"type":"Feature","properties":{"fid":1116,"renabap_id":1234,"nombre_bar":"Nueve de Julio","provincia":"Buenos Aires","departamen":"General San Martín","localidad":"Villa Ballester","cantidad_f":462,"cantidad_v":420,"decada_de_":"Década 1970","anio_de_cr":null,"energia_el":"Conexión irregular a la red","efluentes_":"Conexión formal a la red cloacal","agua_corri":"Conexión irregular a la red de agua","cocina":"Gas en garrafa","calefaccio":"Energía eléctrica","situacion_":"Ninguna seguridad en la tenencia","clasificac":"Villa","superficie":31322},"geometry":{"type":"MultiPolygon","coordinates":[[[[-58.5699,-34.5604],[-58.5686,-34.5593],[-58.5674,-34.5603],[-58.5686,-34.5614],[-58.5689,-34.5616],[-58.5699,-34.5609],[-58.5698,-34.5607],[-58.5697,-34.5606],[-58.5699,-34.5604]]]]}},{"type":"Feature","properties":{"fid":1118,"renabap_id":1236,"nombre_bar":"Arenera","provincia":"Buenos Aires","departamen":"General San Martín","localidad":"Villa Ballester","cantidad_f":440,"cantidad_v":400,"decada_de_":"Década 1980","anio_de_cr":null,"energia_el":"Conexión irregular a la red","efluentes_":"Desagüe sólo a pozo negro/ciego u hoyo","agua_corri":"Conexión irregular a la red de agua","cocina":"Gas en garrafa","calefaccio":"Energía eléctrica","situacion_":"Ninguna seguridad en la tenencia","clasificac":"Villa","superficie":22245},"geometry":{"type":"MultiPolygon","coordinates":[[[[-58.5852,-34.5578],[-58.586,-34.5576],[-58.5859,-34.5572],[-58.5855,-34.5559],[-58.5854,-34.5558],[-58.5849,-34.5562],[-58.5846,-34.5564],[-58.5849,-34.5567],[-58.5849,-34.5569],[-58.5842,-34.5574],[-58.5843,-34.5576],[-58.5841,-34.5578],[-58.5844,-34.5581],[-58.5852,-34.5578]]]]}},{"type":"Feature","properties":{"fid":2614,"renabap_id":2866,"nombre_bar":"Billinghurst II","provincia":"Buenos Aires","departamen":"General San Martín","localidad":"Bíllinghurst","cantidad_f":88,"cantidad_v":80,"decada_de_":"Década 1980","anio_de_cr":null,"energia_el":"Conexión irregular a la red","efluentes_":"Desagüe sólo a pozo negro/ciego u hoyo","agua_corri":"Conexión irregular a la red de agua","cocina":"Gas en garrafa","calefaccio":"Energía eléctrica","situacion_":"Ninguna seguridad en la tenencia","clasificac":"Villa","superficie":10629},"geometry":{"type":"MultiPolygon","coordinates":[[[[-58.5852,-34.5603],[-58.5844,-34.5596],[-58.5836,-34.5602],[-58.5844,-34.5609],[-58.5852,-34.5603]]]]}},{"type":"Feature","properties":{"fid":2615,"renabap_id":2867,"nombre_bar":"Sarmiento II","provincia":"Buenos Aires","departamen":"General San Martín","localidad":"Villa Ballester","cantidad_f":110,"cantidad_v":100,"decada_de_":"Década 2000","anio_de_cr":null,"energia_el":"Conexión irregular a la red","efluentes_":"Desagüe a cámara séptica y pozo ciego","agua_corri":"Conexión irregular a la red de agua","cocina":"Gas en garrafa","calefaccio":"Energía eléctrica","situacion_":"Ninguna seguridad en la tenencia","clasificac":"Villa","superficie":9422},"geometry":{"type":"MultiPolygon","coordinates":[[[[-58.5836,-34.5601],[-58.5843,-34.5596],[-58.5835,-34.5588],[-58.5828,-34.5594],[-58.5836,-34.5601]]]]}},{"type":"Feature","properties":{"fid":2616,"renabap_id":2868,"nombre_bar":"Barrio Sarmiento","provincia":"Buenos Aires","departamen":"General San Martín","localidad":"Villa Ballester","cantidad_f":110,"cantidad_v":100,"decada_de_":"Década 1980","anio_de_cr":null,"energia_el":"Conexión irregular a la red","efluentes_":"Conexión formal a la red cloacal","agua_corri":"Conexión formal a la red de agua con factura","cocina":"Gas en garrafa","calefaccio":"Energía eléctrica","situacion_":"Ninguna seguridad en la tenencia","clasificac":"Villa","superficie":8220},"geometry":{"type":"MultiPolygon","coordinates":[[[[-58.583,-34.5592],[-58.5835,-34.5588],[-58.5826,-34.558],[-58.5821,-34.5584],[-58.583,-34.5592]]]]}},{"type":"Feature","properties":{"fid":2617,"renabap_id":2869,"nombre_bar":"Unión Vecinal Nueva Vida Para Nuestros Hijos","provincia":"Buenos Aires","departamen":"General San Martín","localidad":"Villa Ballester","cantidad_f":55,"cantidad_v":50,"decada_de_":"Década 1990","anio_de_cr":null,"energia_el":"Conexión formal a la red con medidor domiciliario con factura","efluentes_":"Desagüe sólo a pozo negro/ciego u hoyo","agua_corri":"Conexión irregular a la red de agua","cocina":"Gas en garrafa","calefaccio":"Energía eléctrica","situacion_":"Ninguna seguridad en la tenencia","clasificac":"Asentamiento","superficie":8887},"geometry":{"type":"MultiPolygon","coordinates":[[[[-58.5826,-34.5595],[-58.5829,-34.5592],[-58.582,-34.5584],[-58.5814,-34.5589],[-58.5824,-34.5597],[-58.5826,-34.5596],[-58.5826,-34.5595]]]]}},{"type":"Feature","properties":{"fid":1130,"renabap_id":1249,"nombre_bar":"La Catanga","provincia":"Buenos Aires","departamen":"General San Martín","localidad":"Bíllinghurst","cantidad_f":198,"cantidad_v":180,"decada_de_":"Década 1960","anio_de_cr":null,"energia_el":"Conexión irregular a la red","efluentes_":"Desagüe a cámara séptica y pozo ciego","agua_corri":"Conexión irregular a la red de agua","cocina":"Gas en garrafa","calefaccio":"Energía eléctrica","situacion_":"Ninguna seguridad en la tenencia","clasificac":"Villa","superficie":9600},"geometry":{"type":"MultiPolygon","coordinates":[[[[-58.556,-34.5798],[-58.556,-34.5798],[-58.5557,-34.5796],[-58.5557,-34.5796],[-58.5556,-34.5794],[-58.5552,-34.5792],[-58.555,-34.5794],[-58.5545,-34.5797],[-58.5548,-34.58],[-58.555,-34.5802],[-58.5553,-34.5804],[-58.5557,-34.5801],[-58.556,-34.5798]]]]}},{"type":"Feature","properties":{"fid":1137,"renabap_id":1256,"nombre_bar":"La Tranquila","provincia":"Buenos Aires","departamen":"General San Martín","localidad":"Villa Libertad","cantidad_f":220,"cantidad_v":200,"decada_de_":"Década 1960","anio_de_cr":null,"energia_el":"Conexión irregular a la red","efluentes_":"Desagüe a cámara séptica y pozo ciego","agua_corri":"Conexión irregular a la red de agua","cocina":"Gas en garrafa","calefaccio":"Energía eléctrica","situacion_":"Ninguna seguridad en la tenencia","clasificac":"Villa","superficie":12349},"geometry":{"type":"MultiPolygon","coordinates":[[[[-58.5547,-34.5834],[-58.5556,-34.5827],[-58.5549,-34.582],[-58.5539,-34.5828],[-58.5547,-34.5834]]]]}},{"type":"Feature","properties":{"fid":1379,"renabap_id":1516,"nombre_bar":"Altafini","provincia":"Buenos Aires","departamen":"General San Martín","localidad":"Bíllinghurst","cantidad_f":121,"cantidad_v":110,"decada_de_":"Década 1990","anio_de_cr":null,"energia_el":"Conexión irregular a la red","efluentes_":"Desagüe sólo a pozo negro/ciego u hoyo","agua_corri":"Conexión irregular a la red de agua","cocina":"Gas en garrafa","calefaccio":"Otro / vacío","situacion_":"Ninguna seguridad en la tenencia","clasificac":"Asentamiento","superficie":12617},"geometry":{"type":"MultiPolygon","coordinates":[[[[-58.571,-34.5747],[-58.5713,-34.5744],[-58.5711,-34.5742],[-58.5707,-34.5745],[-58.5706,-34.5744],[-58.5706,-34.5744],[-58.5703,-34.5742],[-58.5702,-34.574],[-58.5702,-34.574],[-58.5702,-34.574],[-58.5699,-34.5737],[-58.5695,-34.574],[-58.5701,-34.5744],[-58.5708,-34.5751],[-58.5709,-34.575],[-58.5709,-34.5749],[-58.5711,-34.5751],[-58.5713,-34.575],[-58.571,-34.5747]]],[[[-58.5703,-34.5735],[-58.5701,-34.5736],[-58.5704,-34.5739],[-58.5712,-34.5733],[-58.5708,-34.573],[-58.5703,-34.5735]]]]}},{"type":"Feature","properties":{"fid":2630,"renabap_id":2882,"nombre_bar":"Villa Sarmiento","provincia":"Buenos Aires","departamen":"General San Martín","localidad":"Villa Libertad","cantidad_f":209,"cantidad_v":190,"decada_de_":"Década 1940","anio_de_cr":null,"energia_el":"Conexión a la red con medidor compartido","efluentes_":"Desagüe a cámara séptica y pozo ciego","agua_corri":"Conexión irregular a la red de agua","cocina":"Gas en garrafa","calefaccio":"Energía eléctrica","situacion_":"Ninguna seguridad en la tenencia","clasificac":"Villa","superficie":20128},"geometry":{"type":"MultiPolygon","coordinates":[[[[-58.5713,-34.5825],[-58.5721,-34.5818],[-58.5711,-34.5809],[-58.571,-34.5809],[-58.5705,-34.5813],[-58.5703,-34.5812],[-58.5703,-34.5812],[-58.5704,-34.5813],[-58.5702,-34.5815],[-58.5691,-34.5805],[-58.5696,-34.5802],[-58.5691,-34.5796],[-58.5688,-34.5798],[-58.5686,-34.58],[-58.5691,-34.5805],[-58.5713,-34.5825]]]]}},{"type":"Feature","properties":{"fid":2631,"renabap_id":2884,"nombre_bar":"Villa Palmera","provincia":"Buenos Aires","departamen":"General San Martín","localidad":"Villa Libertad","cantidad_f":110,"cantidad_v":100,"decada_de_":"Década 2000","anio_de_cr":null,"energia_el":"Conexión a la red con medidor comunitario","efluentes_":"Conexión formal a la red cloacal","agua_corri":"Conexión irregular a la red de agua","cocina":"Gas en garrafa","calefaccio":"Gas en garrafa","situacion_":"Ninguna seguridad en la tenencia","clasificac":"Villa","superficie":7332},"geometry":{"type":"MultiPolygon","coordinates":[[[[-58.5567,-34.5884],[-58.5567,-34.5884],[-58.557,-34.588],[-58.5573,-34.5878],[-58.5568,-34.5874],[-58.556,-34.5882],[-58.5566,-34.5886],[-58.5567,-34.5884]]]]}},{"type":"Feature","properties":{"fid":2696,"renabap_id":2952,"nombre_bar":"Villa Tropezón","provincia":"Buenos Aires","departamen":"General San Martín","localidad":"Villa Ayacucho","cantidad_f":352,"cantidad_v":320,"decada_de_":"Década 1950","anio_de_cr":null,"energia_el":"Conexión irregular a la red","efluentes_":"Desagüe sólo a pozo negro/ciego u hoyo","agua_corri":"Conexión irregular a la red de agua","cocina":"Gas en garrafa","calefaccio":"Energía eléctrica","situacion_":"Ninguna seguridad en la tenencia","clasificac":"Villa","superficie":14663},"geometry":{"type":"MultiPolygon","coordinates":[[[[-58.5542,-34.5925],[-58.5556,-34.5923],[-58.5554,-34.5914],[-58.5549,-34.5915],[-58.5548,-34.5909],[-58.5544,-34.591],[-58.5545,-34.5915],[-58.554,-34.5916],[-58.5542,-34.5925]]]]}},{"type":"Feature","properties":{"fid":3933,"renabap_id":4281,"nombre_bar":"Sin Nombre","provincia":"Buenos Aires","departamen":"General San Martín","localidad":"Bíllinghurst","cantidad_f":66,"cantidad_v":60,"decada_de_":"Década 1960","anio_de_cr":null,"energia_el":"Conexión formal a la red con medidor domiciliario con factura","efluentes_":"Desagüe sólo a pozo negro/ciego u hoyo","agua_corri":"Conexión formal a la red de agua con factura","cocina":"Gas en garrafa","calefaccio":"Energía eléctrica","situacion_":"Ninguna seguridad en la tenencia","clasificac":"Villa","superficie":6029},"geometry":{"type":"MultiPolygon","coordinates":[[[[-58.5755,-34.5711],[-58.5747,-34.5717],[-58.5751,-34.5721],[-58.5753,-34.5719],[-58.5755,-34.5721],[-58.5757,-34.5719],[-58.5758,-34.5718],[-58.5756,-34.5717],[-58.5759,-34.5715],[-58.5755,-34.5711]]]]}},{"type":"Feature","properties":{"fid":88,"renabap_id":100,"nombre_bar":"La Segunda","provincia":"Buenos Aires","departamen":"General San Martín","localidad":"Villa Maipú","cantidad_f":103,"cantidad_v":94,"decada_de_":"Década 1960","anio_de_cr":null,"energia_el":"Conexión irregular a la red","efluentes_":"Conexión irregular a la red cloacal","agua_corri":"Conexión irregular a la red de agua","cocina":"Gas en garrafa","calefaccio":"Energía eléctrica","situacion_":"Ninguna seguridad en la tenencia","clasificac":"Villa","superficie":6740},"geometry":{"type":"MultiPolygon","coordinates":[[[[-58.5188,-34.5606],[-58.5192,-34.5601],[-58.519,-34.5599],[-58.5189,-34.56],[-58.5184,-34.5598],[-58.5185,-34.5597],[-58.5183,-34.5596],[-58.5181,-34.5595],[-58.518,-34.5596],[-58.5184,-34.5599],[-58.5182,-34.5601],[-58.5178,-34.5599],[-58.5177,-34.56],[-58.5181,-34.5601],[-58.518,-34.5602],[-58.518,-34.5603],[-58.5179,-34.5604],[-58.518,-34.5605],[-58.5183,-34.5602],[-58.5183,-34.5602],[-58.5184,-34.5601],[-58.5186,-34.5599],[-58.5186,-34.5599],[-58.5184,-34.5602],[-58.5185,-34.5602],[-58.5183,-34.5604],[-58.5186,-34.5606],[-58.5187,-34.5605],[-58.5188,-34.5606]]]]}},{"type":"Feature","properties":{"fid":204,"renabap_id":223,"nombre_bar":"Sin Nombre","provincia":"Buenos Aires","departamen":"General San Martín","localidad":"Villa Maipú","cantidad_f":187,"cantidad_v":170,"decada_de_":"Década 1970","anio_de_cr":null,"energia_el":"Conexión irregular a la red","efluentes_":"Conexión irregular a la red cloacal","agua_corri":"Conexión irregular a la red de agua","cocina":"Gas en garrafa","calefaccio":"Energía eléctrica","situacion_":"Ninguna seguridad en la tenencia","clasificac":"Villa","superficie":10404},"geometry":{"type":"MultiPolygon","coordinates":[[[[-58.5202,-34.5589],[-58.5191,-34.5582],[-58.519,-34.5582],[-58.5185,-34.5589],[-58.519,-34.5592],[-58.5192,-34.559],[-58.5198,-34.5594],[-58.5202,-34.5589],[-58.5202,-34.5589]]]]}},{"type":"Feature","properties":{"fid":333,"renabap_id":359,"nombre_bar":"La California","provincia":"Buenos Aires","departamen":"General San Martín","localidad":"Villa Granaderos De San Martín","cantidad_f":100,"cantidad_v":91,"decada_de_":"Década 1990","anio_de_cr":null,"energia_el":"Conexión irregular a la red","efluentes_":"Conexión irregular a la red cloacal","agua_corri":"Conexión irregular a la red de agua","cocina":"Gas en garrafa","calefaccio":"Energía eléctrica","situacion_":"Ninguna seguridad en la tenencia","clasificac":"Villa","superficie":3414},"geometry":{"type":"MultiPolygon","coordinates":[[[[-58.5236,-34.5566],[-58.5231,-34.5563],[-58.5228,-34.5567],[-58.5228,-34.5568],[-58.5231,-34.5571],[-58.5235,-34.5568],[-58.5234,-34.5568],[-58.5236,-34.5566]]]]}},{"type":"Feature","properties":{"fid":439,"renabap_id":473,"nombre_bar":"Martínez","provincia":"Buenos Aires","departamen":"General San Martín","localidad":"Villa Maipú","cantidad_f":20,"cantidad_v":18,"decada_de_":"Década 1990","anio_de_cr":null,"energia_el":"Conexión irregular a la red","efluentes_":"Red cloacal conectada a la red pluvial","agua_corri":"Conexión irregular a la red de agua","cocina":"Gas en garrafa","calefaccio":"Otro / vacío","situacion_":"Ninguna seguridad en la tenencia","clasificac":"Villa","superficie":1421},"geometry":{"type":"MultiPolygon","coordinates":[[[[-58.525,-34.5619],[-58.525,-34.5619],[-58.5246,-34.5618],[-58.5244,-34.562],[-58.5246,-34.5621],[-58.5246,-34.5621],[-58.5246,-34.5622],[-58.5247,-34.5622],[-58.5247,-34.5622],[-58.525,-34.5619]]]]}},{"type":"Feature","properties":{"fid":543,"renabap_id":580,"nombre_bar":"California","provincia":"Buenos Aires","departamen":"General San Martín","localidad":"San Andrés","cantidad_f":220,"cantidad_v":200,"decada_de_":"Década 1990","anio_de_cr":null,"energia_el":"Conexión irregular a la red","efluentes_":"Desagüe a cámara séptica y pozo ciego","agua_corri":"Conexión irregular a la red de agua","cocina":"Gas en garrafa","calefaccio":"Energía eléctrica","situacion_":"Ninguna seguridad en la tenencia","clasificac":"Villa","superficie":3491},"geometry":{"type":"MultiPolygon","coordinates":[[[[-58.5255,-34.5535],[-58.5261,-34.5538],[-58.5264,-34.5534],[-58.5258,-34.5531],[-58.5255,-34.5535]]]]}},{"type":"Feature","properties":{"fid":545,"renabap_id":582,"nombre_bar":"Barrio Morris","provincia":"Buenos Aires","departamen":"General San Martín","localidad":"San Andrés","cantidad_f":44,"cantidad_v":40,"decada_de_":"Década 1960","anio_de_cr":null,"energia_el":"Conexión irregular a la red","efluentes_":"Desagüe sólo a pozo negro/ciego u hoyo","agua_corri":"Conexión irregular a la red de agua","cocina":"Gas en garrafa","calefaccio":"Energía eléctrica","situacion_":"Ninguna seguridad en la tenencia","clasificac":"Villa","superficie":1321},"geometry":{"type":"MultiPolygon","coordinates":[[[[-58.5308,-34.5539],[-58.5308,-34.5538],[-58.5307,-34.5538],[-58.5301,-34.5545],[-58.5302,-34.5546],[-58.5308,-34.5539]]]]}},{"type":"Feature","properties":{"fid":550,"renabap_id":587,"nombre_bar":"California","provincia":"Buenos Aires","departamen":"General San Martín","localidad":"San Andrés","cantidad_f":66,"cantidad_v":60,"decada_de_":"Década 1990","anio_de_cr":null,"energia_el":"Conexión irregular a la red","efluentes_":"Desagüe a cámara séptica y pozo ciego","agua_corri":"Conexión irregular a la red de agua","cocina":"Gas en garrafa","calefaccio":"Energía eléctrica","situacion_":"Ninguna seguridad en la tenencia","clasificac":"Villa","superficie":1500},"geometry":{"type":"MultiPolygon","coordinates":[[[[-58.5245,-34.5554],[-58.5241,-34.5552],[-58.5239,-34.5554],[-58.5243,-34.5557],[-58.5245,-34.5554]]]]}},{"type":"Feature","properties":{"fid":579,"renabap_id":618,"nombre_bar":"Sin Nombre","provincia":"Buenos Aires","departamen":"General San Martín","localidad":"San Andrés","cantidad_f":13,"cantidad_v":12,"decada_de_":"Década 1960","anio_de_cr":null,"energia_el":"Conexión irregular a la red","efluentes_":"Conexión irregular a la red cloacal","agua_corri":"Conexión irregular a la red de agua","cocina":"Gas en garrafa","calefaccio":"Energía eléctrica","situacion_":"Ninguna seguridad en la tenencia","clasificac":"Villa","superficie":604},"geometry":{"type":"MultiPolygon","coordinates":[[[[-58.5267,-34.5561],[-58.5264,-34.5558],[-58.5263,-34.5559],[-58.5266,-34.5562],[-58.5267,-34.5561]]]]}},{"type":"Feature","properties":{"fid":1120,"renabap_id":1238,"nombre_bar":"Mitre y Boulogne Sur Mer","provincia":"Buenos Aires","departamen":"General San Martín","localidad":"Villa Maipú","cantidad_f":108,"cantidad_v":98,"decada_de_":"Década 1940","anio_de_cr":null,"energia_el":"Conexión irregular a la red","efluentes_":"Red cloacal conectada a la red pluvial","agua_corri":"Conexión irregular a la red de agua","cocina":"Gas en garrafa","calefaccio":"Energía eléctrica","situacion_":"Boleto de compra-venta","clasificac":"Villa","superficie":4601},"geometry":{"type":"MultiPolygon","coordinates":[[[[-58.5188,-34.5618],[-58.5182,-34.5614],[-58.5178,-34.5618],[-58.5178,-34.5619],[-58.5184,-34.5622],[-58.5184,-34.5622],[-58.5185,-34.5621],[-58.5185,-34.5621],[-58.5188,-34.5618]]]]}},{"type":"Feature","properties":{"fid":1123,"renabap_id":1241,"nombre_bar":"De Los Constituyentes y Mitre","provincia":"Buenos Aires","departamen":"General San Martín","localidad":"Villa Maipú","cantidad_f":35,"cantidad_v":32,"decada_de_":"Década 1950","anio_de_cr":null,"energia_el":"Conexión irregular a la red","efluentes_":"Desagüe sólo a pozo negro/ciego u hoyo","agua_corri":"Conexión regular a la red de agua pero sin factura","cocina":"Gas en garrafa","calefaccio":"Energía eléctrica","situacion_":"Ninguna seguridad en la tenencia","clasificac":"Villa","superficie":1085},"geometry":{"type":"MultiPolygon","coordinates":[[[[-58.517,-34.5615],[-58.5169,-34.5615],[-58.5169,-34.5614],[-58.5167,-34.5613],[-58.5167,-34.5613],[-58.5167,-34.5614],[-58.5165,-34.5616],[-58.5167,-34.5618],[-58.517,-34.5615]]]]}},{"type":"Feature","properties":{"fid":1412,"renabap_id":1558,"nombre_bar":"San José","provincia":"Buenos Aires","departamen":"General San Martín","localidad":"San Andrés","cantidad_f":218,"cantidad_v":198,"decada_de_":"Década 1990","anio_de_cr":null,"energia_el":"Conexión irregular a la red","efluentes_":"Conexión formal a la red cloacal","agua_corri":"Conexión formal a la red de agua con factura","cocina":"Gas en garrafa","calefaccio":"Otro / vacío","situacion_":"Ninguna seguridad en la tenencia","clasificac":"Villa","superficie":5765},"geometry":{"type":"MultiPolygon","coordinates":[[[[-58.5279,-34.5542],[-58.5283,-34.554],[-58.5281,-34.5538],[-58.5284,-34.5535],[-58.528,-34.5533],[-58.5277,-34.5536],[-58.528,-34.5537],[-58.5277,-34.5541],[-58.5276,-34.5542],[-58.5275,-34.5541],[-58.5274,-34.5541],[-58.5273,-34.5542],[-58.5275,-34.5544],[-58.5277,-34.5543],[-58.5277,-34.5542],[-58.5277,-34.5541],[-58.5279,-34.5542]]],[[[-58.5263,-34.5535],[-58.5261,-34.5538],[-58.5264,-34.554],[-58.5266,-34.5536],[-58.5263,-34.5535]]],[[[-58.5263,-34.5542],[-58.5262,-34.5543],[-58.5265,-34.5545],[-58.5266,-34.5543],[-58.5263,-34.5542]]]]}},{"type":"Feature","properties":{"fid":2618,"renabap_id":2870,"nombre_bar":"El Ombú","provincia":"Buenos Aires","departamen":"General San Martín","localidad":"San Andrés","cantidad_f":55,"cantidad_v":50,"decada_de_":"Década 1960","anio_de_cr":null,"energia_el":"Conexión formal a la red con medidor domiciliario con factura","efluentes_":"Conexión formal a la red cloacal","agua_corri":"Conexión formal a la red de agua con factura","cocina":"Gas en garrafa","calefaccio":"Energía eléctrica","situacion_":"Otro tipo de seguridad en la tenencia","clasificac":"Villa","superficie":2431},"geometry":{"type":"MultiPolygon","coordinates":[[[[-58.5273,-34.5567],[-58.5278,-34.5564],[-58.5274,-34.5561],[-58.527,-34.5564],[-58.5273,-34.5567]]]]}},{"type":"Feature","properties":{"fid":2679,"renabap_id":2935,"nombre_bar":"Loyola","provincia":"Buenos Aires","departamen":"General San Martín","localidad":"San Andrés","cantidad_f":1210,"cantidad_v":1100,"decada_de_":"Década 1970","anio_de_cr":null,"energia_el":"Conexión irregular a la red","efluentes_":"Conexión formal a la red cloacal","agua_corri":"Conexión irregular a la red de agua","cocina":"Gas en garrafa","calefaccio":"Energía eléctrica","situacion_":"Otro tipo de seguridad en la tenencia","clasificac":"Villa","superficie":37108},"geometry":{"type":"MultiPolygon","coordinates":[[[[-58.5226,-34.5536],[-58.5241,-34.5544],[-58.525,-34.5532],[-58.5251,-34.5533],[-58.5254,-34.5528],[-58.5237,-34.552],[-58.5226,-34.5536]]]]}},{"type":"Feature","properties":{"fid":3910,"renabap_id":4254,"nombre_bar":"Villa Hidalgo","provincia":"Buenos Aires","departamen":"General San Martín","localidad":"José León Suárez","cantidad_f":2750,"cantidad_v":2500,"decada_de_":"Década 1950","anio_de_cr":null,"energia_el":"Conexión irregular a la red","efluentes_":"Desagüe sólo a pozo negro/ciego u hoyo","agua_corri":"Conexión irregular a la red de agua","cocina":"Gas en garrafa","calefaccio":"Energía eléctrica","situacion_":"Ninguna seguridad en la tenencia","clasificac":"Villa","superficie":282543},"geometry":{"type":"MultiPolygon","coordinates":[[[[-58.5869,-34.5067],[-58.5849,-34.5084],[-58.5842,-34.5078],[-58.5827,-34.5089],[-58.5857,-34.5113],[-58.5822,-34.5141],[-58.5833,-34.515],[-58.5845,-34.514],[-58.5894,-34.5102],[-58.5883,-34.5093],[-58.5882,-34.5091],[-58.5891,-34.5081],[-58.5894,-34.5079],[-58.5893,-34.5064],[-58.589,-34.5064],[-58.5874,-34.5064],[-58.5869,-34.5065],[-58.5869,-34.5066],[-58.5869,-34.5067]]]]}},{"type":"Feature","properties":{"fid":3931,"renabap_id":4279,"nombre_bar":"Pilar","provincia":"Buenos Aires","departamen":"General San Martín","localidad":"Villa Lynch","cantidad_f":88,"cantidad_v":80,"decada_de_":"Década 1950","anio_de_cr":null,"energia_el":"Conexión regular a la red con medidor prepago","efluentes_":"Conexión formal a la red cloacal","agua_corri":"Canilla comunitaria dentro del barrio","cocina":"Gas en garrafa","calefaccio":"Energía eléctrica","situacion_":"Ninguna seguridad en la tenencia","clasificac":"Villa","superficie":3902},"geometry":{"type":"MultiPolygon","coordinates":[[[[-58.5286,-34.5793],[-58.5281,-34.5798],[-58.5285,-34.5801],[-58.5291,-34.5797],[-58.5286,-34.5793]]]]}},{"type":"Feature","properties":{"fid":3932,"renabap_id":4280,"nombre_bar":"Villa Progreso","provincia":"Buenos Aires","departamen":"General San Martín","localidad":"Villa Lynch","cantidad_f":110,"cantidad_v":100,"decada_de_":"Década 1960","anio_de_cr":null,"energia_el":"Conexión formal a la red con medidor domiciliario con factura","efluentes_":"Desagüe a cámara séptica y pozo ciego","agua_corri":"Conexión irregular a la red de agua","cocina":"Gas en garrafa","calefaccio":"Energía eléctrica","situacion_":"Ninguna seguridad en la tenencia","clasificac":"Villa","superficie":3078},"geometry":{"type":"MultiPolygon","coordinates":[[[[-58.5296,-34.5888],[-58.5292,-34.5891],[-58.5292,-34.5891],[-58.5292,-34.5892],[-58.5296,-34.5895],[-58.53,-34.5892],[-58.5299,-34.5891],[-58.5296,-34.5888]]]]}},{"type":"Feature","properties":{"fid":4939,"renabap_id":5305,"nombre_bar":"El Corralito","provincia":"Buenos Aires","departamen":"General San Martín","localidad":"San Andrés","cantidad_f":11,"cantidad_v":10,"decada_de_":"Década 1980","anio_de_cr":null,"energia_el":"Conexión irregular a la red","efluentes_":"Desagüe sólo a pozo negro/ciego u hoyo","agua_corri":"Conexión irregular a la red de agua","cocina":"Gas en garrafa","calefaccio":"Energía eléctrica","situacion_":"Ninguna seguridad en la tenencia","clasificac":"Villa","superficie":1127},"geometry":{"type":"MultiPolygon","coordinates":[[[[-58.5284,-34.5564],[-58.5286,-34.5562],[-58.5283,-34.556],[-58.5281,-34.5562],[-58.5283,-34.5564],[-58.5284,-34.5564],[-58.5284,-34.5564]]]]}}]}