{"type":"FeatureCollection","metadata":{"generated":"2026-05-08T03:24:06.630Z","sample_size":126,"max_per_school":42,"max_direct_distance_m":2400,"source":"OSRM public foot profile, precomputed for local viewer","fallback_count":0},"features":[{"type":"Feature","geometry":{"coordinates":[[-58.576277,-34.575863],[-58.57679,-34.576307],[-58.577597,-34.575659],[-58.576508,-34.574686],[-58.575893,-34.575188],[-58.575686,-34.575353],[-58.576264,-34.575852]],"type":"LineString"},"properties":{"route_id":"walk_1","school_id":"walsh","school_name":"Escuela Walsh","color":"#475569","distance_m":501,"duration_s":65,"source":"OSRM foot; muestra de movilidad peatonal hacia escuela"}},{"type":"Feature","geometry":{"coordinates":[[-58.575154,-34.575769],[-58.574865,-34.575995],[-58.573897,-34.575147],[-58.573856,-34.575111],[-58.57376,-34.575027],[-58.574407,-34.574501],[-58.574564,-34.57437],[-58.574801,-34.574563],[-58.575686,-34.575353],[-58.576264,-34.575852]],"type":"LineString"},"properties":{"route_id":"walk_2","school_id":"walsh","school_name":"Escuela Walsh","color":"#475569","distance_m":515,"duration_s":74,"source":"OSRM foot; muestra de movilidad peatonal hacia escuela"}},{"type":"Feature","geometry":{"coordinates":[[-58.575566,-34.577265],[-58.575967,-34.576951],[-58.57679,-34.576307],[-58.577597,-34.575659],[-58.576508,-34.574686],[-58.575893,-34.575188],[-58.575686,-34.575353],[-58.576264,-34.575852]],"type":"LineString"},"properties":{"route_id":"walk_3","school_id":"walsh","school_name":"Escuela Walsh","color":"#475569","distance_m":587,"duration_s":72,"source":"OSRM foot; muestra de movilidad peatonal hacia escuela"}},{"type":"Feature","geometry":{"coordinates":[[-58.577722,-34.574393],[-58.577311,-34.574033],[-58.576508,-34.574686],[-58.575893,-34.575188],[-58.575686,-34.575353],[-58.576264,-34.575852]],"type":"LineString"},"properties":{"route_id":"walk_4","school_id":"walsh","school_name":"Escuela Walsh","color":"#475569","distance_m":341,"duration_s":43,"source":"OSRM foot; muestra de movilidad peatonal hacia escuela"}},{"type":"Feature","geometry":{"coordinates":[[-58.577522,-34.574218],[-58.577311,-34.574033],[-58.576508,-34.574686],[-58.575893,-34.575188],[-58.575686,-34.575353],[-58.576264,-34.575852]],"type":"LineString"},"properties":{"route_id":"walk_5","school_id":"walsh","school_name":"Escuela Walsh","color":"#475569","distance_m":314,"duration_s":40,"source":"OSRM foot; muestra de movilidad peatonal hacia escuela"}},{"type":"Feature","geometry":{"coordinates":[[-58.579092,-34.576305],[-58.578699,-34.576618],[-58.577597,-34.575659],[-58.576508,-34.574686],[-58.575893,-34.575188],[-58.575686,-34.575353],[-58.576264,-34.575852]],"type":"LineString"},"properties":{"route_id":"walk_6","school_id":"walsh","school_name":"Escuela Walsh","color":"#475569","distance_m":526,"duration_s":69,"source":"OSRM foot; muestra de movilidad peatonal hacia escuela"}},{"type":"Feature","geometry":{"coordinates":[[-58.574835,-34.577837],[-58.575146,-34.577594],[-58.575967,-34.576951],[-58.57679,-34.576307],[-58.577597,-34.575659],[-58.576508,-34.574686],[-58.575893,-34.575188],[-58.575686,-34.575353],[-58.576264,-34.575852]],"type":"LineString"},"properties":{"route_id":"walk_7","school_id":"walsh","school_name":"Escuela Walsh","color":"#475569","distance_m":680,"duration_s":83,"source":"OSRM foot; muestra de movilidad peatonal hacia escuela"}},{"type":"Feature","geometry":{"coordinates":[[-58.573788,-34.577777],[-58.573225,-34.577291],[-58.572128,-34.576328],[-58.572833,-34.575756],[-58.572937,-34.575678],[-58.57376,-34.575027],[-58.574407,-34.574501],[-58.574564,-34.57437],[-58.574801,-34.574563],[-58.575686,-34.575353],[-58.576264,-34.575852]],"type":"LineString"},"properties":{"route_id":"walk_8","school_id":"walsh","school_name":"Escuela Walsh","color":"#475569","distance_m":760,"duration_s":96,"source":"OSRM foot; muestra de movilidad peatonal hacia escuela"}},{"type":"Feature","geometry":{"coordinates":[[-58.573716,-34.577715],[-58.573225,-34.577291],[-58.572128,-34.576328],[-58.572833,-34.575756],[-58.572937,-34.575678],[-58.57376,-34.575027],[-58.574407,-34.574501],[-58.574564,-34.57437],[-58.574801,-34.574563],[-58.575686,-34.575353],[-58.576264,-34.575852]],"type":"LineString"},"properties":{"route_id":"walk_9","school_id":"walsh","school_name":"Escuela Walsh","color":"#475569","distance_m":750,"duration_s":95,"source":"OSRM foot; muestra de movilidad peatonal hacia escuela"}},{"type":"Feature","geometry":{"coordinates":[[-58.574612,-34.573066],[-58.575373,-34.573713],[-58.576508,-34.574686],[-58.575893,-34.575188],[-58.575686,-34.575353],[-58.576264,-34.575852]],"type":"LineString"},"properties":{"route_id":"walk_10","school_id":"walsh","school_name":"Escuela Walsh","color":"#475569","distance_m":432,"duration_s":56,"source":"OSRM foot; muestra de movilidad peatonal hacia escuela"}},{"type":"Feature","geometry":{"coordinates":[[-58.575391,-34.572373],[-58.576193,-34.573061],[-58.577311,-34.574033],[-58.576508,-34.574686],[-58.575893,-34.575188],[-58.575686,-34.575353],[-58.576264,-34.575852]],"type":"LineString"},"properties":{"route_id":"walk_11","school_id":"walsh","school_name":"Escuela Walsh","color":"#475569","distance_m":541,"duration_s":68,"source":"OSRM foot; muestra de movilidad peatonal hacia escuela"}},{"type":"Feature","geometry":{"coordinates":[[-58.580802,-34.57654],[-58.580486,-34.576793],[-58.580093,-34.577101],[-58.579652,-34.577439],[-58.578699,-34.576618],[-58.577597,-34.575659],[-58.576508,-34.574686],[-58.575893,-34.575188],[-58.575686,-34.575353],[-58.576264,-34.575852]],"type":"LineString"},"properties":{"route_id":"walk_12","school_id":"walsh","school_name":"Escuela Walsh","color":"#475569","distance_m":748,"duration_s":87,"source":"OSRM foot; muestra de movilidad peatonal hacia escuela"}},{"type":"Feature","geometry":{"coordinates":[[-58.573594,-34.578824],[-58.574322,-34.578237],[-58.575146,-34.577594],[-58.575967,-34.576951],[-58.57679,-34.576307],[-58.577597,-34.575659],[-58.576508,-34.574686],[-58.575893,-34.575188],[-58.575686,-34.575353],[-58.576264,-34.575852]],"type":"LineString"},"properties":{"route_id":"walk_13","school_id":"walsh","school_name":"Escuela Walsh","color":"#475569","distance_m":838,"duration_s":100,"source":"OSRM foot; muestra de movilidad peatonal hacia escuela"}},{"type":"Feature","geometry":{"coordinates":[[-58.576498,-34.571975],[-58.575896,-34.571456],[-58.575085,-34.57211],[-58.574263,-34.572769],[-58.57346,-34.573409],[-58.574501,-34.574313],[-58.574564,-34.57437],[-58.574801,-34.574563],[-58.575686,-34.575353],[-58.576264,-34.575852]],"type":"LineString"},"properties":{"route_id":"walk_14","school_id":"walsh","school_name":"Escuela Walsh","color":"#475569","distance_m":765,"duration_s":90,"source":"OSRM foot; muestra de movilidad peatonal hacia escuela"}},{"type":"Feature","geometry":{"coordinates":[[-58.576421,-34.571908],[-58.575896,-34.571456],[-58.575085,-34.57211],[-58.574263,-34.572769],[-58.57346,-34.573409],[-58.574501,-34.574313],[-58.574564,-34.57437],[-58.574801,-34.574563],[-58.575686,-34.575353],[-58.576264,-34.575852]],"type":"LineString"},"properties":{"route_id":"walk_15","school_id":"walsh","school_name":"Escuela Walsh","color":"#475569","distance_m":755,"duration_s":89,"source":"OSRM foot; muestra de movilidad peatonal hacia escuela"}},{"type":"Feature","geometry":{"coordinates":[[-58.576274,-34.571781],[-58.575896,-34.571456],[-58.575085,-34.57211],[-58.574263,-34.572769],[-58.57346,-34.573409],[-58.574501,-34.574313],[-58.574564,-34.57437],[-58.574801,-34.574563],[-58.575686,-34.575353],[-58.576264,-34.575852]],"type":"LineString"},"properties":{"route_id":"walk_16","school_id":"walsh","school_name":"Escuela Walsh","color":"#475569","distance_m":735,"duration_s":87,"source":"OSRM foot; muestra de movilidad peatonal hacia escuela"}},{"type":"Feature","geometry":{"coordinates":[[-58.571392,-34.575045],[-58.571816,-34.574714],[-58.572655,-34.574068],[-58.57346,-34.573409],[-58.574501,-34.574313],[-58.574564,-34.57437],[-58.574801,-34.574563],[-58.575686,-34.575353],[-58.576264,-34.575852]],"type":"LineString"},"properties":{"route_id":"walk_17","school_id":"walsh","school_name":"Escuela Walsh","color":"#475569","distance_m":636,"duration_s":77,"source":"OSRM foot; muestra de movilidad peatonal hacia escuela"}},{"type":"Feature","geometry":{"coordinates":[[-58.571366,-34.575065],[-58.571816,-34.574714],[-58.572655,-34.574068],[-58.57346,-34.573409],[-58.574501,-34.574313],[-58.574564,-34.57437],[-58.574801,-34.574563],[-58.575686,-34.575353],[-58.576264,-34.575852]],"type":"LineString"},"properties":{"route_id":"walk_18","school_id":"walsh","school_name":"Escuela Walsh","color":"#475569","distance_m":640,"duration_s":77,"source":"OSRM foot; muestra de movilidad peatonal hacia escuela"}},{"type":"Feature","geometry":{"coordinates":[[-58.579509,-34.572296],[-58.578969,-34.572724],[-58.578137,-34.57337],[-58.577311,-34.574033],[-58.576508,-34.574686],[-58.575893,-34.575188],[-58.575686,-34.575353],[-58.576264,-34.575852]],"type":"LineString"},"properties":{"route_id":"walk_19","school_id":"walsh","school_name":"Escuela Walsh","color":"#475569","distance_m":565,"duration_s":66,"source":"OSRM foot; muestra de movilidad peatonal hacia escuela"}},{"type":"Feature","geometry":{"coordinates":[[-58.571284,-34.574253],[-58.571816,-34.574714],[-58.572937,-34.575678],[-58.57376,-34.575027],[-58.574407,-34.574501],[-58.574564,-34.57437],[-58.574801,-34.574563],[-58.575686,-34.575353],[-58.576264,-34.575852]],"type":"LineString"},"properties":{"route_id":"walk_20","school_id":"walsh","school_name":"Escuela Walsh","color":"#475569","distance_m":654,"duration_s":81,"source":"OSRM foot; muestra de movilidad peatonal hacia escuela"}},{"type":"Feature","geometry":{"coordinates":[[-58.579689,-34.572154],[-58.578969,-34.572724],[-58.578137,-34.57337],[-58.577311,-34.574033],[-58.576508,-34.574686],[-58.575893,-34.575188],[-58.575686,-34.575353],[-58.576264,-34.575852]],"type":"LineString"},"properties":{"route_id":"walk_21","school_id":"walsh","school_name":"Escuela Walsh","color":"#475569","distance_m":587,"duration_s":68,"source":"OSRM foot; muestra de movilidad peatonal hacia escuela"}},{"type":"Feature","geometry":{"coordinates":[[-58.581505,-34.573565],[-58.580897,-34.573034],[-58.579779,-34.572082],[-58.578969,-34.572724],[-58.578137,-34.57337],[-58.577311,-34.574033],[-58.576508,-34.574686],[-58.575893,-34.575188],[-58.575686,-34.575353],[-58.576264,-34.575852]],"type":"LineString"},"properties":{"route_id":"walk_22","school_id":"walsh","school_name":"Escuela Walsh","color":"#475569","distance_m":827,"duration_s":97,"source":"OSRM foot; muestra de movilidad peatonal hacia escuela"}},{"type":"Feature","geometry":{"coordinates":[[-58.571224,-34.578273],[-58.570492,-34.577628],[-58.571159,-34.57708],[-58.571302,-34.576964],[-58.572027,-34.576406],[-58.572128,-34.576328],[-58.572833,-34.575756],[-58.572937,-34.575678],[-58.57376,-34.575027],[-58.574407,-34.574501],[-58.574564,-34.57437],[-58.574801,-34.574563],[-58.575686,-34.575353],[-58.576264,-34.575852]],"type":"LineString"},"properties":{"route_id":"walk_23","school_id":"walsh","school_name":"Escuela Walsh","color":"#475569","distance_m":845,"duration_s":109,"source":"OSRM foot; muestra de movilidad peatonal hacia escuela"}},{"type":"Feature","geometry":{"coordinates":[[-58.570974,-34.573984],[-58.571816,-34.574714],[-58.572937,-34.575678],[-58.57376,-34.575027],[-58.574407,-34.574501],[-58.574564,-34.57437],[-58.574801,-34.574563],[-58.575686,-34.575353],[-58.576264,-34.575852]],"type":"LineString"},"properties":{"route_id":"walk_24","school_id":"walsh","school_name":"Escuela Walsh","color":"#475569","distance_m":695,"duration_s":85,"source":"OSRM foot; muestra de movilidad peatonal hacia escuela"}},{"type":"Feature","geometry":{"coordinates":[[-58.580066,-34.571856],[-58.579779,-34.572082],[-58.578969,-34.572724],[-58.578137,-34.57337],[-58.577311,-34.574033],[-58.576508,-34.574686],[-58.575893,-34.575188],[-58.575686,-34.575353],[-58.576264,-34.575852]],"type":"LineString"},"properties":{"route_id":"walk_25","school_id":"walsh","school_name":"Escuela Walsh","color":"#475569","distance_m":635,"duration_s":74,"source":"OSRM foot; muestra de movilidad peatonal hacia escuela"}},{"type":"Feature","geometry":{"coordinates":[[-58.570429,-34.573966],[-58.570703,-34.573749],[-58.571524,-34.573107],[-58.572346,-34.572445],[-58.57346,-34.573409],[-58.574501,-34.574313],[-58.574564,-34.57437],[-58.574801,-34.574563],[-58.575686,-34.575353],[-58.576264,-34.575852]],"type":"LineString"},"properties":{"route_id":"walk_26","school_id":"walsh","school_name":"Escuela Walsh","color":"#475569","distance_m":765,"duration_s":91,"source":"OSRM foot; muestra de movilidad peatonal hacia escuela"}},{"type":"Feature","geometry":{"coordinates":[[-58.572158,-34.579951],[-58.572687,-34.57954],[-58.573508,-34.578894],[-58.574322,-34.578237],[-58.575146,-34.577594],[-58.575967,-34.576951],[-58.57679,-34.576307],[-58.577597,-34.575659],[-58.576508,-34.574686],[-58.575893,-34.575188],[-58.575686,-34.575353],[-58.576264,-34.575852]],"type":"LineString"},"properties":{"route_id":"walk_27","school_id":"walsh","school_name":"Escuela Walsh","color":"#475569","distance_m":1019,"duration_s":121,"source":"OSRM foot; muestra de movilidad peatonal hacia escuela"}},{"type":"Feature","geometry":{"coordinates":[[-58.576205,-34.570351],[-58.576724,-34.570791],[-58.575896,-34.571456],[-58.575085,-34.57211],[-58.574263,-34.572769],[-58.57346,-34.573409],[-58.574501,-34.574313],[-58.574564,-34.57437],[-58.574801,-34.574563],[-58.575686,-34.575353],[-58.576264,-34.575852]],"type":"LineString"},"properties":{"route_id":"walk_28","school_id":"walsh","school_name":"Escuela Walsh","color":"#475569","distance_m":859,"duration_s":106,"source":"OSRM foot; muestra de movilidad peatonal hacia escuela"}},{"type":"Feature","geometry":{"coordinates":[[-58.569545,-34.574663],[-58.569877,-34.574402],[-58.570703,-34.573749],[-58.571524,-34.573107],[-58.572346,-34.572445],[-58.57346,-34.573409],[-58.574501,-34.574313],[-58.574564,-34.57437],[-58.574801,-34.574563],[-58.575686,-34.575353],[-58.576264,-34.575852]],"type":"LineString"},"properties":{"route_id":"walk_29","school_id":"walsh","school_name":"Escuela Walsh","color":"#475569","distance_m":878,"duration_s":104,"source":"OSRM foot; muestra de movilidad peatonal hacia escuela"}},{"type":"Feature","geometry":{"coordinates":[[-58.571536,-34.579899],[-58.571859,-34.580184],[-58.572687,-34.57954],[-58.573508,-34.578894],[-58.574322,-34.578237],[-58.575146,-34.577594],[-58.575967,-34.576951],[-58.57679,-34.576307],[-58.577597,-34.575659],[-58.576508,-34.574686],[-58.575893,-34.575188],[-58.575686,-34.575353],[-58.576264,-34.575852]],"type":"LineString"},"properties":{"route_id":"walk_30","school_id":"walsh","school_name":"Escuela Walsh","color":"#475569","distance_m":1100,"duration_s":133,"source":"OSRM foot; muestra de movilidad peatonal hacia escuela"}},{"type":"Feature","geometry":{"coordinates":[[-58.581964,-34.572164],[-58.582524,-34.57172],[-58.581411,-34.570756],[-58.580639,-34.571355],[-58.580593,-34.57142],[-58.580544,-34.571479],[-58.579779,-34.572082],[-58.578969,-34.572724],[-58.578137,-34.57337],[-58.577311,-34.574033],[-58.576508,-34.574686],[-58.575893,-34.575188],[-58.575686,-34.575353],[-58.576264,-34.575852]],"type":"LineString"},"properties":{"route_id":"walk_31","school_id":"walsh","school_name":"Escuela Walsh","color":"#475569","distance_m":1028,"duration_s":124,"source":"OSRM foot; muestra de movilidad peatonal hacia escuela"}},{"type":"Feature","geometry":{"coordinates":[[-58.58105,-34.571036],[-58.580639,-34.571355],[-58.580593,-34.57142],[-58.580544,-34.571479],[-58.579779,-34.572082],[-58.578969,-34.572724],[-58.578137,-34.57337],[-58.577311,-34.574033],[-58.576508,-34.574686],[-58.575893,-34.575188],[-58.575686,-34.575353],[-58.576264,-34.575852]],"type":"LineString"},"properties":{"route_id":"walk_32","school_id":"walsh","school_name":"Escuela Walsh","color":"#475569","distance_m":764,"duration_s":88,"source":"OSRM foot; muestra de movilidad peatonal hacia escuela"}},{"type":"Feature","geometry":{"coordinates":[[-58.570315,-34.579594],[-58.569952,-34.579882],[-58.569385,-34.579414],[-58.568828,-34.578941],[-58.569541,-34.578376],[-58.569676,-34.578271],[-58.570377,-34.57772],[-58.570492,-34.577628],[-58.571159,-34.57708],[-58.571302,-34.576964],[-58.572027,-34.576406],[-58.572128,-34.576328],[-58.572833,-34.575756],[-58.572937,-34.575678],[-58.57376,-34.575027],[-58.574407,-34.574501],[-58.574564,-34.57437],[-58.574801,-34.574563],[-58.575686,-34.575353],[-58.576264,-34.575852]],"type":"LineString"},"properties":{"route_id":"walk_33","school_id":"walsh","school_name":"Escuela Walsh","color":"#475569","distance_m":1151,"duration_s":150,"source":"OSRM foot; muestra de movilidad peatonal hacia escuela"}},{"type":"Feature","geometry":{"coordinates":[[-58.582897,-34.572044],[-58.582524,-34.57172],[-58.581411,-34.570756],[-58.580639,-34.571355],[-58.580593,-34.57142],[-58.580544,-34.571479],[-58.579779,-34.572082],[-58.578969,-34.572724],[-58.578137,-34.57337],[-58.577311,-34.574033],[-58.576508,-34.574686],[-58.575893,-34.575188],[-58.575686,-34.575353],[-58.576264,-34.575852]],"type":"LineString"},"properties":{"route_id":"walk_34","school_id":"walsh","school_name":"Escuela Walsh","color":"#475569","distance_m":1007,"duration_s":117,"source":"OSRM foot; muestra de movilidad peatonal hacia escuela"}},{"type":"Feature","geometry":{"coordinates":[[-58.570821,-34.581001],[-58.571045,-34.580821],[-58.571859,-34.580184],[-58.572687,-34.57954],[-58.573508,-34.578894],[-58.574322,-34.578237],[-58.575146,-34.577594],[-58.575967,-34.576951],[-58.57679,-34.576307],[-58.577597,-34.575659],[-58.576508,-34.574686],[-58.575893,-34.575188],[-58.575686,-34.575353],[-58.576264,-34.575852]],"type":"LineString"},"properties":{"route_id":"walk_35","school_id":"walsh","school_name":"Escuela Walsh","color":"#475569","distance_m":1188,"duration_s":140,"source":"OSRM foot; muestra de movilidad peatonal hacia escuela"}},{"type":"Feature","geometry":{"coordinates":[[-58.567415,-34.575001],[-58.567171,-34.574788],[-58.567127,-34.574732],[-58.567343,-34.574558],[-58.567947,-34.574092],[-58.568007,-34.574043],[-58.568051,-34.574007],[-58.568099,-34.573968],[-58.568756,-34.573434],[-58.569309,-34.572994],[-58.569415,-34.57291],[-58.569572,-34.572785],[-58.56968,-34.5727],[-58.57038,-34.572136],[-58.570478,-34.572058],[-58.571216,-34.57148],[-58.572346,-34.572445],[-58.57346,-34.573409],[-58.574501,-34.574313],[-58.574564,-34.57437],[-58.574801,-34.574563],[-58.575686,-34.575353],[-58.576264,-34.575852]],"type":"LineString"},"properties":{"route_id":"walk_36","school_id":"walsh","school_name":"Escuela Walsh","color":"#475569","distance_m":1231,"duration_s":132,"source":"OSRM foot; muestra de movilidad peatonal hacia escuela"}},{"type":"Feature","geometry":{"coordinates":[[-58.568618,-34.580136],[-58.569124,-34.580571],[-58.570207,-34.581496],[-58.571045,-34.580821],[-58.571859,-34.580184],[-58.572687,-34.57954],[-58.573508,-34.578894],[-58.574322,-34.578237],[-58.575146,-34.577594],[-58.575967,-34.576951],[-58.57679,-34.576307],[-58.577597,-34.575659],[-58.576508,-34.574686],[-58.575893,-34.575188],[-58.575686,-34.575353],[-58.576264,-34.575852]],"type":"LineString"},"properties":{"route_id":"walk_37","school_id":"walsh","school_name":"Escuela Walsh","color":"#475569","distance_m":1477,"duration_s":174,"source":"OSRM foot; muestra de movilidad peatonal hacia escuela"}},{"type":"Feature","geometry":{"coordinates":[[-58.575721,-34.567903],[-58.575305,-34.568234],[-58.574492,-34.568898],[-58.574242,-34.569094],[-58.573769,-34.569457],[-58.573669,-34.569541],[-58.573404,-34.569746],[-58.573304,-34.569825],[-58.573241,-34.569881],[-58.572957,-34.570102],[-58.572865,-34.570176],[-58.57271,-34.570298],[-58.572016,-34.570859],[-58.571355,-34.571377],[-58.571216,-34.57148],[-58.572346,-34.572445],[-58.57346,-34.573409],[-58.574501,-34.574313],[-58.574564,-34.57437],[-58.574801,-34.574563],[-58.575686,-34.575353],[-58.576264,-34.575852]],"type":"LineString"},"properties":{"route_id":"walk_38","school_id":"walsh","school_name":"Escuela Walsh","color":"#475569","distance_m":1244,"duration_s":121,"source":"OSRM foot; muestra de movilidad peatonal hacia escuela"}},{"type":"Feature","geometry":{"coordinates":[[-58.577995,-34.567792],[-58.576963,-34.56691],[-58.57668,-34.567137],[-58.57613,-34.567577],[-58.575305,-34.568234],[-58.574492,-34.568898],[-58.574242,-34.569094],[-58.573769,-34.569457],[-58.573669,-34.569541],[-58.573404,-34.569746],[-58.573304,-34.569825],[-58.573241,-34.569881],[-58.572957,-34.570102],[-58.572865,-34.570176],[-58.57271,-34.570298],[-58.572016,-34.570859],[-58.571355,-34.571377],[-58.571216,-34.57148],[-58.572346,-34.572445],[-58.57346,-34.573409],[-58.574501,-34.574313],[-58.574564,-34.57437],[-58.574801,-34.574563],[-58.575686,-34.575353],[-58.576264,-34.575852]],"type":"LineString"},"properties":{"route_id":"walk_39","school_id":"walsh","school_name":"Escuela Walsh","color":"#475569","distance_m":1538,"duration_s":149,"source":"OSRM foot; muestra de movilidad peatonal hacia escuela"}},{"type":"Feature","geometry":{"coordinates":[[-58.566231,-34.572696],[-58.566339,-34.572789],[-58.565535,-34.573431],[-58.566318,-34.574068],[-58.566953,-34.574563],[-58.567078,-34.574666],[-58.567127,-34.574732],[-58.567343,-34.574558],[-58.567947,-34.574092],[-58.568007,-34.574043],[-58.568051,-34.574007],[-58.568099,-34.573968],[-58.568756,-34.573434],[-58.569309,-34.572994],[-58.569415,-34.57291],[-58.569572,-34.572785],[-58.56968,-34.5727],[-58.57038,-34.572136],[-58.570478,-34.572058],[-58.571216,-34.57148],[-58.572346,-34.572445],[-58.57346,-34.573409],[-58.574501,-34.574313],[-58.574564,-34.57437],[-58.574801,-34.574563],[-58.575686,-34.575353],[-58.576264,-34.575852]],"type":"LineString"},"properties":{"route_id":"walk_40","school_id":"walsh","school_name":"Escuela Walsh","color":"#475569","distance_m":1514,"duration_s":177,"source":"OSRM foot; muestra de movilidad peatonal hacia escuela"}},{"type":"Feature","geometry":{"coordinates":[[-58.573339,-34.565805],[-58.573245,-34.565859],[-58.57291,-34.566112],[-58.572953,-34.56615],[-58.573398,-34.566553],[-58.57399,-34.567063],[-58.574577,-34.567584],[-58.575305,-34.568234],[-58.574492,-34.568898],[-58.574242,-34.569094],[-58.573769,-34.569457],[-58.573669,-34.569541],[-58.573404,-34.569746],[-58.573304,-34.569825],[-58.573241,-34.569881],[-58.572957,-34.570102],[-58.572865,-34.570176],[-58.57271,-34.570298],[-58.572016,-34.570859],[-58.571355,-34.571377],[-58.571216,-34.57148],[-58.572346,-34.572445],[-58.57346,-34.573409],[-58.574501,-34.574313],[-58.574564,-34.57437],[-58.574801,-34.574563],[-58.575686,-34.575353],[-58.576264,-34.575852]],"type":"LineString"},"properties":{"route_id":"walk_41","school_id":"walsh","school_name":"Escuela Walsh","color":"#475569","distance_m":1565,"duration_s":167,"source":"OSRM foot; muestra de movilidad peatonal hacia escuela"}},{"type":"Feature","geometry":{"coordinates":[[-58.572511,-34.565658],[-58.572441,-34.565712],[-58.57291,-34.566112],[-58.572953,-34.56615],[-58.573398,-34.566553],[-58.57399,-34.567063],[-58.574577,-34.567584],[-58.575305,-34.568234],[-58.574492,-34.568898],[-58.574242,-34.569094],[-58.573769,-34.569457],[-58.573669,-34.569541],[-58.573404,-34.569746],[-58.573304,-34.569825],[-58.573241,-34.569881],[-58.572957,-34.570102],[-58.572865,-34.570176],[-58.57271,-34.570298],[-58.572016,-34.570859],[-58.571355,-34.571377],[-58.571216,-34.57148],[-58.572346,-34.572445],[-58.57346,-34.573409],[-58.574501,-34.574313],[-58.574564,-34.57437],[-58.574801,-34.574563],[-58.575686,-34.575353],[-58.576264,-34.575852]],"type":"LineString"},"properties":{"route_id":"walk_42","school_id":"walsh","school_name":"Escuela Walsh","color":"#475569","distance_m":1583,"duration_s":169,"source":"OSRM foot; muestra de movilidad peatonal hacia escuela"}},{"type":"Feature","geometry":{"coordinates":[[-58.603012,-34.555077],[-58.602902,-34.554976],[-58.602575,-34.554691],[-58.602246,-34.554948],[-58.601832,-34.555246],[-58.602806,-34.556138],[-58.603551,-34.555568],[-58.603256,-34.555302],[-58.603063,-34.555125]],"type":"LineString"},"properties":{"route_id":"walk_43","school_id":"galeano","school_name":"Escuela Galeano","color":"#38bdf8","distance_m":444,"duration_s":63,"source":"OSRM foot; muestra de movilidad peatonal hacia escuela"}},{"type":"Feature","geometry":{"coordinates":[[-58.602794,-34.554882],[-58.602575,-34.554691],[-58.602246,-34.554948],[-58.601832,-34.555246],[-58.602806,-34.556138],[-58.603551,-34.555568],[-58.603256,-34.555302],[-58.603063,-34.555125]],"type":"LineString"},"properties":{"route_id":"walk_44","school_id":"galeano","school_name":"Escuela Galeano","color":"#38bdf8","distance_m":414,"duration_s":59,"source":"OSRM foot; muestra de movilidad peatonal hacia escuela"}},{"type":"Feature","geometry":{"coordinates":[[-58.602287,-34.554671],[-58.602437,-34.554558],[-58.603184,-34.554003],[-58.603222,-34.554033],[-58.603305,-34.554102],[-58.60333,-34.554125],[-58.604293,-34.555009],[-58.603551,-34.555568],[-58.603256,-34.555302],[-58.603063,-34.555125]],"type":"LineString"},"properties":{"route_id":"walk_45","school_id":"galeano","school_name":"Escuela Galeano","color":"#38bdf8","distance_m":420,"duration_s":67,"source":"OSRM foot; muestra de movilidad peatonal hacia escuela"}},{"type":"Feature","geometry":{"coordinates":[[-58.602237,-34.555617],[-58.602806,-34.556138],[-58.603551,-34.555568],[-58.603256,-34.555302],[-58.603063,-34.555125]],"type":"LineString"},"properties":{"route_id":"walk_46","school_id":"galeano","school_name":"Escuela Galeano","color":"#38bdf8","distance_m":238,"duration_s":33,"source":"OSRM foot; muestra de movilidad peatonal hacia escuela"}},{"type":"Feature","geometry":{"coordinates":[[-58.601739,-34.55532],[-58.601832,-34.555246],[-58.602806,-34.556138],[-58.603551,-34.555568],[-58.603256,-34.555302],[-58.603063,-34.555125]],"type":"LineString"},"properties":{"route_id":"walk_47","school_id":"galeano","school_name":"Escuela Galeano","color":"#38bdf8","distance_m":305,"duration_s":48,"source":"OSRM foot; muestra de movilidad peatonal hacia escuela"}},{"type":"Feature","geometry":{"coordinates":[[-58.601446,-34.555306],[-58.60169,-34.555124],[-58.602097,-34.554813],[-58.602437,-34.554558],[-58.603184,-34.554003],[-58.603222,-34.554033],[-58.603305,-34.554102],[-58.60333,-34.554125],[-58.604293,-34.555009],[-58.603551,-34.555568],[-58.603256,-34.555302],[-58.603063,-34.555125]],"type":"LineString"},"properties":{"route_id":"walk_48","school_id":"galeano","school_name":"Escuela Galeano","color":"#38bdf8","distance_m":525,"duration_s":82,"source":"OSRM foot; muestra de movilidad peatonal hacia escuela"}},{"type":"Feature","geometry":{"coordinates":[[-58.602738,-34.553604],[-58.603184,-34.554003],[-58.603222,-34.554033],[-58.603305,-34.554102],[-58.60333,-34.554125],[-58.604293,-34.555009],[-58.603551,-34.555568],[-58.603256,-34.555302],[-58.603063,-34.555125]],"type":"LineString"},"properties":{"route_id":"walk_49","school_id":"galeano","school_name":"Escuela Galeano","color":"#38bdf8","distance_m":370,"duration_s":55,"source":"OSRM foot; muestra de movilidad peatonal hacia escuela"}},{"type":"Feature","geometry":{"coordinates":[[-58.60117,-34.55551],[-58.600981,-34.555648],[-58.600592,-34.555973],[-58.600575,-34.556001],[-58.600593,-34.55619],[-58.600266,-34.556454],[-58.600651,-34.55657],[-58.601038,-34.556697],[-58.601767,-34.556922],[-58.602076,-34.556709],[-58.602806,-34.556138],[-58.603551,-34.555568],[-58.603256,-34.555302],[-58.603063,-34.555125]],"type":"LineString"},"properties":{"route_id":"walk_50","school_id":"galeano","school_name":"Escuela Galeano","color":"#38bdf8","distance_m":576,"duration_s":81,"source":"OSRM foot; muestra de movilidad peatonal hacia escuela"}},{"type":"Feature","geometry":{"coordinates":[[-58.601885,-34.553592],[-58.602344,-34.553251],[-58.603184,-34.554003],[-58.603222,-34.554033],[-58.603305,-34.554102],[-58.60333,-34.554125],[-58.604293,-34.555009],[-58.603551,-34.555568],[-58.603256,-34.555302],[-58.603063,-34.555125]],"type":"LineString"},"properties":{"route_id":"walk_51","school_id":"galeano","school_name":"Escuela Galeano","color":"#38bdf8","distance_m":480,"duration_s":76,"source":"OSRM foot; muestra de movilidad peatonal hacia escuela"}},{"type":"Feature","geometry":{"coordinates":[[-58.601908,-34.553576],[-58.602344,-34.553251],[-58.603184,-34.554003],[-58.603222,-34.554033],[-58.603305,-34.554102],[-58.60333,-34.554125],[-58.604293,-34.555009],[-58.603551,-34.555568],[-58.603256,-34.555302],[-58.603063,-34.555125]],"type":"LineString"},"properties":{"route_id":"walk_52","school_id":"galeano","school_name":"Escuela Galeano","color":"#38bdf8","distance_m":477,"duration_s":76,"source":"OSRM foot; muestra de movilidad peatonal hacia escuela"}},{"type":"Feature","geometry":{"coordinates":[[-58.600755,-34.554733],[-58.600326,-34.555252],[-58.600219,-34.555379],[-58.600167,-34.555449],[-58.599965,-34.555774],[-58.59972,-34.556198],[-58.599665,-34.556274],[-58.599718,-34.55632],[-58.599806,-34.556321],[-58.59987,-34.556326],[-58.600007,-34.556363],[-58.600266,-34.556454],[-58.600651,-34.55657],[-58.601038,-34.556697],[-58.601767,-34.556922],[-58.602076,-34.556709],[-58.602806,-34.556138],[-58.603551,-34.555568],[-58.603256,-34.555302],[-58.603063,-34.555125]],"type":"LineString"},"properties":{"route_id":"walk_53","school_id":"galeano","school_name":"Escuela Galeano","color":"#38bdf8","distance_m":695,"duration_s":94,"source":"OSRM foot; muestra de movilidad peatonal hacia escuela"}},{"type":"Feature","geometry":{"coordinates":[[-58.602716,-34.552969],[-58.602344,-34.553251],[-58.603184,-34.554003],[-58.603222,-34.554033],[-58.603305,-34.554102],[-58.60333,-34.554125],[-58.604293,-34.555009],[-58.603551,-34.555568],[-58.603256,-34.555302],[-58.603063,-34.555125]],"type":"LineString"},"properties":{"route_id":"walk_54","school_id":"galeano","school_name":"Escuela Galeano","color":"#38bdf8","distance_m":470,"duration_s":71,"source":"OSRM foot; muestra de movilidad peatonal hacia escuela"}},{"type":"Feature","geometry":{"coordinates":[[-58.604588,-34.553164],[-58.604058,-34.553567],[-58.60333,-34.554125],[-58.604293,-34.555009],[-58.603551,-34.555568],[-58.603256,-34.555302],[-58.603063,-34.555125]],"type":"LineString"},"properties":{"route_id":"walk_55","school_id":"galeano","school_name":"Escuela Galeano","color":"#38bdf8","distance_m":448,"duration_s":63,"source":"OSRM foot; muestra de movilidad peatonal hacia escuela"}},{"type":"Feature","geometry":{"coordinates":[[-58.60508,-34.552964],[-58.605951,-34.553749],[-58.60503,-34.554445],[-58.604293,-34.555009],[-58.603551,-34.555568],[-58.603256,-34.555302],[-58.603063,-34.555125]],"type":"LineString"},"properties":{"route_id":"walk_56","school_id":"galeano","school_name":"Escuela Galeano","color":"#38bdf8","distance_m":483,"duration_s":69,"source":"OSRM foot; muestra de movilidad peatonal hacia escuela"}},{"type":"Feature","geometry":{"coordinates":[[-58.600451,-34.553293],[-58.60076,-34.553052],[-58.60151,-34.552485],[-58.601959,-34.552898],[-58.602344,-34.553251],[-58.603184,-34.554003],[-58.603222,-34.554033],[-58.603305,-34.554102],[-58.60333,-34.554125],[-58.604293,-34.555009],[-58.603551,-34.555568],[-58.603256,-34.555302],[-58.603063,-34.555125]],"type":"LineString"},"properties":{"route_id":"walk_57","school_id":"galeano","school_name":"Escuela Galeano","color":"#38bdf8","distance_m":670,"duration_s":103,"source":"OSRM foot; muestra de movilidad peatonal hacia escuela"}},{"type":"Feature","geometry":{"coordinates":[[-58.60255,-34.557901],[-58.602929,-34.557601],[-58.602858,-34.557513],[-58.602687,-34.557334],[-58.602662,-34.55728],[-58.602663,-34.557201],[-58.602543,-34.557164],[-58.60254,-34.557137],[-58.60251,-34.557097],[-58.60247,-34.557062],[-58.602282,-34.556898],[-58.602076,-34.556709],[-58.602806,-34.556138],[-58.603551,-34.555568],[-58.603256,-34.555302],[-58.603063,-34.555125]],"type":"LineString"},"properties":{"route_id":"walk_58","school_id":"galeano","school_name":"Escuela Galeano","color":"#38bdf8","distance_m":431,"duration_s":62,"source":"OSRM foot; muestra de movilidad peatonal hacia escuela"}},{"type":"Feature","geometry":{"coordinates":[[-58.601677,-34.552354],[-58.60151,-34.552485],[-58.601959,-34.552898],[-58.602344,-34.553251],[-58.603184,-34.554003],[-58.603222,-34.554033],[-58.603305,-34.554102],[-58.60333,-34.554125],[-58.604293,-34.555009],[-58.603551,-34.555568],[-58.603256,-34.555302],[-58.603063,-34.555125]],"type":"LineString"},"properties":{"route_id":"walk_59","school_id":"galeano","school_name":"Escuela Galeano","color":"#38bdf8","distance_m":559,"duration_s":84,"source":"OSRM foot; muestra de movilidad peatonal hacia escuela"}},{"type":"Feature","geometry":{"coordinates":[[-58.606632,-34.556209],[-58.606085,-34.556623],[-58.605333,-34.5572],[-58.604465,-34.556411],[-58.603551,-34.555568],[-58.603256,-34.555302],[-58.603063,-34.555125]],"type":"LineString"},"properties":{"route_id":"walk_60","school_id":"galeano","school_name":"Escuela Galeano","color":"#38bdf8","distance_m":473,"duration_s":55,"source":"OSRM foot; muestra de movilidad peatonal hacia escuela"}},{"type":"Feature","geometry":{"coordinates":[[-58.599461,-34.556127],[-58.599665,-34.556274],[-58.599718,-34.55632],[-58.599806,-34.556321],[-58.59987,-34.556326],[-58.600007,-34.556363],[-58.600266,-34.556454],[-58.600651,-34.55657],[-58.601038,-34.556697],[-58.601767,-34.556922],[-58.602076,-34.556709],[-58.602806,-34.556138],[-58.603551,-34.555568],[-58.603256,-34.555302],[-58.603063,-34.555125]],"type":"LineString"},"properties":{"route_id":"walk_61","school_id":"galeano","school_name":"Escuela Galeano","color":"#38bdf8","distance_m":521,"duration_s":68,"source":"OSRM foot; muestra de movilidad peatonal hacia escuela"}},{"type":"Feature","geometry":{"coordinates":[[-58.606819,-34.556375],[-58.606821,-34.556066],[-58.606085,-34.556623],[-58.605333,-34.5572],[-58.604465,-34.556411],[-58.603551,-34.555568],[-58.603256,-34.555302],[-58.603063,-34.555125]],"type":"LineString"},"properties":{"route_id":"walk_62","school_id":"galeano","school_name":"Escuela Galeano","color":"#38bdf8","distance_m":530,"duration_s":67,"source":"OSRM foot; muestra de movilidad peatonal hacia escuela"}},{"type":"Feature","geometry":{"coordinates":[[-58.607187,-34.55606],[-58.606998,-34.556062],[-58.606821,-34.556066],[-58.606085,-34.556623],[-58.605333,-34.5572],[-58.604465,-34.556411],[-58.603551,-34.555568],[-58.603256,-34.555302],[-58.603063,-34.555125]],"type":"LineString"},"properties":{"route_id":"walk_63","school_id":"galeano","school_name":"Escuela Galeano","color":"#38bdf8","distance_m":530,"duration_s":62,"source":"OSRM foot; muestra de movilidad peatonal hacia escuela"}},{"type":"Feature","geometry":{"coordinates":[[-58.600374,-34.557825],[-58.60093,-34.557386],[-58.601035,-34.557317],[-58.60165,-34.557002],[-58.601688,-34.556977],[-58.601767,-34.556922],[-58.602076,-34.556709],[-58.602806,-34.556138],[-58.603551,-34.555568],[-58.603256,-34.555302],[-58.603063,-34.555125]],"type":"LineString"},"properties":{"route_id":"walk_64","school_id":"galeano","school_name":"Escuela Galeano","color":"#38bdf8","distance_m":452,"duration_s":53,"source":"OSRM foot; muestra de movilidad peatonal hacia escuela"}},{"type":"Feature","geometry":{"coordinates":[[-58.59964,-34.557375],[-58.600312,-34.556855],[-58.600584,-34.556627],[-58.600651,-34.55657],[-58.601038,-34.556697],[-58.601767,-34.556922],[-58.602076,-34.556709],[-58.602806,-34.556138],[-58.603551,-34.555568],[-58.603256,-34.555302],[-58.603063,-34.555125]],"type":"LineString"},"properties":{"route_id":"walk_65","school_id":"galeano","school_name":"Escuela Galeano","color":"#38bdf8","distance_m":527,"duration_s":67,"source":"OSRM foot; muestra de movilidad peatonal hacia escuela"}},{"type":"Feature","geometry":{"coordinates":[[-58.603516,-34.551215],[-58.603307,-34.551269],[-58.603156,-34.551321],[-58.603352,-34.551485],[-58.603443,-34.551558],[-58.604065,-34.552061],[-58.604178,-34.552164],[-58.60485,-34.55276],[-58.604879,-34.552786],[-58.604953,-34.55285],[-58.604976,-34.55287],[-58.605951,-34.553749],[-58.60503,-34.554445],[-58.604293,-34.555009],[-58.603551,-34.555568],[-58.603256,-34.555302],[-58.603063,-34.555125]],"type":"LineString"},"properties":{"route_id":"walk_66","school_id":"galeano","school_name":"Escuela Galeano","color":"#38bdf8","distance_m":772,"duration_s":116,"source":"OSRM foot; muestra de movilidad peatonal hacia escuela"}},{"type":"Feature","geometry":{"coordinates":[[-58.607604,-34.556752],[-58.608477,-34.556756],[-58.60916,-34.55675],[-58.609249,-34.556744],[-58.608482,-34.556049],[-58.607752,-34.555379],[-58.606821,-34.556066],[-58.606085,-34.556623],[-58.605333,-34.5572],[-58.604465,-34.556411],[-58.603551,-34.555568],[-58.603256,-34.555302],[-58.603063,-34.555125]],"type":"LineString"},"properties":{"route_id":"walk_67","school_id":"galeano","school_name":"Escuela Galeano","color":"#38bdf8","distance_m":966,"duration_s":111,"source":"OSRM foot; muestra de movilidad peatonal hacia escuela"}},{"type":"Feature","geometry":{"coordinates":[[-58.600274,-34.551702],[-58.600529,-34.551931],[-58.600828,-34.551861],[-58.600936,-34.55197],[-58.60151,-34.552485],[-58.601959,-34.552898],[-58.602344,-34.553251],[-58.603184,-34.554003],[-58.603222,-34.554033],[-58.603305,-34.554102],[-58.60333,-34.554125],[-58.604293,-34.555009],[-58.603551,-34.555568],[-58.603256,-34.555302],[-58.603063,-34.555125]],"type":"LineString"},"properties":{"route_id":"walk_68","school_id":"galeano","school_name":"Escuela Galeano","color":"#38bdf8","distance_m":694,"duration_s":103,"source":"OSRM foot; muestra de movilidad peatonal hacia escuela"}},{"type":"Feature","geometry":{"coordinates":[[-58.598051,-34.553799],[-58.598639,-34.554085],[-58.598606,-34.554149],[-58.598526,-34.554297],[-58.598482,-34.554373],[-58.598445,-34.55443],[-58.598351,-34.554558],[-58.598302,-34.55463],[-58.59826,-34.554707],[-58.598043,-34.555071],[-58.597772,-34.555551],[-58.597898,-34.555586],[-58.598763,-34.555862],[-58.599334,-34.556055],[-58.599391,-34.556082],[-58.599449,-34.556118],[-58.599665,-34.556274],[-58.599718,-34.55632],[-58.599806,-34.556321],[-58.59987,-34.556326],[-58.600007,-34.556363],[-58.600266,-34.556454],[-58.600651,-34.55657],[-58.601038,-34.556697],[-58.601767,-34.556922],[-58.602076,-34.556709],[-58.602806,-34.556138],[-58.603551,-34.555568],[-58.603256,-34.555302],[-58.603063,-34.555125]],"type":"LineString"},"properties":{"route_id":"walk_69","school_id":"galeano","school_name":"Escuela Galeano","color":"#38bdf8","distance_m":933,"duration_s":133,"source":"OSRM foot; muestra de movilidad peatonal hacia escuela"}},{"type":"Feature","geometry":{"coordinates":[[-58.597667,-34.555518],[-58.597772,-34.555551],[-58.597898,-34.555586],[-58.598763,-34.555862],[-58.599334,-34.556055],[-58.599391,-34.556082],[-58.599449,-34.556118],[-58.599665,-34.556274],[-58.599718,-34.55632],[-58.599806,-34.556321],[-58.59987,-34.556326],[-58.600007,-34.556363],[-58.600266,-34.556454],[-58.600651,-34.55657],[-58.601038,-34.556697],[-58.601767,-34.556922],[-58.602076,-34.556709],[-58.602806,-34.556138],[-58.603551,-34.555568],[-58.603256,-34.555302],[-58.603063,-34.555125]],"type":"LineString"},"properties":{"route_id":"walk_70","school_id":"galeano","school_name":"Escuela Galeano","color":"#38bdf8","distance_m":699,"duration_s":94,"source":"OSRM foot; muestra de movilidad peatonal hacia escuela"}},{"type":"Feature","geometry":{"coordinates":[[-58.605517,-34.559342],[-58.606407,-34.559346],[-58.606779,-34.559348],[-58.606799,-34.558213],[-58.605333,-34.5572],[-58.604465,-34.556411],[-58.603551,-34.555568],[-58.603256,-34.555302],[-58.603063,-34.555125]],"type":"LineString"},"properties":{"route_id":"walk_71","school_id":"galeano","school_name":"Escuela Galeano","color":"#38bdf8","distance_m":727,"duration_s":84,"source":"OSRM foot; muestra de movilidad peatonal hacia escuela"}},{"type":"Feature","geometry":{"coordinates":[[-58.59735,-34.554424],[-58.597022,-34.554697],[-58.596991,-34.554721],[-58.59696,-34.554758],[-58.596704,-34.555216],[-58.596744,-34.555229],[-58.597627,-34.555505],[-58.597772,-34.555551],[-58.597898,-34.555586],[-58.598763,-34.555862],[-58.599334,-34.556055],[-58.599391,-34.556082],[-58.599449,-34.556118],[-58.599665,-34.556274],[-58.599718,-34.55632],[-58.599806,-34.556321],[-58.59987,-34.556326],[-58.600007,-34.556363],[-58.600266,-34.556454],[-58.600651,-34.55657],[-58.601038,-34.556697],[-58.601767,-34.556922],[-58.602076,-34.556709],[-58.602806,-34.556138],[-58.603551,-34.555568],[-58.603256,-34.555302],[-58.603063,-34.555125]],"type":"LineString"},"properties":{"route_id":"walk_72","school_id":"galeano","school_name":"Escuela Galeano","color":"#38bdf8","distance_m":901,"duration_s":126,"source":"OSRM foot; muestra de movilidad peatonal hacia escuela"}},{"type":"Feature","geometry":{"coordinates":[[-58.608232,-34.552745],[-58.60781,-34.552362],[-58.606881,-34.553052],[-58.605951,-34.553749],[-58.60503,-34.554445],[-58.604293,-34.555009],[-58.603551,-34.555568],[-58.603256,-34.555302],[-58.603063,-34.555125]],"type":"LineString"},"properties":{"route_id":"walk_73","school_id":"galeano","school_name":"Escuela Galeano","color":"#38bdf8","distance_m":652,"duration_s":83,"source":"OSRM foot; muestra de movilidad peatonal hacia escuela"}},{"type":"Feature","geometry":{"coordinates":[[-58.60865,-34.553124],[-58.60781,-34.552362],[-58.606881,-34.553052],[-58.605951,-34.553749],[-58.60503,-34.554445],[-58.604293,-34.555009],[-58.603551,-34.555568],[-58.603256,-34.555302],[-58.603063,-34.555125]],"type":"LineString"},"properties":{"route_id":"walk_74","school_id":"galeano","school_name":"Escuela Galeano","color":"#38bdf8","distance_m":709,"duration_s":91,"source":"OSRM foot; muestra de movilidad peatonal hacia escuela"}},{"type":"Feature","geometry":{"coordinates":[[-58.609388,-34.554126],[-58.608668,-34.554672],[-58.607752,-34.555379],[-58.606821,-34.556066],[-58.606085,-34.556623],[-58.605333,-34.5572],[-58.604465,-34.556411],[-58.603551,-34.555568],[-58.603256,-34.555302],[-58.603063,-34.555125]],"type":"LineString"},"properties":{"route_id":"walk_75","school_id":"galeano","school_name":"Escuela Galeano","color":"#38bdf8","distance_m":815,"duration_s":90,"source":"OSRM foot; muestra de movilidad peatonal hacia escuela"}},{"type":"Feature","geometry":{"coordinates":[[-58.597299,-34.552744],[-58.598137,-34.552032],[-58.598683,-34.552529],[-58.599296,-34.553099],[-58.599539,-34.553294],[-58.600039,-34.553658],[-58.60087,-34.554382],[-58.600984,-34.554485],[-58.60169,-34.555124],[-58.602097,-34.554813],[-58.602437,-34.554558],[-58.603184,-34.554003],[-58.603222,-34.554033],[-58.603305,-34.554102],[-58.60333,-34.554125],[-58.604293,-34.555009],[-58.603551,-34.555568],[-58.603256,-34.555302],[-58.603063,-34.555125]],"type":"LineString"},"properties":{"route_id":"walk_76","school_id":"galeano","school_name":"Escuela Galeano","color":"#38bdf8","distance_m":1079,"duration_s":157,"source":"OSRM foot; muestra de movilidad peatonal hacia escuela"}},{"type":"Feature","geometry":{"coordinates":[[-58.610009,-34.553662],[-58.609588,-34.553974],[-58.608668,-34.554672],[-58.607752,-34.555379],[-58.606821,-34.556066],[-58.606085,-34.556623],[-58.605333,-34.5572],[-58.604465,-34.556411],[-58.603551,-34.555568],[-58.603256,-34.555302],[-58.603063,-34.555125]],"type":"LineString"},"properties":{"route_id":"walk_77","school_id":"galeano","school_name":"Escuela Galeano","color":"#38bdf8","distance_m":892,"duration_s":99,"source":"OSRM foot; muestra de movilidad peatonal hacia escuela"}},{"type":"Feature","geometry":{"coordinates":[[-58.610179,-34.553535],[-58.609588,-34.553974],[-58.608668,-34.554672],[-58.607752,-34.555379],[-58.606821,-34.556066],[-58.606085,-34.556623],[-58.605333,-34.5572],[-58.604465,-34.556411],[-58.603551,-34.555568],[-58.603256,-34.555302],[-58.603063,-34.555125]],"type":"LineString"},"properties":{"route_id":"walk_78","school_id":"galeano","school_name":"Escuela Galeano","color":"#38bdf8","distance_m":913,"duration_s":101,"source":"OSRM foot; muestra de movilidad peatonal hacia escuela"}},{"type":"Feature","geometry":{"coordinates":[[-58.596109,-34.552367],[-58.59633,-34.552554],[-58.596899,-34.553083],[-58.597174,-34.553322],[-58.597412,-34.553512],[-58.597448,-34.553523],[-58.597562,-34.553534],[-58.597651,-34.553563],[-58.598016,-34.553782],[-58.598639,-34.554085],[-58.598606,-34.554149],[-58.598526,-34.554297],[-58.598482,-34.554373],[-58.598445,-34.55443],[-58.598351,-34.554558],[-58.598302,-34.55463],[-58.59826,-34.554707],[-58.598043,-34.555071],[-58.597772,-34.555551],[-58.597898,-34.555586],[-58.598763,-34.555862],[-58.599334,-34.556055],[-58.599391,-34.556082],[-58.599449,-34.556118],[-58.599665,-34.556274],[-58.599718,-34.55632],[-58.599806,-34.556321],[-58.59987,-34.556326],[-58.600007,-34.556363],[-58.600266,-34.556454],[-58.600651,-34.55657],[-58.601038,-34.556697],[-58.601767,-34.556922],[-58.602076,-34.556709],[-58.602806,-34.556138],[-58.603551,-34.555568],[-58.603256,-34.555302],[-58.603063,-34.555125]],"type":"LineString"},"properties":{"route_id":"walk_79","school_id":"galeano","school_name":"Escuela Galeano","color":"#38bdf8","distance_m":1175,"duration_s":160,"source":"OSRM foot; muestra de movilidad peatonal hacia escuela"}},{"type":"Feature","geometry":{"coordinates":[[-58.598064,-34.549707],[-58.598346,-34.549968],[-58.598905,-34.550462],[-58.598993,-34.550541],[-58.599456,-34.550959],[-58.599563,-34.551052],[-58.600066,-34.551515],[-58.600529,-34.551931],[-58.600828,-34.551861],[-58.600936,-34.55197],[-58.60151,-34.552485],[-58.601959,-34.552898],[-58.602344,-34.553251],[-58.603184,-34.554003],[-58.603222,-34.554033],[-58.603305,-34.554102],[-58.60333,-34.554125],[-58.604293,-34.555009],[-58.603551,-34.555568],[-58.603256,-34.555302],[-58.603063,-34.555125]],"type":"LineString"},"properties":{"route_id":"walk_80","school_id":"galeano","school_name":"Escuela Galeano","color":"#38bdf8","distance_m":994,"duration_s":136,"source":"OSRM foot; muestra de movilidad peatonal hacia escuela"}},{"type":"Feature","geometry":{"coordinates":[[-58.611649,-34.55496],[-58.611417,-34.555131],[-58.611127,-34.555361],[-58.610182,-34.55606],[-58.609345,-34.556702],[-58.609308,-34.556723],[-58.609249,-34.556744],[-58.608482,-34.556049],[-58.607752,-34.555379],[-58.606821,-34.556066],[-58.606085,-34.556623],[-58.605333,-34.5572],[-58.604465,-34.556411],[-58.603551,-34.555568],[-58.603256,-34.555302],[-58.603063,-34.555125]],"type":"LineString"},"properties":{"route_id":"walk_81","school_id":"galeano","school_name":"Escuela Galeano","color":"#38bdf8","distance_m":1112,"duration_s":124,"source":"OSRM foot; muestra de movilidad peatonal hacia escuela"}},{"type":"Feature","geometry":{"coordinates":[[-58.594776,-34.558055],[-58.594787,-34.558948],[-58.594785,-34.559213],[-58.596037,-34.559221],[-58.596973,-34.558471],[-58.597879,-34.557765],[-58.598139,-34.557567],[-58.598785,-34.557037],[-58.599499,-34.556477],[-58.599648,-34.55636],[-58.599718,-34.55632],[-58.599806,-34.556321],[-58.59987,-34.556326],[-58.600007,-34.556363],[-58.600266,-34.556454],[-58.600651,-34.55657],[-58.601038,-34.556697],[-58.601767,-34.556922],[-58.602076,-34.556709],[-58.602806,-34.556138],[-58.603551,-34.555568],[-58.603256,-34.555302],[-58.603063,-34.555125]],"type":"LineString"},"properties":{"route_id":"walk_82","school_id":"galeano","school_name":"Escuela Galeano","color":"#38bdf8","distance_m":1199,"duration_s":146,"source":"OSRM foot; muestra de movilidad peatonal hacia escuela"}},{"type":"Feature","geometry":{"coordinates":[[-58.593833,-34.553514],[-58.593801,-34.553541],[-58.593641,-34.55367],[-58.593166,-34.554033],[-58.593201,-34.554081],[-58.593241,-34.554106],[-58.593279,-34.554126],[-58.593344,-34.554151],[-58.594418,-34.554484],[-58.594521,-34.554512],[-58.595663,-34.554894],[-58.596643,-34.555198],[-58.596679,-34.555209],[-58.596704,-34.555216],[-58.596744,-34.555229],[-58.597627,-34.555505],[-58.597772,-34.555551],[-58.597898,-34.555586],[-58.598763,-34.555862],[-58.599334,-34.556055],[-58.599391,-34.556082],[-58.599449,-34.556118],[-58.599665,-34.556274],[-58.599718,-34.55632],[-58.599806,-34.556321],[-58.59987,-34.556326],[-58.600007,-34.556363],[-58.600266,-34.556454],[-58.600651,-34.55657],[-58.601038,-34.556697],[-58.601767,-34.556922],[-58.602076,-34.556709],[-58.602806,-34.556138],[-58.603551,-34.555568],[-58.603256,-34.555302],[-58.603063,-34.555125]],"type":"LineString"},"properties":{"route_id":"walk_83","school_id":"galeano","school_name":"Escuela Galeano","color":"#38bdf8","distance_m":1229,"duration_s":168,"source":"OSRM foot; muestra de movilidad peatonal hacia escuela"}},{"type":"Feature","geometry":{"coordinates":[[-58.59876,-34.562352],[-58.599156,-34.56204],[-58.600178,-34.561238],[-58.600558,-34.56094],[-58.600697,-34.560827],[-58.601078,-34.560519],[-58.601327,-34.560319],[-58.601992,-34.559801],[-58.602229,-34.559609],[-58.602531,-34.559374],[-58.602899,-34.559087],[-58.60318,-34.558866],[-58.603342,-34.558736],[-58.603799,-34.558383],[-58.604573,-34.557781],[-58.605333,-34.5572],[-58.604465,-34.556411],[-58.603551,-34.555568],[-58.603256,-34.555302],[-58.603063,-34.555125]],"type":"LineString"},"properties":{"route_id":"walk_84","school_id":"galeano","school_name":"Escuela Galeano","color":"#38bdf8","distance_m":1141,"duration_s":112,"source":"OSRM foot; muestra de movilidad peatonal hacia escuela"}},{"type":"Feature","geometry":{"coordinates":[[-58.536862,-34.558837],[-58.53699,-34.558942]],"type":"LineString"},"properties":{"route_id":"walk_85","school_id":"pizarnik","school_name":"Escuela Pizarnik","color":"#c8a7ff","distance_m":17,"duration_s":2,"source":"OSRM foot; muestra de movilidad peatonal hacia escuela"}},{"type":"Feature","geometry":{"coordinates":[[-58.538759,-34.558947],[-58.538963,-34.558784],[-58.539614,-34.559324],[-58.538505,-34.560196],[-58.538303,-34.560024],[-58.537863,-34.559664],[-58.537312,-34.559206],[-58.537299,-34.559196],[-58.537278,-34.559178],[-58.537244,-34.55915],[-58.537213,-34.559125],[-58.53716,-34.559081],[-58.53714,-34.559065],[-58.537086,-34.55902],[-58.53699,-34.558942]],"type":"LineString"},"properties":{"route_id":"walk_86","school_id":"pizarnik","school_name":"Escuela Pizarnik","color":"#c8a7ff","distance_m":448,"duration_s":70,"source":"OSRM foot; muestra de movilidad peatonal hacia escuela"}},{"type":"Feature","geometry":{"coordinates":[[-58.535408,-34.557646],[-58.535408,-34.557646],[-58.535524,-34.557741],[-58.535607,-34.55781],[-58.535689,-34.557877],[-58.535765,-34.557939],[-58.535824,-34.557987],[-58.535884,-34.558036],[-58.535945,-34.558086],[-58.536048,-34.558171],[-58.536122,-34.558231],[-58.536222,-34.558313],[-58.536312,-34.558387],[-58.53699,-34.558942]],"type":"LineString"},"properties":{"route_id":"walk_87","school_id":"pizarnik","school_name":"Escuela Pizarnik","color":"#c8a7ff","distance_m":204,"duration_s":25,"source":"OSRM foot; muestra de movilidad peatonal hacia escuela"}},{"type":"Feature","geometry":{"coordinates":[[-58.539033,-34.560633],[-58.538992,-34.560599],[-58.538713,-34.560368],[-58.538505,-34.560196],[-58.538303,-34.560024],[-58.537863,-34.559664],[-58.537312,-34.559206],[-58.537299,-34.559196],[-58.537278,-34.559178],[-58.537244,-34.55915],[-58.537213,-34.559125],[-58.53716,-34.559081],[-58.53714,-34.559065],[-58.537086,-34.55902],[-58.53699,-34.558942]],"type":"LineString"},"properties":{"route_id":"walk_88","school_id":"pizarnik","school_name":"Escuela Pizarnik","color":"#c8a7ff","distance_m":265,"duration_s":34,"source":"OSRM foot; muestra de movilidad peatonal hacia escuela"}},{"type":"Feature","geometry":{"coordinates":[[-58.539237,-34.561076],[-58.539337,-34.560992],[-58.53943,-34.56096],[-58.539332,-34.56088],[-58.539304,-34.560857],[-58.538992,-34.560599],[-58.538713,-34.560368],[-58.538505,-34.560196],[-58.538303,-34.560024],[-58.537863,-34.559664],[-58.537312,-34.559206],[-58.537299,-34.559196],[-58.537278,-34.559178],[-58.537244,-34.55915],[-58.537213,-34.559125],[-58.53716,-34.559081],[-58.53714,-34.559065],[-58.537086,-34.55902],[-58.53699,-34.558942]],"type":"LineString"},"properties":{"route_id":"walk_89","school_id":"pizarnik","school_name":"Escuela Pizarnik","color":"#c8a7ff","distance_m":339,"duration_s":51,"source":"OSRM foot; muestra de movilidad peatonal hacia escuela"}},{"type":"Feature","geometry":{"coordinates":[[-58.534077,-34.556547],[-58.534271,-34.556708],[-58.534357,-34.556779],[-58.534415,-34.556827],[-58.534485,-34.556885],[-58.534556,-34.556944],[-58.534616,-34.556993],[-58.534649,-34.557021],[-58.534677,-34.557044],[-58.534832,-34.557172],[-58.535051,-34.557354],[-58.535246,-34.557515],[-58.535267,-34.557532],[-58.53533,-34.557582],[-58.535386,-34.557629],[-58.535408,-34.557646],[-58.535524,-34.557741],[-58.535607,-34.55781],[-58.535689,-34.557877],[-58.535765,-34.557939],[-58.535824,-34.557987],[-58.535884,-34.558036],[-58.535945,-34.558086],[-58.536048,-34.558171],[-58.536122,-34.558231],[-58.536222,-34.558313],[-58.536312,-34.558387],[-58.53699,-34.558942]],"type":"LineString"},"properties":{"route_id":"walk_90","school_id":"pizarnik","school_name":"Escuela Pizarnik","color":"#c8a7ff","distance_m":377,"duration_s":47,"source":"OSRM foot; muestra de movilidad peatonal hacia escuela"}},{"type":"Feature","geometry":{"coordinates":[[-58.539829,-34.556222],[-58.540285,-34.556601],[-58.53976,-34.557026],[-58.539148,-34.557512],[-58.538295,-34.558226],[-58.537288,-34.559063],[-58.537269,-34.55908],[-58.537213,-34.559125],[-58.53716,-34.559081],[-58.53714,-34.559065],[-58.537086,-34.55902],[-58.53699,-34.558942]],"type":"LineString"},"properties":{"route_id":"walk_91","school_id":"pizarnik","school_name":"Escuela Pizarnik","color":"#c8a7ff","distance_m":486,"duration_s":69,"source":"OSRM foot; muestra de movilidad peatonal hacia escuela"}},{"type":"Feature","geometry":{"coordinates":[[-58.539002,-34.562419],[-58.538318,-34.56185],[-58.539337,-34.560992],[-58.53943,-34.56096],[-58.539332,-34.56088],[-58.539304,-34.560857],[-58.538992,-34.560599],[-58.538713,-34.560368],[-58.538505,-34.560196],[-58.538303,-34.560024],[-58.537863,-34.559664],[-58.537312,-34.559206],[-58.537299,-34.559196],[-58.537278,-34.559178],[-58.537244,-34.55915],[-58.537213,-34.559125],[-58.53716,-34.559081],[-58.53714,-34.559065],[-58.537086,-34.55902],[-58.53699,-34.558942]],"type":"LineString"},"properties":{"route_id":"walk_92","school_id":"pizarnik","school_name":"Escuela Pizarnik","color":"#c8a7ff","distance_m":548,"duration_s":80,"source":"OSRM foot; muestra de movilidad peatonal hacia escuela"}},{"type":"Feature","geometry":{"coordinates":[[-58.5396,-34.555809],[-58.540012,-34.555476],[-58.540706,-34.556057],[-58.540834,-34.556162],[-58.540285,-34.556601],[-58.53976,-34.557026],[-58.539148,-34.557512],[-58.538295,-34.558226],[-58.537288,-34.559063],[-58.537269,-34.55908],[-58.537213,-34.559125],[-58.53716,-34.559081],[-58.53714,-34.559065],[-58.537086,-34.55902],[-58.53699,-34.558942]],"type":"LineString"},"properties":{"route_id":"walk_93","school_id":"pizarnik","school_name":"Escuela Pizarnik","color":"#c8a7ff","distance_m":656,"duration_s":94,"source":"OSRM foot; muestra de movilidad peatonal hacia escuela"}},{"type":"Feature","geometry":{"coordinates":[[-58.541937,-34.561268],[-58.541461,-34.56087],[-58.54038,-34.561747],[-58.540251,-34.561641],[-58.540173,-34.561576],[-58.539536,-34.561049],[-58.53943,-34.56096],[-58.539332,-34.56088],[-58.539304,-34.560857],[-58.538992,-34.560599],[-58.538713,-34.560368],[-58.538505,-34.560196],[-58.538303,-34.560024],[-58.537863,-34.559664],[-58.537312,-34.559206],[-58.537299,-34.559196],[-58.537278,-34.559178],[-58.537244,-34.55915],[-58.537213,-34.559125],[-58.53716,-34.559081],[-58.53714,-34.559065],[-58.537086,-34.55902],[-58.53699,-34.558942]],"type":"LineString"},"properties":{"route_id":"walk_94","school_id":"pizarnik","school_name":"Escuela Pizarnik","color":"#c8a7ff","distance_m":641,"duration_s":87,"source":"OSRM foot; muestra de movilidad peatonal hacia escuela"}},{"type":"Feature","geometry":{"coordinates":[[-58.53858,-34.554257],[-58.539077,-34.554683],[-58.538463,-34.555088],[-58.537964,-34.555424],[-58.537886,-34.555484],[-58.537251,-34.555998],[-58.536403,-34.556699],[-58.535407,-34.55752],[-58.535387,-34.557536],[-58.53533,-34.557582],[-58.535386,-34.557629],[-58.535408,-34.557646],[-58.535524,-34.557741],[-58.535607,-34.55781],[-58.535689,-34.557877],[-58.535765,-34.557939],[-58.535824,-34.557987],[-58.535884,-34.558036],[-58.535945,-34.558086],[-58.536048,-34.558171],[-58.536122,-34.558231],[-58.536222,-34.558313],[-58.536312,-34.558387],[-58.53699,-34.558942]],"type":"LineString"},"properties":{"route_id":"walk_95","school_id":"pizarnik","school_name":"Escuela Pizarnik","color":"#c8a7ff","distance_m":751,"duration_s":86,"source":"OSRM foot; muestra de movilidad peatonal hacia escuela"}},{"type":"Feature","geometry":{"coordinates":[[-58.535784,-34.553735],[-58.535344,-34.553384],[-58.535924,-34.552961],[-58.536745,-34.553658],[-58.537684,-34.554446],[-58.538463,-34.555088],[-58.537964,-34.555424],[-58.537886,-34.555484],[-58.537251,-34.555998],[-58.536403,-34.556699],[-58.535407,-34.55752],[-58.535387,-34.557536],[-58.53533,-34.557582],[-58.535386,-34.557629],[-58.535408,-34.557646],[-58.535524,-34.557741],[-58.535607,-34.55781],[-58.535689,-34.557877],[-58.535765,-34.557939],[-58.535824,-34.557987],[-58.535884,-34.558036],[-58.535945,-34.558086],[-58.536048,-34.558171],[-58.536122,-34.558231],[-58.536222,-34.558313],[-58.536312,-34.558387],[-58.53699,-34.558942]],"type":"LineString"},"properties":{"route_id":"walk_96","school_id":"pizarnik","school_name":"Escuela Pizarnik","color":"#c8a7ff","distance_m":1072,"duration_s":142,"source":"OSRM foot; muestra de movilidad peatonal hacia escuela"}},{"type":"Feature","geometry":{"coordinates":[[-58.536266,-34.553252],[-58.536745,-34.553658],[-58.537684,-34.554446],[-58.538463,-34.555088],[-58.537964,-34.555424],[-58.537886,-34.555484],[-58.537251,-34.555998],[-58.536403,-34.556699],[-58.535407,-34.55752],[-58.535387,-34.557536],[-58.53533,-34.557582],[-58.535386,-34.557629],[-58.535408,-34.557646],[-58.535524,-34.557741],[-58.535607,-34.55781],[-58.535689,-34.557877],[-58.535765,-34.557939],[-58.535824,-34.557987],[-58.535884,-34.558036],[-58.535945,-34.558086],[-58.536048,-34.558171],[-58.536122,-34.558231],[-58.536222,-34.558313],[-58.536312,-34.558387],[-58.53699,-34.558942]],"type":"LineString"},"properties":{"route_id":"walk_97","school_id":"pizarnik","school_name":"Escuela Pizarnik","color":"#c8a7ff","distance_m":900,"duration_s":111,"source":"OSRM foot; muestra de movilidad peatonal hacia escuela"}},{"type":"Feature","geometry":{"coordinates":[[-58.541326,-34.553648],[-58.541606,-34.553877],[-58.542485,-34.554605],[-58.541725,-34.555209],[-58.540706,-34.556057],[-58.540834,-34.556162],[-58.540285,-34.556601],[-58.53976,-34.557026],[-58.539148,-34.557512],[-58.538295,-34.558226],[-58.537288,-34.559063],[-58.537269,-34.55908],[-58.537213,-34.559125],[-58.53716,-34.559081],[-58.53714,-34.559065],[-58.537086,-34.55902],[-58.53699,-34.558942]],"type":"LineString"},"properties":{"route_id":"walk_98","school_id":"pizarnik","school_name":"Escuela Pizarnik","color":"#c8a7ff","distance_m":892,"duration_s":135,"source":"OSRM foot; muestra de movilidad peatonal hacia escuela"}},{"type":"Feature","geometry":{"coordinates":[[-58.544816,-34.560069],[-58.545102,-34.559846],[-58.545819,-34.560433],[-58.545951,-34.560496],[-58.546132,-34.560647],[-58.547122,-34.561471],[-58.54606,-34.562313],[-58.545032,-34.563138],[-58.544105,-34.563858],[-58.543984,-34.563948],[-58.543038,-34.564713],[-58.542959,-34.564776],[-58.541938,-34.565608],[-58.541855,-34.565678],[-58.541462,-34.565352],[-58.541602,-34.565246],[-58.541961,-34.564976],[-58.541989,-34.564927],[-58.541993,-34.564864],[-58.54181,-34.563913],[-58.541725,-34.563559],[-58.54158,-34.562966],[-58.541521,-34.562717],[-58.541505,-34.562682],[-58.54146,-34.56263],[-58.541424,-34.562601],[-58.541304,-34.562504],[-58.541209,-34.562426],[-58.540949,-34.562218],[-58.54038,-34.561747],[-58.540251,-34.561641],[-58.540173,-34.561576],[-58.539536,-34.561049],[-58.53943,-34.56096],[-58.539332,-34.56088],[-58.539304,-34.560857],[-58.538992,-34.560599],[-58.538713,-34.560368],[-58.538505,-34.560196],[-58.538303,-34.560024],[-58.537863,-34.559664],[-58.537312,-34.559206],[-58.537299,-34.559196],[-58.537278,-34.559178],[-58.537244,-34.55915],[-58.537213,-34.559125],[-58.53716,-34.559081],[-58.53714,-34.559065],[-58.537086,-34.55902],[-58.53699,-34.558942]],"type":"LineString"},"properties":{"route_id":"walk_99","school_id":"pizarnik","school_name":"Escuela Pizarnik","color":"#c8a7ff","distance_m":1926,"duration_s":239,"source":"OSRM foot; muestra de movilidad peatonal hacia escuela"}},{"type":"Feature","geometry":{"coordinates":[[-58.530863,-34.553842],[-58.531032,-34.553932],[-58.531785,-34.554369],[-58.531876,-34.554257],[-58.531926,-34.554195],[-58.53214,-34.554555],[-58.532538,-34.555244],[-58.532565,-34.555284],[-58.532617,-34.555336],[-58.532685,-34.555402],[-58.532709,-34.555422],[-58.532754,-34.555459],[-58.532783,-34.555483],[-58.533561,-34.556122],[-58.533649,-34.556194],[-58.53372,-34.556252],[-58.534056,-34.55653],[-58.534271,-34.556708],[-58.534357,-34.556779],[-58.534415,-34.556827],[-58.534485,-34.556885],[-58.534556,-34.556944],[-58.534616,-34.556993],[-58.534649,-34.557021],[-58.534677,-34.557044],[-58.534832,-34.557172],[-58.535051,-34.557354],[-58.535246,-34.557515],[-58.535267,-34.557532],[-58.53533,-34.557582],[-58.535386,-34.557629],[-58.535408,-34.557646],[-58.535524,-34.557741],[-58.535607,-34.55781],[-58.535689,-34.557877],[-58.535765,-34.557939],[-58.535824,-34.557987],[-58.535884,-34.558036],[-58.535945,-34.558086],[-58.536048,-34.558171],[-58.536122,-34.558231],[-58.536222,-34.558313],[-58.536312,-34.558387],[-58.53699,-34.558942]],"type":"LineString"},"properties":{"route_id":"walk_100","school_id":"pizarnik","school_name":"Escuela Pizarnik","color":"#c8a7ff","distance_m":835,"duration_s":107,"source":"OSRM foot; muestra de movilidad peatonal hacia escuela"}},{"type":"Feature","geometry":{"coordinates":[[-58.537136,-34.551745],[-58.536741,-34.551054],[-58.535397,-34.551583],[-58.535438,-34.551633],[-58.535479,-34.551674],[-58.5364,-34.552437],[-58.536507,-34.552526],[-58.537319,-34.553194],[-58.538236,-34.553962],[-58.539077,-34.554683],[-58.538463,-34.555088],[-58.537964,-34.555424],[-58.537886,-34.555484],[-58.537251,-34.555998],[-58.536403,-34.556699],[-58.535407,-34.55752],[-58.535387,-34.557536],[-58.53533,-34.557582],[-58.535386,-34.557629],[-58.535408,-34.557646],[-58.535524,-34.557741],[-58.535607,-34.55781],[-58.535689,-34.557877],[-58.535765,-34.557939],[-58.535824,-34.557987],[-58.535884,-34.558036],[-58.535945,-34.558086],[-58.536048,-34.558171],[-58.536122,-34.558231],[-58.536222,-34.558313],[-58.536312,-34.558387],[-58.53699,-34.558942]],"type":"LineString"},"properties":{"route_id":"walk_101","school_id":"pizarnik","school_name":"Escuela Pizarnik","color":"#c8a7ff","distance_m":1389,"duration_s":167,"source":"OSRM foot; muestra de movilidad peatonal hacia escuela"}},{"type":"Feature","geometry":{"coordinates":[[-58.538606,-34.551661],[-58.538991,-34.551928],[-58.539835,-34.552528],[-58.540741,-34.553168],[-58.540049,-34.553794],[-58.539143,-34.554635],[-58.539077,-34.554683],[-58.538463,-34.555088],[-58.537964,-34.555424],[-58.537886,-34.555484],[-58.537251,-34.555998],[-58.536403,-34.556699],[-58.535407,-34.55752],[-58.535387,-34.557536],[-58.53533,-34.557582],[-58.535386,-34.557629],[-58.535408,-34.557646],[-58.535524,-34.557741],[-58.535607,-34.55781],[-58.535689,-34.557877],[-58.535765,-34.557939],[-58.535824,-34.557987],[-58.535884,-34.558036],[-58.535945,-34.558086],[-58.536048,-34.558171],[-58.536122,-34.558231],[-58.536222,-34.558313],[-58.536312,-34.558387],[-58.53699,-34.558942]],"type":"LineString"},"properties":{"route_id":"walk_102","school_id":"pizarnik","school_name":"Escuela Pizarnik","color":"#c8a7ff","distance_m":1170,"duration_s":136,"source":"OSRM foot; muestra de movilidad peatonal hacia escuela"}},{"type":"Feature","geometry":{"coordinates":[[-58.528473,-34.555285],[-58.528779,-34.555075],[-58.528829,-34.555033],[-58.528969,-34.554859],[-58.529434,-34.554299],[-58.530052,-34.553518],[-58.529998,-34.553497],[-58.529934,-34.553454],[-58.52988,-34.553369],[-58.529825,-34.553276],[-58.530704,-34.552226],[-58.530769,-34.552151],[-58.531272,-34.55305],[-58.531337,-34.553169],[-58.531427,-34.553349],[-58.531863,-34.554093],[-58.531926,-34.554195],[-58.53214,-34.554555],[-58.532538,-34.555244],[-58.532565,-34.555284],[-58.532617,-34.555336],[-58.532685,-34.555402],[-58.532709,-34.555422],[-58.532754,-34.555459],[-58.532783,-34.555483],[-58.533561,-34.556122],[-58.533649,-34.556194],[-58.53372,-34.556252],[-58.534056,-34.55653],[-58.534271,-34.556708],[-58.534357,-34.556779],[-58.534415,-34.556827],[-58.534485,-34.556885],[-58.534556,-34.556944],[-58.534616,-34.556993],[-58.534649,-34.557021],[-58.534677,-34.557044],[-58.534832,-34.557172],[-58.535051,-34.557354],[-58.535246,-34.557515],[-58.535267,-34.557532],[-58.53533,-34.557582],[-58.535386,-34.557629],[-58.535408,-34.557646],[-58.535524,-34.557741],[-58.535607,-34.55781],[-58.535689,-34.557877],[-58.535765,-34.557939],[-58.535824,-34.557987],[-58.535884,-34.558036],[-58.535945,-34.558086],[-58.536048,-34.558171],[-58.536122,-34.558231],[-58.536222,-34.558313],[-58.536312,-34.558387],[-58.53699,-34.558942]],"type":"LineString"},"properties":{"route_id":"walk_103","school_id":"pizarnik","school_name":"Escuela Pizarnik","color":"#c8a7ff","distance_m":1391,"duration_s":168,"source":"OSRM foot; muestra de movilidad peatonal hacia escuela"}},{"type":"Feature","geometry":{"coordinates":[[-58.533727,-34.551566],[-58.533464,-34.551107],[-58.534826,-34.550562],[-58.535397,-34.551583],[-58.535438,-34.551633],[-58.535479,-34.551674],[-58.5364,-34.552437],[-58.536507,-34.552526],[-58.537319,-34.553194],[-58.538236,-34.553962],[-58.539077,-34.554683],[-58.538463,-34.555088],[-58.537964,-34.555424],[-58.537886,-34.555484],[-58.537251,-34.555998],[-58.536403,-34.556699],[-58.535407,-34.55752],[-58.535387,-34.557536],[-58.53533,-34.557582],[-58.535386,-34.557629],[-58.535408,-34.557646],[-58.535524,-34.557741],[-58.535607,-34.55781],[-58.535689,-34.557877],[-58.535765,-34.557939],[-58.535824,-34.557987],[-58.535884,-34.558036],[-58.535945,-34.558086],[-58.536048,-34.558171],[-58.536122,-34.558231],[-58.536222,-34.558313],[-58.536312,-34.558387],[-58.53699,-34.558942]],"type":"LineString"},"properties":{"route_id":"walk_104","school_id":"pizarnik","school_name":"Escuela Pizarnik","color":"#c8a7ff","distance_m":1488,"duration_s":182,"source":"OSRM foot; muestra de movilidad peatonal hacia escuela"}},{"type":"Feature","geometry":{"coordinates":[[-58.537224,-34.550865],[-58.536741,-34.551054],[-58.535397,-34.551583],[-58.535438,-34.551633],[-58.535479,-34.551674],[-58.5364,-34.552437],[-58.536507,-34.552526],[-58.537319,-34.553194],[-58.538236,-34.553962],[-58.539077,-34.554683],[-58.538463,-34.555088],[-58.537964,-34.555424],[-58.537886,-34.555484],[-58.537251,-34.555998],[-58.536403,-34.556699],[-58.535407,-34.55752],[-58.535387,-34.557536],[-58.53533,-34.557582],[-58.535386,-34.557629],[-58.535408,-34.557646],[-58.535524,-34.557741],[-58.535607,-34.55781],[-58.535689,-34.557877],[-58.535765,-34.557939],[-58.535824,-34.557987],[-58.535884,-34.558036],[-58.535945,-34.558086],[-58.536048,-34.558171],[-58.536122,-34.558231],[-58.536222,-34.558313],[-58.536312,-34.558387],[-58.53699,-34.558942]],"type":"LineString"},"properties":{"route_id":"walk_105","school_id":"pizarnik","school_name":"Escuela Pizarnik","color":"#c8a7ff","distance_m":1353,"duration_s":158,"source":"OSRM foot; muestra de movilidad peatonal hacia escuela"}},{"type":"Feature","geometry":{"coordinates":[[-58.527463,-34.556107],[-58.527432,-34.556076],[-58.52737,-34.556024],[-58.527305,-34.55599],[-58.526513,-34.55554],[-58.526724,-34.555322],[-58.527092,-34.554925],[-58.527199,-34.554826],[-58.527319,-34.554719],[-58.527527,-34.554542],[-58.527736,-34.554372],[-58.5278,-34.554329],[-58.527895,-34.554264],[-58.528118,-34.55412],[-58.528591,-34.55383],[-58.528775,-34.553728],[-58.529647,-34.553352],[-58.529825,-34.553276],[-58.530704,-34.552226],[-58.530769,-34.552151],[-58.531272,-34.55305],[-58.531337,-34.553169],[-58.531427,-34.553349],[-58.531863,-34.554093],[-58.531926,-34.554195],[-58.53214,-34.554555],[-58.532538,-34.555244],[-58.532565,-34.555284],[-58.532617,-34.555336],[-58.532685,-34.555402],[-58.532709,-34.555422],[-58.532754,-34.555459],[-58.532783,-34.555483],[-58.533561,-34.556122],[-58.533649,-34.556194],[-58.53372,-34.556252],[-58.534056,-34.55653],[-58.534271,-34.556708],[-58.534357,-34.556779],[-58.534415,-34.556827],[-58.534485,-34.556885],[-58.534556,-34.556944],[-58.534616,-34.556993],[-58.534649,-34.557021],[-58.534677,-34.557044],[-58.534832,-34.557172],[-58.535051,-34.557354],[-58.535246,-34.557515],[-58.535267,-34.557532],[-58.53533,-34.557582],[-58.535386,-34.557629],[-58.535408,-34.557646],[-58.535524,-34.557741],[-58.535607,-34.55781],[-58.535689,-34.557877],[-58.535765,-34.557939],[-58.535824,-34.557987],[-58.535884,-34.558036],[-58.535945,-34.558086],[-58.536048,-34.558171],[-58.536122,-34.558231],[-58.536222,-34.558313],[-58.536312,-34.558387],[-58.53699,-34.558942]],"type":"LineString"},"properties":{"route_id":"walk_106","school_id":"pizarnik","school_name":"Escuela Pizarnik","color":"#c8a7ff","distance_m":1618,"duration_s":186,"source":"OSRM foot; muestra de movilidad peatonal hacia escuela"}},{"type":"Feature","geometry":{"coordinates":[[-58.527239,-34.556117],[-58.52737,-34.556024],[-58.52825,-34.555438],[-58.528779,-34.555075],[-58.528829,-34.555033],[-58.528969,-34.554859],[-58.529434,-34.554299],[-58.530052,-34.553518],[-58.529998,-34.553497],[-58.529934,-34.553454],[-58.52988,-34.553369],[-58.529825,-34.553276],[-58.530704,-34.552226],[-58.530769,-34.552151],[-58.531272,-34.55305],[-58.531337,-34.553169],[-58.531427,-34.553349],[-58.531863,-34.554093],[-58.531926,-34.554195],[-58.53214,-34.554555],[-58.532538,-34.555244],[-58.532565,-34.555284],[-58.532617,-34.555336],[-58.532685,-34.555402],[-58.532709,-34.555422],[-58.532754,-34.555459],[-58.532783,-34.555483],[-58.533561,-34.556122],[-58.533649,-34.556194],[-58.53372,-34.556252],[-58.534056,-34.55653],[-58.534271,-34.556708],[-58.534357,-34.556779],[-58.534415,-34.556827],[-58.534485,-34.556885],[-58.534556,-34.556944],[-58.534616,-34.556993],[-58.534649,-34.557021],[-58.534677,-34.557044],[-58.534832,-34.557172],[-58.535051,-34.557354],[-58.535246,-34.557515],[-58.535267,-34.557532],[-58.53533,-34.557582],[-58.535386,-34.557629],[-58.535408,-34.557646],[-58.535524,-34.557741],[-58.535607,-34.55781],[-58.535689,-34.557877],[-58.535765,-34.557939],[-58.535824,-34.557987],[-58.535884,-34.558036],[-58.535945,-34.558086],[-58.536048,-34.558171],[-58.536122,-34.558231],[-58.536222,-34.558313],[-58.536312,-34.558387],[-58.53699,-34.558942]],"type":"LineString"},"properties":{"route_id":"walk_107","school_id":"pizarnik","school_name":"Escuela Pizarnik","color":"#c8a7ff","distance_m":1537,"duration_s":184,"source":"OSRM foot; muestra de movilidad peatonal hacia escuela"}},{"type":"Feature","geometry":{"coordinates":[[-58.527046,-34.556253],[-58.52737,-34.556024],[-58.52825,-34.555438],[-58.528779,-34.555075],[-58.528829,-34.555033],[-58.528969,-34.554859],[-58.529434,-34.554299],[-58.530052,-34.553518],[-58.529998,-34.553497],[-58.529934,-34.553454],[-58.52988,-34.553369],[-58.529825,-34.553276],[-58.530704,-34.552226],[-58.530769,-34.552151],[-58.531272,-34.55305],[-58.531337,-34.553169],[-58.531427,-34.553349],[-58.531863,-34.554093],[-58.531926,-34.554195],[-58.53214,-34.554555],[-58.532538,-34.555244],[-58.532565,-34.555284],[-58.532617,-34.555336],[-58.532685,-34.555402],[-58.532709,-34.555422],[-58.532754,-34.555459],[-58.532783,-34.555483],[-58.533561,-34.556122],[-58.533649,-34.556194],[-58.53372,-34.556252],[-58.534056,-34.55653],[-58.534271,-34.556708],[-58.534357,-34.556779],[-58.534415,-34.556827],[-58.534485,-34.556885],[-58.534556,-34.556944],[-58.534616,-34.556993],[-58.534649,-34.557021],[-58.534677,-34.557044],[-58.534832,-34.557172],[-58.535051,-34.557354],[-58.535246,-34.557515],[-58.535267,-34.557532],[-58.53533,-34.557582],[-58.535386,-34.557629],[-58.535408,-34.557646],[-58.535524,-34.557741],[-58.535607,-34.55781],[-58.535689,-34.557877],[-58.535765,-34.557939],[-58.535824,-34.557987],[-58.535884,-34.558036],[-58.535945,-34.558086],[-58.536048,-34.558171],[-58.536122,-34.558231],[-58.536222,-34.558313],[-58.536312,-34.558387],[-58.53699,-34.558942]],"type":"LineString"},"properties":{"route_id":"walk_108","school_id":"pizarnik","school_name":"Escuela Pizarnik","color":"#c8a7ff","distance_m":1560,"duration_s":187,"source":"OSRM foot; muestra de movilidad peatonal hacia escuela"}},{"type":"Feature","geometry":{"coordinates":[[-58.538644,-34.550896],[-58.538215,-34.551244],[-58.53815,-34.551293],[-58.538111,-34.551318],[-58.538991,-34.551928],[-58.539835,-34.552528],[-58.540741,-34.553168],[-58.540049,-34.553794],[-58.539143,-34.554635],[-58.539077,-34.554683],[-58.538463,-34.555088],[-58.537964,-34.555424],[-58.537886,-34.555484],[-58.537251,-34.555998],[-58.536403,-34.556699],[-58.535407,-34.55752],[-58.535387,-34.557536],[-58.53533,-34.557582],[-58.535386,-34.557629],[-58.535408,-34.557646],[-58.535524,-34.557741],[-58.535607,-34.55781],[-58.535689,-34.557877],[-58.535765,-34.557939],[-58.535824,-34.557987],[-58.535884,-34.558036],[-58.535945,-34.558086],[-58.536048,-34.558171],[-58.536122,-34.558231],[-58.536222,-34.558313],[-58.536312,-34.558387],[-58.53699,-34.558942]],"type":"LineString"},"properties":{"route_id":"walk_109","school_id":"pizarnik","school_name":"Escuela Pizarnik","color":"#c8a7ff","distance_m":1297,"duration_s":155,"source":"OSRM foot; muestra de movilidad peatonal hacia escuela"}},{"type":"Feature","geometry":{"coordinates":[[-58.535636,-34.550249],[-58.536053,-34.550087],[-58.536108,-34.550057],[-58.536145,-34.550026],[-58.536191,-34.550057],[-58.536267,-34.55011],[-58.536248,-34.550149],[-58.536248,-34.550186],[-58.536279,-34.550248],[-58.536741,-34.551054],[-58.535397,-34.551583],[-58.535438,-34.551633],[-58.535479,-34.551674],[-58.5364,-34.552437],[-58.536507,-34.552526],[-58.537319,-34.553194],[-58.538236,-34.553962],[-58.539077,-34.554683],[-58.538463,-34.555088],[-58.537964,-34.555424],[-58.537886,-34.555484],[-58.537251,-34.555998],[-58.536403,-34.556699],[-58.535407,-34.55752],[-58.535387,-34.557536],[-58.53533,-34.557582],[-58.535386,-34.557629],[-58.535408,-34.557646],[-58.535524,-34.557741],[-58.535607,-34.55781],[-58.535689,-34.557877],[-58.535765,-34.557939],[-58.535824,-34.557987],[-58.535884,-34.558036],[-58.535945,-34.558086],[-58.536048,-34.558171],[-58.536122,-34.558231],[-58.536222,-34.558313],[-58.536312,-34.558387],[-58.53699,-34.558942]],"type":"LineString"},"properties":{"route_id":"walk_110","school_id":"pizarnik","school_name":"Escuela Pizarnik","color":"#c8a7ff","distance_m":1487,"duration_s":188,"source":"OSRM foot; muestra de movilidad peatonal hacia escuela"}},{"type":"Feature","geometry":{"coordinates":[[-58.536127,-34.550014],[-58.536145,-34.550026],[-58.536191,-34.550057],[-58.536267,-34.55011],[-58.536248,-34.550149],[-58.536248,-34.550186],[-58.536279,-34.550248],[-58.536741,-34.551054],[-58.535397,-34.551583],[-58.535438,-34.551633],[-58.535479,-34.551674],[-58.5364,-34.552437],[-58.536507,-34.552526],[-58.537319,-34.553194],[-58.538236,-34.553962],[-58.539077,-34.554683],[-58.538463,-34.555088],[-58.537964,-34.555424],[-58.537886,-34.555484],[-58.537251,-34.555998],[-58.536403,-34.556699],[-58.535407,-34.55752],[-58.535387,-34.557536],[-58.53533,-34.557582],[-58.535386,-34.557629],[-58.535408,-34.557646],[-58.535524,-34.557741],[-58.535607,-34.55781],[-58.535689,-34.557877],[-58.535765,-34.557939],[-58.535824,-34.557987],[-58.535884,-34.558036],[-58.535945,-34.558086],[-58.536048,-34.558171],[-58.536122,-34.558231],[-58.536222,-34.558313],[-58.536312,-34.558387],[-58.53699,-34.558942]],"type":"LineString"},"properties":{"route_id":"walk_111","school_id":"pizarnik","school_name":"Escuela Pizarnik","color":"#c8a7ff","distance_m":1436,"duration_s":178,"source":"OSRM foot; muestra de movilidad peatonal hacia escuela"}},{"type":"Feature","geometry":{"coordinates":[[-58.528116,-34.553302],[-58.528677,-34.553637],[-58.528714,-34.553666],[-58.528775,-34.553728],[-58.529647,-34.553352],[-58.529825,-34.553276],[-58.530704,-34.552226],[-58.530769,-34.552151],[-58.531272,-34.55305],[-58.531337,-34.553169],[-58.531427,-34.553349],[-58.531863,-34.554093],[-58.531926,-34.554195],[-58.53214,-34.554555],[-58.532538,-34.555244],[-58.532565,-34.555284],[-58.532617,-34.555336],[-58.532685,-34.555402],[-58.532709,-34.555422],[-58.532754,-34.555459],[-58.532783,-34.555483],[-58.533561,-34.556122],[-58.533649,-34.556194],[-58.53372,-34.556252],[-58.534056,-34.55653],[-58.534271,-34.556708],[-58.534357,-34.556779],[-58.534415,-34.556827],[-58.534485,-34.556885],[-58.534556,-34.556944],[-58.534616,-34.556993],[-58.534649,-34.557021],[-58.534677,-34.557044],[-58.534832,-34.557172],[-58.535051,-34.557354],[-58.535246,-34.557515],[-58.535267,-34.557532],[-58.53533,-34.557582],[-58.535386,-34.557629],[-58.535408,-34.557646],[-58.535524,-34.557741],[-58.535607,-34.55781],[-58.535689,-34.557877],[-58.535765,-34.557939],[-58.535824,-34.557987],[-58.535884,-34.558036],[-58.535945,-34.558086],[-58.536048,-34.558171],[-58.536122,-34.558231],[-58.536222,-34.558313],[-58.536312,-34.558387],[-58.53699,-34.558942]],"type":"LineString"},"properties":{"route_id":"walk_112","school_id":"pizarnik","school_name":"Escuela Pizarnik","color":"#c8a7ff","distance_m":1296,"duration_s":152,"source":"OSRM foot; muestra de movilidad peatonal hacia escuela"}},{"type":"Feature","geometry":{"coordinates":[[-58.52634,-34.555444],[-58.526513,-34.55554],[-58.526724,-34.555322],[-58.527092,-34.554925],[-58.527199,-34.554826],[-58.527319,-34.554719],[-58.527527,-34.554542],[-58.527736,-34.554372],[-58.5278,-34.554329],[-58.527895,-34.554264],[-58.528118,-34.55412],[-58.528591,-34.55383],[-58.528775,-34.553728],[-58.529647,-34.553352],[-58.529825,-34.553276],[-58.530704,-34.552226],[-58.530769,-34.552151],[-58.531272,-34.55305],[-58.531337,-34.553169],[-58.531427,-34.553349],[-58.531863,-34.554093],[-58.531926,-34.554195],[-58.53214,-34.554555],[-58.532538,-34.555244],[-58.532565,-34.555284],[-58.532617,-34.555336],[-58.532685,-34.555402],[-58.532709,-34.555422],[-58.532754,-34.555459],[-58.532783,-34.555483],[-58.533561,-34.556122],[-58.533649,-34.556194],[-58.53372,-34.556252],[-58.534056,-34.55653],[-58.534271,-34.556708],[-58.534357,-34.556779],[-58.534415,-34.556827],[-58.534485,-34.556885],[-58.534556,-34.556944],[-58.534616,-34.556993],[-58.534649,-34.557021],[-58.534677,-34.557044],[-58.534832,-34.557172],[-58.535051,-34.557354],[-58.535246,-34.557515],[-58.535267,-34.557532],[-58.53533,-34.557582],[-58.535386,-34.557629],[-58.535408,-34.557646],[-58.535524,-34.557741],[-58.535607,-34.55781],[-58.535689,-34.557877],[-58.535765,-34.557939],[-58.535824,-34.557987],[-58.535884,-34.558036],[-58.535945,-34.558086],[-58.536048,-34.558171],[-58.536122,-34.558231],[-58.536222,-34.558313],[-58.536312,-34.558387],[-58.53699,-34.558942]],"type":"LineString"},"properties":{"route_id":"walk_113","school_id":"pizarnik","school_name":"Escuela Pizarnik","color":"#c8a7ff","distance_m":1529,"duration_s":172,"source":"OSRM foot; muestra de movilidad peatonal hacia escuela"}},{"type":"Feature","geometry":{"coordinates":[[-58.534979,-34.549252],[-58.534237,-34.549543],[-58.534826,-34.550562],[-58.535397,-34.551583],[-58.535438,-34.551633],[-58.535479,-34.551674],[-58.5364,-34.552437],[-58.536507,-34.552526],[-58.537319,-34.553194],[-58.538236,-34.553962],[-58.539077,-34.554683],[-58.538463,-34.555088],[-58.537964,-34.555424],[-58.537886,-34.555484],[-58.537251,-34.555998],[-58.536403,-34.556699],[-58.535407,-34.55752],[-58.535387,-34.557536],[-58.53533,-34.557582],[-58.535386,-34.557629],[-58.535408,-34.557646],[-58.535524,-34.557741],[-58.535607,-34.55781],[-58.535689,-34.557877],[-58.535765,-34.557939],[-58.535824,-34.557987],[-58.535884,-34.558036],[-58.535945,-34.558086],[-58.536048,-34.558171],[-58.536122,-34.558231],[-58.536222,-34.558313],[-58.536312,-34.558387],[-58.53699,-34.558942]],"type":"LineString"},"properties":{"route_id":"walk_114","school_id":"pizarnik","school_name":"Escuela Pizarnik","color":"#c8a7ff","distance_m":1493,"duration_s":174,"source":"OSRM foot; muestra de movilidad peatonal hacia escuela"}},{"type":"Feature","geometry":{"coordinates":[[-58.527673,-34.552447],[-58.527892,-34.552179],[-58.528812,-34.551064],[-58.529783,-34.551612],[-58.530568,-34.552056],[-58.530622,-34.552066],[-58.53071,-34.552049],[-58.530769,-34.552151],[-58.531272,-34.55305],[-58.531337,-34.553169],[-58.531427,-34.553349],[-58.531863,-34.554093],[-58.531926,-34.554195],[-58.53214,-34.554555],[-58.532538,-34.555244],[-58.532565,-34.555284],[-58.532617,-34.555336],[-58.532685,-34.555402],[-58.532709,-34.555422],[-58.532754,-34.555459],[-58.532783,-34.555483],[-58.533561,-34.556122],[-58.533649,-34.556194],[-58.53372,-34.556252],[-58.534056,-34.55653],[-58.534271,-34.556708],[-58.534357,-34.556779],[-58.534415,-34.556827],[-58.534485,-34.556885],[-58.534556,-34.556944],[-58.534616,-34.556993],[-58.534649,-34.557021],[-58.534677,-34.557044],[-58.534832,-34.557172],[-58.535051,-34.557354],[-58.535246,-34.557515],[-58.535267,-34.557532],[-58.53533,-34.557582],[-58.535386,-34.557629],[-58.535408,-34.557646],[-58.535524,-34.557741],[-58.535607,-34.55781],[-58.535689,-34.557877],[-58.535765,-34.557939],[-58.535824,-34.557987],[-58.535884,-34.558036],[-58.535945,-34.558086],[-58.536048,-34.558171],[-58.536122,-34.558231],[-58.536222,-34.558313],[-58.536312,-34.558387],[-58.53699,-34.558942]],"type":"LineString"},"properties":{"route_id":"walk_115","school_id":"pizarnik","school_name":"Escuela Pizarnik","color":"#c8a7ff","distance_m":1366,"duration_s":161,"source":"OSRM foot; muestra de movilidad peatonal hacia escuela"}},{"type":"Feature","geometry":{"coordinates":[[-58.531253,-34.550144],[-58.531523,-34.550605],[-58.532121,-34.551624],[-58.532705,-34.552641],[-58.533286,-34.553653],[-58.533773,-34.554501],[-58.533818,-34.554558],[-58.533911,-34.554639],[-58.534726,-34.555303],[-58.535683,-34.556108],[-58.536403,-34.556699],[-58.535407,-34.55752],[-58.535387,-34.557536],[-58.53533,-34.557582],[-58.535386,-34.557629],[-58.535408,-34.557646],[-58.535524,-34.557741],[-58.535607,-34.55781],[-58.535689,-34.557877],[-58.535765,-34.557939],[-58.535824,-34.557987],[-58.535884,-34.558036],[-58.535945,-34.558086],[-58.536048,-34.558171],[-58.536122,-34.558231],[-58.536222,-34.558313],[-58.536312,-34.558387],[-58.53699,-34.558942]],"type":"LineString"},"properties":{"route_id":"walk_116","school_id":"pizarnik","school_name":"Escuela Pizarnik","color":"#c8a7ff","distance_m":1232,"duration_s":147,"source":"OSRM foot; muestra de movilidad peatonal hacia escuela"}},{"type":"Feature","geometry":{"coordinates":[[-58.539452,-34.54912],[-58.53971,-34.548897],[-58.540383,-34.549467],[-58.541181,-34.550132],[-58.541329,-34.550252],[-58.541507,-34.550364],[-58.541579,-34.550421],[-58.541989,-34.550784],[-58.542683,-34.551391],[-58.542777,-34.551467],[-58.542333,-34.551838],[-58.541758,-34.552303],[-58.540741,-34.553168],[-58.540049,-34.553794],[-58.539143,-34.554635],[-58.539077,-34.554683],[-58.538463,-34.555088],[-58.537964,-34.555424],[-58.537886,-34.555484],[-58.537251,-34.555998],[-58.536403,-34.556699],[-58.535407,-34.55752],[-58.535387,-34.557536],[-58.53533,-34.557582],[-58.535386,-34.557629],[-58.535408,-34.557646],[-58.535524,-34.557741],[-58.535607,-34.55781],[-58.535689,-34.557877],[-58.535765,-34.557939],[-58.535824,-34.557987],[-58.535884,-34.558036],[-58.535945,-34.558086],[-58.536048,-34.558171],[-58.536122,-34.558231],[-58.536222,-34.558313],[-58.536312,-34.558387],[-58.53699,-34.558942]],"type":"LineString"},"properties":{"route_id":"walk_117","school_id":"pizarnik","school_name":"Escuela Pizarnik","color":"#c8a7ff","distance_m":1614,"duration_s":198,"source":"OSRM foot; muestra de movilidad peatonal hacia escuela"}},{"type":"Feature","geometry":{"coordinates":[[-58.533781,-34.548768],[-58.534237,-34.549543],[-58.534826,-34.550562],[-58.535397,-34.551583],[-58.535438,-34.551633],[-58.535479,-34.551674],[-58.5364,-34.552437],[-58.536507,-34.552526],[-58.537319,-34.553194],[-58.538236,-34.553962],[-58.539077,-34.554683],[-58.538463,-34.555088],[-58.537964,-34.555424],[-58.537886,-34.555484],[-58.537251,-34.555998],[-58.536403,-34.556699],[-58.535407,-34.55752],[-58.535387,-34.557536],[-58.53533,-34.557582],[-58.535386,-34.557629],[-58.535408,-34.557646],[-58.535524,-34.557741],[-58.535607,-34.55781],[-58.535689,-34.557877],[-58.535765,-34.557939],[-58.535824,-34.557987],[-58.535884,-34.558036],[-58.535945,-34.558086],[-58.536048,-34.558171],[-58.536122,-34.558231],[-58.536222,-34.558313],[-58.536312,-34.558387],[-58.53699,-34.558942]],"type":"LineString"},"properties":{"route_id":"walk_118","school_id":"pizarnik","school_name":"Escuela Pizarnik","color":"#c8a7ff","distance_m":1514,"duration_s":172,"source":"OSRM foot; muestra de movilidad peatonal hacia escuela"}},{"type":"Feature","geometry":{"coordinates":[[-58.533566,-34.548564],[-58.533643,-34.548534],[-58.534237,-34.549543],[-58.534826,-34.550562],[-58.535397,-34.551583],[-58.535438,-34.551633],[-58.535479,-34.551674],[-58.5364,-34.552437],[-58.536507,-34.552526],[-58.537319,-34.553194],[-58.538236,-34.553962],[-58.539077,-34.554683],[-58.538463,-34.555088],[-58.537964,-34.555424],[-58.537886,-34.555484],[-58.537251,-34.555998],[-58.536403,-34.556699],[-58.535407,-34.55752],[-58.535387,-34.557536],[-58.53533,-34.557582],[-58.535386,-34.557629],[-58.535408,-34.557646],[-58.535524,-34.557741],[-58.535607,-34.55781],[-58.535689,-34.557877],[-58.535765,-34.557939],[-58.535824,-34.557987],[-58.535884,-34.558036],[-58.535945,-34.558086],[-58.536048,-34.558171],[-58.536122,-34.558231],[-58.536222,-34.558313],[-58.536312,-34.558387],[-58.53699,-34.558942]],"type":"LineString"},"properties":{"route_id":"walk_119","school_id":"pizarnik","school_name":"Escuela Pizarnik","color":"#c8a7ff","distance_m":1550,"duration_s":182,"source":"OSRM foot; muestra de movilidad peatonal hacia escuela"}},{"type":"Feature","geometry":{"coordinates":[[-58.541418,-34.548644],[-58.541731,-34.548395],[-58.542422,-34.549138],[-58.542746,-34.549484],[-58.543122,-34.54988],[-58.543824,-34.550618],[-58.543653,-34.550756],[-58.542777,-34.551467],[-58.542333,-34.551838],[-58.541758,-34.552303],[-58.540741,-34.553168],[-58.540049,-34.553794],[-58.539143,-34.554635],[-58.539077,-34.554683],[-58.538463,-34.555088],[-58.537964,-34.555424],[-58.537886,-34.555484],[-58.537251,-34.555998],[-58.536403,-34.556699],[-58.535407,-34.55752],[-58.535387,-34.557536],[-58.53533,-34.557582],[-58.535386,-34.557629],[-58.535408,-34.557646],[-58.535524,-34.557741],[-58.535607,-34.55781],[-58.535689,-34.557877],[-58.535765,-34.557939],[-58.535824,-34.557987],[-58.535884,-34.558036],[-58.535945,-34.558086],[-58.536048,-34.558171],[-58.536122,-34.558231],[-58.536222,-34.558313],[-58.536312,-34.558387],[-58.53699,-34.558942]],"type":"LineString"},"properties":{"route_id":"walk_120","school_id":"pizarnik","school_name":"Escuela Pizarnik","color":"#c8a7ff","distance_m":1665,"duration_s":179,"source":"OSRM foot; muestra de movilidad peatonal hacia escuela"}},{"type":"Feature","geometry":{"coordinates":[[-58.527449,-34.550994],[-58.527539,-34.550883],[-58.527766,-34.550607],[-58.527843,-34.550513],[-58.528812,-34.551064],[-58.529783,-34.551612],[-58.530568,-34.552056],[-58.530622,-34.552066],[-58.53071,-34.552049],[-58.530769,-34.552151],[-58.531272,-34.55305],[-58.531337,-34.553169],[-58.531427,-34.553349],[-58.531863,-34.554093],[-58.531926,-34.554195],[-58.53214,-34.554555],[-58.532538,-34.555244],[-58.532565,-34.555284],[-58.532617,-34.555336],[-58.532685,-34.555402],[-58.532709,-34.555422],[-58.532754,-34.555459],[-58.532783,-34.555483],[-58.533561,-34.556122],[-58.533649,-34.556194],[-58.53372,-34.556252],[-58.534056,-34.55653],[-58.534271,-34.556708],[-58.534357,-34.556779],[-58.534415,-34.556827],[-58.534485,-34.556885],[-58.534556,-34.556944],[-58.534616,-34.556993],[-58.534649,-34.557021],[-58.534677,-34.557044],[-58.534832,-34.557172],[-58.535051,-34.557354],[-58.535246,-34.557515],[-58.535267,-34.557532],[-58.53533,-34.557582],[-58.535386,-34.557629],[-58.535408,-34.557646],[-58.535524,-34.557741],[-58.535607,-34.55781],[-58.535689,-34.557877],[-58.535765,-34.557939],[-58.535824,-34.557987],[-58.535884,-34.558036],[-58.535945,-34.558086],[-58.536048,-34.558171],[-58.536122,-34.558231],[-58.536222,-34.558313],[-58.536312,-34.558387],[-58.53699,-34.558942]],"type":"LineString"},"properties":{"route_id":"walk_121","school_id":"pizarnik","school_name":"Escuela Pizarnik","color":"#c8a7ff","distance_m":1352,"duration_s":160,"source":"OSRM foot; muestra de movilidad peatonal hacia escuela"}},{"type":"Feature","geometry":{"coordinates":[[-58.532571,-34.570337],[-58.532642,-34.570279],[-58.533701,-34.569424],[-58.534751,-34.568556],[-58.535227,-34.568174],[-58.53586,-34.567659],[-58.536885,-34.566827],[-58.537001,-34.566732],[-58.537585,-34.567269],[-58.537677,-34.56735],[-58.537736,-34.567402],[-58.537798,-34.567457],[-58.538239,-34.567844],[-58.53835,-34.567759],[-58.53921,-34.567102],[-58.539314,-34.567022],[-58.539454,-34.566914],[-58.540404,-34.566179],[-58.541358,-34.56543],[-58.541462,-34.565352],[-58.541602,-34.565246],[-58.541961,-34.564976],[-58.541989,-34.564927],[-58.541993,-34.564864],[-58.54181,-34.563913],[-58.541725,-34.563559],[-58.54158,-34.562966],[-58.541521,-34.562717],[-58.541505,-34.562682],[-58.54146,-34.56263],[-58.541424,-34.562601],[-58.541304,-34.562504],[-58.541209,-34.562426],[-58.540949,-34.562218],[-58.54038,-34.561747],[-58.540251,-34.561641],[-58.540173,-34.561576],[-58.539536,-34.561049],[-58.53943,-34.56096],[-58.539332,-34.56088],[-58.539304,-34.560857],[-58.538992,-34.560599],[-58.538713,-34.560368],[-58.538505,-34.560196],[-58.538303,-34.560024],[-58.537863,-34.559664],[-58.537312,-34.559206],[-58.537299,-34.559196],[-58.537278,-34.559178],[-58.537244,-34.55915],[-58.537213,-34.559125],[-58.53716,-34.559081],[-58.53714,-34.559065],[-58.537086,-34.55902],[-58.53699,-34.558942]],"type":"LineString"},"properties":{"route_id":"walk_122","school_id":"pizarnik","school_name":"Escuela Pizarnik","color":"#c8a7ff","distance_m":2050,"duration_s":211,"source":"OSRM foot; muestra de movilidad peatonal hacia escuela"}},{"type":"Feature","geometry":{"coordinates":[[-58.534062,-34.546953],[-58.534506,-34.547356],[-58.533493,-34.548135],[-58.533452,-34.548206],[-58.533233,-34.548696],[-58.532295,-34.549068],[-58.530939,-34.549606],[-58.529674,-34.550107],[-58.529605,-34.550134],[-58.530091,-34.550976],[-58.530187,-34.551143],[-58.530274,-34.551301],[-58.53071,-34.552049],[-58.530769,-34.552151],[-58.531272,-34.55305],[-58.531337,-34.553169],[-58.531427,-34.553349],[-58.531863,-34.554093],[-58.531926,-34.554195],[-58.53214,-34.554555],[-58.532538,-34.555244],[-58.532565,-34.555284],[-58.532617,-34.555336],[-58.532685,-34.555402],[-58.532709,-34.555422],[-58.532754,-34.555459],[-58.532783,-34.555483],[-58.533561,-34.556122],[-58.533649,-34.556194],[-58.53372,-34.556252],[-58.534056,-34.55653],[-58.534271,-34.556708],[-58.534357,-34.556779],[-58.534415,-34.556827],[-58.534485,-34.556885],[-58.534556,-34.556944],[-58.534616,-34.556993],[-58.534649,-34.557021],[-58.534677,-34.557044],[-58.534832,-34.557172],[-58.535051,-34.557354],[-58.535246,-34.557515],[-58.535267,-34.557532],[-58.53533,-34.557582],[-58.535386,-34.557629],[-58.535408,-34.557646],[-58.535524,-34.557741],[-58.535607,-34.55781],[-58.535689,-34.557877],[-58.535765,-34.557939],[-58.535824,-34.557987],[-58.535884,-34.558036],[-58.535945,-34.558086],[-58.536048,-34.558171],[-58.536122,-34.558231],[-58.536222,-34.558313],[-58.536312,-34.558387],[-58.53699,-34.558942]],"type":"LineString"},"properties":{"route_id":"walk_123","school_id":"pizarnik","school_name":"Escuela Pizarnik","color":"#c8a7ff","distance_m":1830,"duration_s":222,"source":"OSRM foot; muestra de movilidad peatonal hacia escuela"}},{"type":"Feature","geometry":{"coordinates":[[-58.535515,-34.546596],[-58.535327,-34.546737],[-58.534506,-34.547356],[-58.533493,-34.548135],[-58.533452,-34.548206],[-58.533233,-34.548696],[-58.532295,-34.549068],[-58.530939,-34.549606],[-58.529674,-34.550107],[-58.529605,-34.550134],[-58.530091,-34.550976],[-58.530187,-34.551143],[-58.530274,-34.551301],[-58.53071,-34.552049],[-58.530769,-34.552151],[-58.531272,-34.55305],[-58.531337,-34.553169],[-58.531427,-34.553349],[-58.531863,-34.554093],[-58.531926,-34.554195],[-58.53214,-34.554555],[-58.532538,-34.555244],[-58.532565,-34.555284],[-58.532617,-34.555336],[-58.532685,-34.555402],[-58.532709,-34.555422],[-58.532754,-34.555459],[-58.532783,-34.555483],[-58.533561,-34.556122],[-58.533649,-34.556194],[-58.53372,-34.556252],[-58.534056,-34.55653],[-58.534271,-34.556708],[-58.534357,-34.556779],[-58.534415,-34.556827],[-58.534485,-34.556885],[-58.534556,-34.556944],[-58.534616,-34.556993],[-58.534649,-34.557021],[-58.534677,-34.557044],[-58.534832,-34.557172],[-58.535051,-34.557354],[-58.535246,-34.557515],[-58.535267,-34.557532],[-58.53533,-34.557582],[-58.535386,-34.557629],[-58.535408,-34.557646],[-58.535524,-34.557741],[-58.535607,-34.55781],[-58.535689,-34.557877],[-58.535765,-34.557939],[-58.535824,-34.557987],[-58.535884,-34.558036],[-58.535945,-34.558086],[-58.536048,-34.558171],[-58.536122,-34.558231],[-58.536222,-34.558313],[-58.536312,-34.558387],[-58.53699,-34.558942]],"type":"LineString"},"properties":{"route_id":"walk_124","school_id":"pizarnik","school_name":"Escuela Pizarnik","color":"#c8a7ff","distance_m":1895,"duration_s":222,"source":"OSRM foot; muestra de movilidad peatonal hacia escuela"}},{"type":"Feature","geometry":{"coordinates":[[-58.531724,-34.54704],[-58.53146,-34.547236],[-58.53131,-34.547349],[-58.530342,-34.548088],[-58.530158,-34.548227],[-58.529022,-34.549093],[-58.529129,-34.549285],[-58.529605,-34.550134],[-58.530091,-34.550976],[-58.530187,-34.551143],[-58.530274,-34.551301],[-58.53071,-34.552049],[-58.530769,-34.552151],[-58.531272,-34.55305],[-58.531337,-34.553169],[-58.531427,-34.553349],[-58.531863,-34.554093],[-58.531926,-34.554195],[-58.53214,-34.554555],[-58.532538,-34.555244],[-58.532565,-34.555284],[-58.532617,-34.555336],[-58.532685,-34.555402],[-58.532709,-34.555422],[-58.532754,-34.555459],[-58.532783,-34.555483],[-58.533561,-34.556122],[-58.533649,-34.556194],[-58.53372,-34.556252],[-58.534056,-34.55653],[-58.534271,-34.556708],[-58.534357,-34.556779],[-58.534415,-34.556827],[-58.534485,-34.556885],[-58.534556,-34.556944],[-58.534616,-34.556993],[-58.534649,-34.557021],[-58.534677,-34.557044],[-58.534832,-34.557172],[-58.535051,-34.557354],[-58.535246,-34.557515],[-58.535267,-34.557532],[-58.53533,-34.557582],[-58.535386,-34.557629],[-58.535408,-34.557646],[-58.535524,-34.557741],[-58.535607,-34.55781],[-58.535689,-34.557877],[-58.535765,-34.557939],[-58.535824,-34.557987],[-58.535884,-34.558036],[-58.535945,-34.558086],[-58.536048,-34.558171],[-58.536122,-34.558231],[-58.536222,-34.558313],[-58.536312,-34.558387],[-58.53699,-34.558942]],"type":"LineString"},"properties":{"route_id":"walk_125","school_id":"pizarnik","school_name":"Escuela Pizarnik","color":"#c8a7ff","distance_m":1671,"duration_s":170,"source":"OSRM foot; muestra de movilidad peatonal hacia escuela"}},{"type":"Feature","geometry":{"coordinates":[[-58.524842,-34.550585],[-58.52488,-34.550605],[-58.525599,-34.550947],[-58.525801,-34.551054],[-58.52628,-34.5513],[-58.526319,-34.551319],[-58.526367,-34.551346],[-58.526918,-34.551643],[-58.527892,-34.552179],[-58.528867,-34.552723],[-58.529752,-34.553213],[-58.529825,-34.553276],[-58.530405,-34.553161],[-58.530424,-34.553214],[-58.530427,-34.553237],[-58.530422,-34.553261],[-58.530221,-34.553512],[-58.530265,-34.55353],[-58.530811,-34.553815],[-58.531032,-34.553932],[-58.531785,-34.554369],[-58.531876,-34.554257],[-58.531926,-34.554195],[-58.53214,-34.554555],[-58.532538,-34.555244],[-58.532565,-34.555284],[-58.532617,-34.555336],[-58.532685,-34.555402],[-58.532709,-34.555422],[-58.532754,-34.555459],[-58.532783,-34.555483],[-58.533561,-34.556122],[-58.533649,-34.556194],[-58.53372,-34.556252],[-58.534056,-34.55653],[-58.534271,-34.556708],[-58.534357,-34.556779],[-58.534415,-34.556827],[-58.534485,-34.556885],[-58.534556,-34.556944],[-58.534616,-34.556993],[-58.534649,-34.557021],[-58.534677,-34.557044],[-58.534832,-34.557172],[-58.535051,-34.557354],[-58.535246,-34.557515],[-58.535267,-34.557532],[-58.53533,-34.557582],[-58.535386,-34.557629],[-58.535408,-34.557646],[-58.535524,-34.557741],[-58.535607,-34.55781],[-58.535689,-34.557877],[-58.535765,-34.557939],[-58.535824,-34.557987],[-58.535884,-34.558036],[-58.535945,-34.558086],[-58.536048,-34.558171],[-58.536122,-34.558231],[-58.536222,-34.558313],[-58.536312,-34.558387],[-58.53699,-34.558942]],"type":"LineString"},"properties":{"route_id":"walk_126","school_id":"pizarnik","school_name":"Escuela Pizarnik","color":"#c8a7ff","distance_m":1550,"duration_s":195,"source":"OSRM foot; muestra de movilidad peatonal hacia escuela"}}]}